##########################################################
# Query made at 12/03/2025 07:31:23 UTC
# Time interval: from 12/01/2025 00:00  to 12/31/2025 23:59  UTC
##########################################################

##########################################################
# VEPT, Patna (India)
# WMO index: 42492. WIGOS ID: 0-20000-0-42492
# Latitude 25-36-00N. Longitude 085-10-00E. Altitude 51 m.
##########################################################

# No METAR/SPECI reports frome VEPT in database.

###################################
#  short TAF from VEPT
###################################
202512010200 TAF VEPT 010200Z 0103/0112 27005KT 1600 BR SCT018 BKN100
                      BECMG 0108/0110 32005KT 3500 HZ SCT100=
202512010500 TAF VEPT 010500Z 0106/0115 27005KT 2000 HZ FEW100
                      BECMG 0110/0112 4000 HZ
                      BECMG 0113/0115 00000KT 2500 BR NSC=
202512010800 TAF VEPT 010800Z 0109/0118 26005KT 3600 HZ NSC
                      BECMG 0115/0117 00000KT 2500 BR HZ=
202512011100 TAF VEPT 011100Z 0112/0121 00000KT 3200 BR HZ NSC
                      BECMG 0119/0121 2200 BR=
202512011400 TAF VEPT 011400Z 0115/0124 00000KT 2500 BR HZ NSC
                      BECMG 0122/0124 1200 MIFG BR=
202512011700 TAF VEPT 011700Z 0118/0203 00000KT 2500 BR HZ NSC
                      BECMG 0122/0124 1200 MIFG BR=
202512012000 TAF VEPT 012000Z 0121/0206 00000KT 2500 BR HZ NSC
                      BECMG 0122/0124 1200 MIFG BR
                      BECMG 0203/0205 27005KT 2500 BR HZ=
202512012300 TAF VEPT 012300Z 0200/0209 00000KT 1200 MIFG BR NSC
                      BECMG 0203/0205 27005KT 2500 BR HZ
                      BECMG 0207/0209 4500 HZ=
202512020200 TAF VEPT 020200Z 0203/0212 27005KT 2500 BR HZ NSC
                      BECMG 0207/0209 4000 HZ=
202512020500 TAF VEPT 020500Z 0206/0215 27005KT 2800 HZ NSC
                      BECMG 0209/0211 4000 HZ SCT100
                      BECMG 0213/0215 00000KT 2200 BR NSC=
202512020800 TAF VEPT 020800Z 0209/0218 27005KT 5000 HZ SCT100
                      BECMG 0212/0214 00000KT 3500 BR HZ
                      BECMG 0216/0218 2000 BR HZ NSC=
202512021100 TAF VEPT 021100Z 0212/0221 27005KT 3500 BR HZ NSC
                      BECMG 0214/0216 00000KT 2200 BR HZ=
202512021400 TAF VEPT 021400Z 0215/0224 00000KT 2500 BR HZ FEW100
                      BECMG 0222/0224 1200 MIFG BR NSC=
202512021700 TAF VEPT 021700Z 0218/0303 00000KT 2000 BR NSC
                      BECMG 0300/0302 1200 MIFG BR=
202512022000 TAF VEPT 022000Z 0221/0306 00000KT 2200 BR NSC
                      BECMG 0300/0302 1200 MIFG BR
                      BECMG 0303/0305 32005KT 2300 BR HZ=
202512022300 TAF VEPT 022300Z 0300/0309 25003KT 1400 MIFG BR NSC
                      BECMG 0303/0305 2500 BR HZ
                      BECMG 0307/0309 31005KT 4000 HZ=
202512030200 TAF VEPT 030200Z 0303/0312 27005KT 1800 BR HZ FEW100
                      BECMG 0306/0308 3500 BR HZ=
202512030500 TAF VEPT 030500Z 0306/0315 27005KT 2500 BR HZ NSC
                      BECMG 0309/0311 3500 HZ
                      BECMG 0313/0315 00000KT 2200 BR NSC=
202512030800 TAF VEPT 030800Z 0309/0318 27004KT 3500 HZ NSC
                      BECMG 0313/0315 2500 BR=
202512031100 TAF VEPT 031100Z 0312/0321 28004KT 2500 BR HZ NSC=
202512031400 TAF VEPT 031400Z 0315/0324 00000KT 2200 BR NSC
                      BECMG 0322/0324 1400 MIFG BR=
202512031700 TAF VEPT 031700Z 0318/0403 00000KT 2000 BR NSC
                      BECMG 0400/0402 1200 MIFG BR=
202512032000 TAF VEPT 032000Z 0321/0406 00000KT 1800 BR NSC
                      BECMG 0400/0402 1100 MIFG BR
                      BECMG 0403/0405 27005KT 2500 BR HZ=
202512032300 TAF VEPT 032300Z 0400/0409 27005KT 1400 MIFG BR NSC
                      BECMG 0403/0405 2500 BR HZ
                      BECMG 0407/0409 3700 HZ=
202512040200 TAF VEPT 040200Z 0403/0412 26005KT 2500 BR HZ NSC
                      BECMG 0407/0409 4000 HZ=
202512040500 TAF VEPT 040500Z 0406/0415 28005KT 3000 BR HZ NSC
                      BECMG 0408/0410 4000 HZ
                      BECMG 0413/0415 00000KT 2500 BR HZ=
202512040800 TAF VEPT 040800Z 0409/0418 31008KT 4500 HZ NSC
                      BECMG 0413/0415 2800 BR HZ=
202512041100 TAF VEPT 041100Z 0412/0421 27005KT 3500 HZ NSC
                      BECMG 0417/0419 00000KT 2500 BR=
202512041400 TAF VEPT 041400Z 0415/0424 00000KT 2500 BR HZ NSC
                      BECMG 0422/0424 1200 BR HZ=
202512041700 TAF VEPT 041700Z 0418/0503 00000KT 2200 BR HZ NSC
                      BECMG 0422/0424 1200 BR HZ
                      BECMG 0502/0503 27005KT 1800 BR HZ=
202512042000 TAF VEPT 042000Z 0421/0506 00000KT 1800 BR NSC
                      BECMG 0424/0502 1200 BR HZ
                      BECMG 0503/0505 27005KT 1800 BR HZ=
202512042300 TAF VEPT 042300Z 0500/0509 00000KT 1200 BR HZ NSC
                      BECMG 0502/0504 27005KT 1800 BR HZ
                      BECMG 0506/0508 3500 BR HZ=
202512050200 TAF VEPT 050200Z 0503/0512 27005KT 2500 HZ NSC
                      BECMG 0507/0509 4500 HZ FEW100=
202512050500 TAF VEPT 050500Z 0506/0515 27005KT 2800 HZ NSC
                      BECMG 0509/0511 4000 HZ FEW100
                      BECMG 0513/0515 00000KT 2500 BR HZ NSC=
202512050800 TAF VEPT 050800Z 0509/0518 27005KT 3000 HZ NSC
                      BECMG 0516/0518 00000KT 1800 BR=
202512051100 TAF VEPT 051100Z 0512/0521 27005KT 4500 HZ NSC
                      BECMG 0516/0518 00000KT 3500 BR HZ=
202512051400 TAF VEPT 051400Z 0515/0524 00000KT 2100 BR HZ NSC=
202512051700 TAF VEPT 051700Z 0518/0603 27005KT 2100 BR HZ NSC=
202512052000 TAF VEPT 052000Z 0521/0606 00000KT 2100 BR HZ NSC=
202512052300 TAF VEPT 052300Z 0600/0609 00000KT 2100 BR HZ NSC
                      BECMG 0607/0609 27005KT 3900 HZ=
202512060200 TAF VEPT 060200Z 0603/0612 27005KT 2500 HZ NSC
                      BECMG 0607/0609 4200 HZ=
202512060500 TAF VEPT 060500Z 0606/0615 27005KT 2800 HZ NSC
                      BECMG 0609/0611 4200 HZ
                      BECMG 0613/0615 2200 BR=
202512060800 TAF VEPT 060800Z 0609/0618 27005KT 5000 HZ BR NSC
                      BECMG 0612/0614 00000KT 3500 BR HZ
                      BECMG 0616/0618 2000 BR HZ=
202512061100 TAF VEPT 061100Z 0612/0621 27005KT 3500 HZ BR NSC
                      BECMG 0613/0615 00000KT 2000 HZ BR=
202512061400 TAF VEPT 061400Z 0615/0624 00000KT 2200 BR FEW100
                      BECMG 0622/0624 1400 MIFG BR NSC=
202512061700 TAF VEPT 061700Z 0618/0703 25004KT 2000 BR HZ FEW100
                      BECMG 0700/0702 1200 MIFG BR NSC=
202512062000 TAF VEPT 062000Z 0621/0706 25004KT 1800 BR HZ NSC
                      BECMG 0700/0702 1200 MIFG BR
                      BECMG 0703/0705 27005KT 2500 BR HZ=
202512062300 TAF VEPT 062300Z 0700/0709 25003KT 1400 MIFG BR FEW100
                      BECMG 0703/0705 2500 BR HZ
                      BECMG 0707/0709 3800 HZ=
202512070200 TAF VEPT 070200Z 0703/0712 27005KT 1800 BR HZ FEW100
                      BECMG 0706/0708 3500 BR HZ FEW020 SCT100=
202512070500 TAF VEPT 070500Z 0706/0715 27005KT 2500 BR HZ NSC
                      BECMG 0709/0711 3500 HZ SCT100
                      BECMG 0713/0715 00000KT 2200 BR NSC=
202512070800 TAF VEPT 070800Z 0709/0718 28006KT 2500 HZ NSC
                      BECMG 0713/0715 1500 BR=
202512071100 TAF VEPT 071100Z 0712/0721 27004KT 2200 HZ NSC
                      BECMG 0719/0721 00000KT 1500 BR=
202512071400 TAF VEPT 071400Z 0715/0724 00000KT 2200 BR SCT100
                      BECMG 0722/0724 25003KT 1400 MIFG BR=
202512071700 TAF VEPT 071700Z 0718/0803 00000KT 1600 BR NSC
                      BECMG 0800/0802 27005KT 1100 MIFG BR=
202512072000 TAF VEPT 072000Z 0721/0806 00000KT 1600 BR NSC
                      BECMG 0800/0802 27005KT 1100 MIFG BR
                      BECMG 0803/0805 2300 BR HZ=
202512072300 TAF VEPT 072300Z 0800/0809 27005KT 1300 MIFG BR NSC
                      BECMG 0803/0805 2500 BR HZ
                      BECMG 0807/0809 3500 HZ=
202512080200 TAF VEPT 080200Z 0803/0812 26005KT 1400 MIFG BR NSC
                      BECMG 0806/0808 2700 BR HZ
                      BECMG 0809/0811 4000 HZ=
202512080500 TAF VEPT 080500Z 0806/0815 25006KT 1600 HZ NSC
                      BECMG 0808/0810 3500 HZ FEW100=
202512080800 TAF VEPT 080800Z 0809/0818 29005KT 1500 FU NSC
                      BECMG 0813/0815 1200 MIFG BR=
202512081100 TAF VEPT 081100Z 0812/0821 27004KT 2000 HZ NSC
                      BECMG 0819/0821 00000KT 1500 BR=
202512081400 TAF VEPT 081400Z 0815/0824 00000KT 1200 MIFG BR NSC
                      BECMG 0822/0824 0700 FG BR=
202512081700 TAF VEPT 081700Z 0818/0903 00000KT 0700 FG MIFG NSC
                      BECMG 0901/0903 1200 BR MIFG=
202512082000 TAF VEPT 082000Z 0821/0906 00000KT 0700 FG MIFG NSC
                      BECMG 0901/0903 1200 BR MIFG FEW100
                      BECMG 0903/0905 27005KT 1800 BR HZ=
202512082300 TAF VEPT 082300Z 0900/0909 00000KT 0700 FG NSC
                      BECMG 0903/0905 1200 BR MIFG
                      BECMG 0906/0908 27005KT 2800 BR HZ FEW100=
202512090200 TAF VEPT 090200Z 0903/0912 00000KT 0800 FG FU NSC
                      BECMG 0904/0906 05003KT 1500 BR FU
                      BECMG 0907/0909 2800 HZ=
202512090500 TAF VEPT 090500Z 0906/0915 25004KT 2000 HZ NSC
                      BECMG 0907/0909 3100 HZ
                      BECMG 0913/0915 00000KT 1600 BR=
202512090800 TAF VEPT 090800Z 0909/0918 27006KT 1600 FU NSC
                      BECMG 0913/0915 1200 BR=
202512091100 TAF VEPT 091100Z 0912/0921 27005KT 1400 BR HZ NSC=
202512091400 TAF VEPT 091400Z 0915/0924 00000KT 1400 BR NSC
                      BECMG 0922/0924 0500 FG=
202512091700 TAF VEPT 091700Z 0918/1003 00000KT 0800 FG NSC=
202512092000 TAF VEPT 092000Z 0921/1006 00000KT 0500 FG NSC
                      BECMG 1004/1006 27005KT 1500 MIFG BR=
202512092300 TAF VEPT 092300Z 1000/1009 00000KT 0500 FG NSC
                      BECMG 1004/1006 27005KT 1500 BR HZ=
202512100200 TAF VEPT 100200Z 1003/1012 27005KT 2300 HZ NSC
                      BECMG 1007/1009 3500 HZ FU=
202512100500 TAF VEPT 100500Z 1006/1015 27005KT 2200 HZ NSC
                      BECMG 1009/1011 3200 HZ FU
                      BECMG 1013/1015 00000KT 1800 BR=
202512100800 TAF VEPT 100800Z 1009/1018 27005KT 4500 HZ BR NSC
                      BECMG 1012/1014 00000KT 3500 HZ BR
                      BECMG 1015/1017 2000 BR HZ=
202512101100 TAF VEPT 101100Z 1012/1021 00000KT 2800 HZ BR NSC
                      BECMG 1018/1020 1400 BR HZ=
202512101400 TAF VEPT 101400Z 1015/1024 00000KT 3000 BR NSC
                      BECMG 1017/1019 1400 MIFG BR
                      BECMG 1022/1024 25003KT 0600 FG=
202512101700 TAF VEPT 101700Z 1018/1103 00000KT 1400 BR NSC
                      BECMG 1021/1101 25004KT 0600 FG=
202512102000 TAF VEPT 102000Z 1021/1106 00000KT 1800 BR NSC
                      BECMG 1021/1101 27005KT 1200 MIFG BR
                      BECMG 1104/1106 2800 HZ=
202512102300 TAF VEPT 102300Z 1100/1109 27005KT 1400 MIFG BR NSC
                      BECMG 1103/1105 2500 BR HZ
                      BECMG 1107/1109 3500 HZ=
202512110200 TAF VEPT 110200Z 1103/1112 27005KT 2800 BR HZ NSC
                      BECMG 1106/1108 4500 BR HZ=
202512110500 TAF VEPT 110500Z 1106/1115 27005KT 2000 BR HZ NSC
                      BECMG 1109/1111 3500 HZ BR
                      BECMG 1113/1115 00000KT 2200 BR HZ=
202512110800 TAF VEPT 110800Z 1109/1118 30005KT 1800 HZ NSC
                      BECMG 1113/1115 1200 MIFG BR=
202512111100 TAF VEPT 111100Z 1112/1121 32007KT 2500 BR HZ NSC
                      BECMG 1113/1115 00000KT 1200 MIFG BR=
202512111400 TAF VEPT 111400Z 1115/1124 00000KT 1600 BR NSC
                      BECMG 1122/1124 1000 MIFG=
202512111700 TAF VEPT 111700Z 1118/1203 00000KT 1000 MIFG NSC
                      BECMG 1200/1202 0800 FG=
202512112000 TAF VEPT 112000Z 1121/1206 00000KT 0500 FG NSC
                      BECMG 1204/1206 27005KT 1500 MIFG BR=
202512112300 TAF VEPT 112300Z 1200/1209 00000KT 0350 FG VV///
                      BECMG 1204/1206 27005KT 1800 HZ=
202512120200 TAF VEPT 120200Z 1203/1212 26005KT 1200 MIFG BR NSC
                      BECMG 1207/1209 1800 BR HZ=
202512120500 TAF VEPT 120500Z 1206/1215 28005KT 1200 MIFG BR NSC
                      BECMG 1207/1209 2200 BR HZ
                      BECMG 1213/1215 00000KT 1200 MIFG BR=
202512120800 TAF VEPT 120800Z 1209/1218 28004KT 1800 HZ NSC
                      BECMG 1213/1215 1200 MIFG BR=
202512121100 TAF VEPT 121100Z 1212/1221 00000KT 1800 BR HZ NSC
                      BECMG 1216/1218 1200 MIFG BR=
202512121400 TAF VEPT 121400Z 1215/1224 00000KT 1600 BR HZ NSC
                      BECMG 1222/1224 1000 MIFG BR=
202512121700 TAF VEPT 121700Z 1218/1303 00000KT 1000 MIFG BR NSC
                      BECMG 1222/1224 0700 FG BR
                      BECMG 1302/1303 1200 BR MIFG=
202512122000 TAF VEPT 122000Z 1221/1306 00000KT 0700 FG MIFG NSC
                      BECMG 1302/1304 1000 BR MIFG FEW100
                      BECMG 1305/1306 27005KT 1800 BR HZ=
202512122300 TAF VEPT 122300Z 1300/1309 00000KT 0700 FG NSC
                      BECMG 1303/1305 1200 BR MIFG
                      BECMG 1307/1309 27005KT 1800 BR HZ FEW100=
202512130200 TAF VEPT 130200Z 1303/1312 00000KT 0800 FG FU NSC
                      BECMG 1304/1306 05003KT 1500 BR FU
                      BECMG 1308/1310 2800 HZ=
202512130500 TAF VEPT 130500Z 1306/1315 25004KT 1600 HZ NSC
                      BECMG 1308/1310 2100 HZ
                      BECMG 1313/1315 00000KT 1600 BR=
202512130800 TAF VEPT 130800Z 1309/1318 32005KT 3000 HZ NSC
                      BECMG 1316/1318 00000KT 1500 BR=
202512131100 TAF VEPT 131100Z 1312/1321 32005KT 3000 HZ NSC
                      BECMG 1316/1318 00000KT 1200 BR=
202512131400 TAF VEPT 131400Z 1315/1324 00000KT 2100 BR HZ NSC
                      BECMG 1322/1324 1200 MIFG BR=
202512131700 TAF VEPT 131700Z 1318/1403 00000KT 2100 BR HZ NSC
                      BECMG 1321/1323 1200 MIFG BR
                      BECMG 1400/1402 0700 FG=
202512132000 TAF VEPT 132000Z 1321/1406 00000KT 1200 MIFG BR NSC
                      BECMG 1400/1402 0700 FG
                      BECMG 1404/1406 29005KT 1200 MIFG BR=
202512132300 TAF VEPT 132300Z 1400/1409 00000KT 0700 FG NSC
                      BECMG 1404/1406 1200 MIFG BR
                      BECMG 1407/1409 32005KT 2700 BR HZ=
202512140200 TAF VEPT 140200Z 1403/1412 00000KT 0700 FG NSC
                      BECMG 1404/1406 1200 MIFG BR
                      BECMG 1407/1409 32005KT 2700 BR HZ=
202512140500 TAF VEPT 140500Z 1406/1415 00000KT 1200 BR NSC
                      BECMG 1410/1412 07005KT 3000 HZ
                      BECMG 1413/1415 00000KT 1500 BR=
202512140800 TAF VEPT 140800Z 1409/1418 27005KT 5000 HZ BR SCT100
                      BECMG 1412/1414 00000KT 3500 HZ BR
                      BECMG 1416/1418 2000 BR HZ=
202512141100 TAF VEPT 141100Z 1412/1421 00000KT 3500 HZ BR NSC
                      BECMG 1415/1417 2000 BR HZ
                      BECMG 1420/1421 1000 MIFG BR=
202512141400 TAF VEPT 141400Z 1415/1424 00000KT 2200 BR NSC
                      BECMG 1422/1424 1200 MIFG BR=
202512141700 TAF VEPT 141700Z 1418/1503 00000KT 2000 BR NSC
                      BECMG 1421/1423 1200 MIFG BR
                      BECMG 1500/1502 0700 FG=
202512142000 TAF VEPT 142000Z 1421/1506 00000KT 1200 MIFG BR NSC
                      BECMG 1500/1502 0700 FG
                      BECMG 1504/1506 29005KT 1200 MIFG BR=
202512142300 TAF VEPT 142300Z 1500/1509 00000KT 0700 FG NSC
                      BECMG 1504/1506 25004KT 1200 MIFG BR
                      BECMG 1507/1509 32005KT 2700 BR HZ=
202512150200 TAF VEPT 150200Z 1503/1512 27005KT 2000 BR HZ FEW100
                      BECMG 1507/1509 3500 BR HZ=
202512150500 TAF VEPT 150500Z 1506/1515 27005KT 3500 BR HZ FEW100
                      BECMG 1513/1515 00000KT 2000 BR HZ=
202512150800 TAF VEPT 150800Z 1509/1518 26006KT 5000 HZ NSC
                      BECMG 1513/1515 00000KT 3500 BR HZ=
202512151100 TAF VEPT 151100Z 1512/1521 29004KT 3500 HZ NSC
                      BECMG 1513/1515 00000KT 2500 BR HZ=
202512151400 TAF VEPT 151400Z 1515/1600 00000KT 3000 BR NSC
                      BECMG 1522/1524 1200 BR=
202512151700 TAF VEPT 151700Z 1518/1603 00000KT 2000 BR NSC
                      BECMG 1600/1602 0500 FG=
202512152000 TAF VEPT 152000Z 1521/1606 00000KT 0500 FG NSC
                      BECMG 1604/1606 27005KT 3000 HZ=
202512152300 TAF VEPT 152300Z 1600/1609 00000KT 0800 FG NSC
                      BECMG 1606/1608 27005KT 2500 HZ=
202512160200 TAF VEPT 160200Z 1603/1612 27005KT 1800 BR HZ NSC
                      BECMG 1607/1609 3200 BR HZ=
202512160500 TAF VEPT 160500Z 1606/1615 27005KT 3100 BR HZ NSC
                      BECMG 1613/1615 00000KT 2500 BR HZ=
202512160800 TAF VEPT 160800Z 1609/1618 32005KT 2500 HZ NSC
                      BECMG 1613/1615 1400 MIFG BR=
202512161100 TAF VEPT 161100Z 1612/1621 00000KT 2000 BR HZ NSC
                      BECMG 1616/1618 1400 MIFG BR=
202512161400 TAF VEPT 161400Z 1615/1624 00000KT 1600 BR HZ NSC
                      BECMG 1622/1624 1000 MIFG BR=
202512161700 TAF VEPT 161700Z 1618/1703 00000KT 1200 MIFG BR NSC
                      BECMG 1622/1624 0700 FG BR=
202512162000 TAF VEPT 162000Z 1621/1706 00000KT 1200 MIFG BR NSC
                      BECMG 1623/1701 0700 FG BR
                      BECMG 1704/1706 1400 BR HZ=
202512162300 TAF VEPT 162300Z 1700/1709 00000KT 0700 FG BR NSC
                      BECMG 1704/1706 1400 BR HZ
                      BECMG 1707/1709 27005KT 2800 BR HZ=
202512170200 TAF VEPT 170200Z 1703/1712 25004KT 0800 FG FU NSC
                      BECMG 1704/1706 1500 BR FU
                      BECMG 1708/1710 2800 HZ=
202512170500 TAF VEPT 170500Z 1706/1715 28005KT 1800 HZ NSC
                      BECMG 1708/1710 2100 HZ
                      BECMG 1713/1715 00000KT 1800 BR=
202512170800 TAF VEPT 170800Z 1709/1718 31005KT 1500 FU NSC
                      BECMG 1716/1718 00000KT BR=
202512171100 TAF VEPT 171100Z 1712/1721 27005KT 1600 FU NSC
                      BECMG 1716/1718 00000KT BR=
202512171400 TAF VEPT 171400Z 1715/1724 00000KT 1000 MIFG BR NSC
                      BECMG 1722/1724 0700 FG=
202512171700 TAF VEPT 171700Z 1718/1803 00000KT 0700 MIFG BR VV///=
202512172000 TAF VEPT 172000Z 1721/1806 00000KT 0500 FG VV///
                      BECMG 1804/1806 29005KT 1200 MIFG NSC=
202512172300 TAF VEPT 172300Z 1800/1809 00000KT 0500 FG VV///
                      BECMG 1804/1806 29005KT 1200 MIFG
                      BECMG 1807/1809 2700 BR HZ=
202512180200 TAF VEPT 180200Z 1803/1812 00000KT 0200 FG VV///
                      BECMG 1806/1808 27005KT 1200 BR
                      BECMG 1810/1812 2000 FU HZ=
202512180500 TAF VEPT 180500Z 1806/1815 24005KT 0350 FG VV///
                      BECMG 1808/1810 1800 BR NSC
                      BECMG 1813/1815 00000KT 1000 MIFG=
202512180800 TAF VEPT 180800Z 1809/1818 27005KT 1400 BR HZ FEW100
                      BECMG 1812/1814 00000KT 1800 BR HZ=
202512181100 TAF VEPT 181100Z 1812/1821 27005KT 1000 BR MIFG NSC
                      BECMG 1813/1815 00000KT 0700 FG BR=
202512181400 TAF VEPT 181400Z 1815/1824 27004KT 0900 FG MIFG NSC
                      BECMG 1822/1824 0500 FG=
202512181700 TAF VEPT 181700Z 1818/1903 31005KT 0700 FG VV///
                      BECMG 1822/1824 00000KT 0300 FG=
202512182000 TAF VEPT 182000Z 1821/1906 25005KT 0300 FG VV///
                      BECMG 1904/1906 0800 FG MIFG NSC=
202512182300 TAF VEPT 182300Z 1900/1909 27005KT 0300 FG VV///
                      BECMG 1904/1906 29005KT 0800 FG MIFG NSC
                       BECMG 1907/1909 1400 MIFG BR=
202512190200 TAF VEPT 190200Z 1903/1912 27005KT 1000 MIFG BR FEW100
                      BECMG 1906/1908 1800 BR HZ=
202512190500 TAF VEPT 190500Z 1906/1915 27005KT 1200 BR HZ NSC
                      BECMG 1909/1911 1600 BR HZ
                      BECMG 1913/1915 00000KT 1400 BR HZ=
202512190800 TAF VEPT 190800Z 1909/1918 26007KT 1200 BR HZ NSC
                      BECMG 1912/1914 00000KT 1600 BR HZ
                      BECMG 1913/1915 1200 BR=
202512191100 TAF VEPT 191100Z 1912/1921 29004KT 1200 MIFG BR VV///
                      BECMG 1918/1920 0500 FG=
202512191400 TAF VEPT 191400Z 1915/1924 00000KT 1400 BR NSC
                      BECMG 1922/1924 0500 FG VV///=
202512191700 TAF VEPT 191700Z 1918/2003 00000KT 1400 BR NSC
                      BECMG 2000/2002 0500 FG VV///=
202512192000 TAF VEPT 192000Z 1921/2006 00000KT 0600 FG VV///
                      BECMG 2004/2006 27005KT 1500 BR=
202512192300 TAF VEPT 192300Z 2000/2009 27003KT 1200 MIFG NSC
                      BECMG 2006/2008 27005KT 2500 HZ=
202512200200 TAF VEPT 200200Z 2003/2012 32005KT 1000 MIFG BR FEW100
                      BECMG 2006/2008 1800 BR HZ=
202512200500 TAF VEPT 200500Z 2006/2015 28003KT 1200 FU BR NSC
                      BECMG 2009/2011 1600 BR HZ
                      BECMG 2013/2015 00000KT 1400 MIFG BR=
202512200800 TAF VEPT 200800Z 2009/2018 26004KT 1500 BR HZ VV///
                      BECMG 2013/2015 00000KT 1200 MIFG BR NSC=
202512201100 TAF COR VEPT 201100Z 2012/2021 28004KT 1600 BR HZ VV///
                      BECMG 2018/2020 00000KT 0800 FG BR=
202512201400 TAF VEPT 201400Z 2015/2024 00000KT 1800 BR HZ NSC
                      BECMG 2020/2022 1200 BR HZ=
202512201700 TAF VEPT 201700Z 2018/2103 00000KT 1800 BR HZ NSC
                      BECMG 2021/2023 1200 BR MIFG
                      BECMG 2024/2102 0700 FG BR=
202512202000 TAF VEPT 202000Z 2021/2106 33005KT 1200 BR HZ NSC
                      BECMG 2023/2101 0700 FG BR
                      BECMG 2104/2106 1400 BR HZ=
202512202300 TAF VEPT 202300Z 2100/2109 00000KT 0700 FG BR NSC
                      BECMG 2103/2105 1400 BR HZ
                      BECMG 2107/2109 27005KT 2200 BR HZ FEW020
                       SCT100=
202512210200 TAF VEPT 210200Z 2103/2112 00000KT 1200 MIFG BR NSC
                      BECMG 2106/2108 25003KT 1800 BR HZ=
202512210500 TAF VEPT 210500Z 2106/2115 29003KT 1500 BR FU VV///
                      BECMG 2109/2111 2100 BR HZ NSC
                      BECMG 2113/2115 00000KT 1400 MIFG BR=
202512210800 TAF VEPT 210800Z 2109/2118 28004KT 1800 BR HZ NSC=
202512211100 TAF VEPT 211100Z 2112/2121 29005KT 1800 BR NSC
                      BECMG 2118/2120 00000KT 1200 MIFG BR=
202512211400 TAF VEPT 211400Z 2115/2124 32005KT 1400 MIFG BR FEW100
                      BECMG 2122/2124 0700 FG VV///=
202512211700 TAF VEPT 211700Z 2118/2203 32003KT 1400 MIFG BR FEW100
                      BECMG 2122/2124 0700 FG VV///
                      BECMG 2201/2203 29005KT 1200 MIFG SCT018
                       SCT100=
202512212000 TAF VEPT 212000Z 2121/2206 32005KT 1400 MIFG BR FEW100
                      BECMG 2122/2124 0700 FG VV///
                      BECMG 2201/2203 29005KT 1200 MIFG SCT018
                       SCT100
                      BECMG 2204/2206 2200 BR HZ=
202512212300 TAF VEPT 212300Z 2200/2209 29005KT 1000 MIFG SCT018 SCT100
                      BECMG 2201/2203 29005KT 1200 MIFG SCT018
                       SCT100
                      BECMG 2204/2206 2200 BR HZ=
202512220200 TAF VEPT 220200Z 2203/2212 27005KT 1200 BR HZ FEW100
                      BECMG 2207/2209 1800 BR HZ FEW020 SCT100=
202512220500 TAF VEPT 220500Z 2206/2215 27005KT 1000 MIFG BR NSC
                      BECMG 2209/2211 1800 BR HZ FEW020 SCT100
                       BECMG 2213/2215 00000KT 1400 BR HZ=
202512220800 TAF VEPT 220800Z 2209/2218 29006KT 1600 HZ NSC
                      BECMG 2214/2216 27004KT 1200 BR HZ=
202512221100 TAF VEPT 221100Z 2212/2221 29003KT 1800 BR NSC=
202512221400 TAF VEPT 221400Z 2215/2224 00000KT 1400 MIFG BR NSC
                      BECMG 2222/2224 0700 FG VV///=
202512221700 TAF VEPT 221700Z 2218/2303 00000KT 1200 MIFG BR NSC
                      BECMG 2222/2224 0700 FG VV///
                      BECMG 2301/2303 29005KT 1100 MIFG NSC=
202512222000 TAF VEPT 222000Z 2221/2306 25005KT 0800 FG VV///
                      BECMG 2222/2224 0400 FG VV///
                      BECMG 2304/2306 1000 MIFG NSC=
202512222300 TAF VEPT 222300Z 2300/2309 25005KT 0300 FG VV///
                      BECMG 2304/2306 29005KT 0800 FG MIFG NSC
                       BECMG 2307/2309 1400 MIFG BR=
202512230200 TAF VEPT 230200Z 2303/2312 25005KT 0300 FG VV///
                      BECMG 2306/2308 1000 MIFG BR
                      BECMG 2309/2311 2000 BR NSC=
202512230500 TAF VEPT 230500Z 2306/2315 25005KT 0600 FG VV///
                      BECMG 2309/2311 1600 BR SCT100=
202512230800 TAF VEPT 230800Z 2309/2318 27004KT 1500 BR HZ VV///
                      BECMG 2313/2315 00000KT 1200 MIFG BR NSC=
202512231100 TAF VEPT 231100Z 2312/2321 27005KT 1500 BR HZ VV///
                      BECMG 2318/2320 00000KT 1000 MIFG BR NSC=
202512231400 TAF VEPT 231400Z 2315/2324 27005KT 1000 MIFG BR NSC
                      BECMG 2318/2320 00000KT 0700 FG BR
                      BECMG 2322/2324 0500 FG BR VV///=
202512231700 TAF VEPT 231700Z 2318/2403 00000KT 0700 FG BR NSC
                      BECMG 2322/2324 0500 FG BR VV///=
202512232000 TAF VEPT 232000Z 2321/2406 00000KT 0500 FG BR VV///
                      BECMG 2401/2403 0700 FG BR NSC
                      BECMG 2404/2406 27005KT 1400 FG BR=
202512232300 TAF VEPT 232300Z 2400/2409 00000KT 0500 FG BR VV///
                      BECMG 2403/2405 27005KT 0700 FG BR
                      BECMG 2406/2408 1200 BR HZ=