{
 "cells": [
  {
   "cell_type": "code",
   "execution_count": 1,
   "id": "02b612b6-49bc-40c8-908b-71f751980d2e",
   "metadata": {},
   "outputs": [
    {
     "name": "stdout",
     "output_type": "stream",
     "text": [
      "======================================================================\n",
      "TAF PARSER - Enhanced with Error Checking\n",
      "======================================================================\n",
      "[INFO] Found 116 TAF report(s) in file\n",
      "[INFO] Output folder ready: J:\\Anand's Research\\TAFVeri\\PATNA\\LONG TAF\\2023\\Decoded TAF_1\n",
      "\n",
      "======================================================================\n",
      "Processing 116 TAF report(s)...\n",
      "======================================================================\n",
      "\n",
      "Processing TAF #1...\n",
      "  ✓ SUCCESS: 6 records saved → J:\\Anand's Research\\TAFVeri\\PATNA\\LONG TAF\\2023\\Decoded TAF_1\\TAF_1_decoded.csv\n",
      "\n",
      "Processing TAF #2...\n",
      "  ✓ SUCCESS: 3 records saved → J:\\Anand's Research\\TAFVeri\\PATNA\\LONG TAF\\2023\\Decoded TAF_1\\TAF_2_decoded.csv\n",
      "\n",
      "Processing TAF #3...\n",
      "  ✓ SUCCESS: 5 records saved → J:\\Anand's Research\\TAFVeri\\PATNA\\LONG TAF\\2023\\Decoded TAF_1\\TAF_3_decoded.csv\n",
      "\n",
      "Processing TAF #4...\n",
      "  ✓ SUCCESS: 6 records saved → J:\\Anand's Research\\TAFVeri\\PATNA\\LONG TAF\\2023\\Decoded TAF_1\\TAF_4_decoded.csv\n",
      "\n",
      "Processing TAF #5...\n",
      "  ✓ SUCCESS: 5 records saved → J:\\Anand's Research\\TAFVeri\\PATNA\\LONG TAF\\2023\\Decoded TAF_1\\TAF_5_decoded.csv\n",
      "\n",
      "Processing TAF #6...\n",
      "  ✓ SUCCESS: 7 records saved → J:\\Anand's Research\\TAFVeri\\PATNA\\LONG TAF\\2023\\Decoded TAF_1\\TAF_6_decoded.csv\n",
      "\n",
      "Processing TAF #7...\n",
      "  ✓ SUCCESS: 5 records saved → J:\\Anand's Research\\TAFVeri\\PATNA\\LONG TAF\\2023\\Decoded TAF_1\\TAF_7_decoded.csv\n",
      "\n",
      "Processing TAF #8...\n",
      "  ✓ SUCCESS: 5 records saved → J:\\Anand's Research\\TAFVeri\\PATNA\\LONG TAF\\2023\\Decoded TAF_1\\TAF_8_decoded.csv\n",
      "\n",
      "Processing TAF #9...\n",
      "  ✓ SUCCESS: 6 records saved → J:\\Anand's Research\\TAFVeri\\PATNA\\LONG TAF\\2023\\Decoded TAF_1\\TAF_9_decoded.csv\n",
      "\n",
      "Processing TAF #10...\n",
      "[WARNING] Invalid start hour: 24\n",
      "  ✓ SUCCESS: 6 records saved → J:\\Anand's Research\\TAFVeri\\PATNA\\LONG TAF\\2023\\Decoded TAF_1\\TAF_10_decoded.csv\n",
      "\n",
      "Processing TAF #11...\n",
      "  ✓ SUCCESS: 5 records saved → J:\\Anand's Research\\TAFVeri\\PATNA\\LONG TAF\\2023\\Decoded TAF_1\\TAF_11_decoded.csv\n",
      "\n",
      "Processing TAF #12...\n",
      "  ✓ SUCCESS: 5 records saved → J:\\Anand's Research\\TAFVeri\\PATNA\\LONG TAF\\2023\\Decoded TAF_1\\TAF_12_decoded.csv\n",
      "\n",
      "Processing TAF #13...\n",
      "[WARNING] Invalid start hour: 24\n",
      "  ✓ SUCCESS: 6 records saved → J:\\Anand's Research\\TAFVeri\\PATNA\\LONG TAF\\2023\\Decoded TAF_1\\TAF_13_decoded.csv\n",
      "\n",
      "Processing TAF #14...\n",
      "  ✓ SUCCESS: 5 records saved → J:\\Anand's Research\\TAFVeri\\PATNA\\LONG TAF\\2023\\Decoded TAF_1\\TAF_14_decoded.csv\n",
      "\n",
      "Processing TAF #15...\n",
      "  ✓ SUCCESS: 6 records saved → J:\\Anand's Research\\TAFVeri\\PATNA\\LONG TAF\\2023\\Decoded TAF_1\\TAF_15_decoded.csv\n",
      "\n",
      "Processing TAF #16...\n",
      "  ✓ SUCCESS: 6 records saved → J:\\Anand's Research\\TAFVeri\\PATNA\\LONG TAF\\2023\\Decoded TAF_1\\TAF_16_decoded.csv\n",
      "\n",
      "Processing TAF #17...\n",
      "  ✓ SUCCESS: 4 records saved → J:\\Anand's Research\\TAFVeri\\PATNA\\LONG TAF\\2023\\Decoded TAF_1\\TAF_17_decoded.csv\n",
      "\n",
      "Processing TAF #18...\n",
      "[WARNING] Invalid start hour: 24\n",
      "  ✓ SUCCESS: 6 records saved → J:\\Anand's Research\\TAFVeri\\PATNA\\LONG TAF\\2023\\Decoded TAF_1\\TAF_18_decoded.csv\n",
      "\n",
      "Processing TAF #19...\n",
      "  ✓ SUCCESS: 6 records saved → J:\\Anand's Research\\TAFVeri\\PATNA\\LONG TAF\\2023\\Decoded TAF_1\\TAF_19_decoded.csv\n",
      "\n",
      "Processing TAF #20...\n",
      "  ✓ SUCCESS: 6 records saved → J:\\Anand's Research\\TAFVeri\\PATNA\\LONG TAF\\2023\\Decoded TAF_1\\TAF_20_decoded.csv\n",
      "\n",
      "Processing TAF #21...\n",
      "[WARNING] Invalid start hour: 24\n",
      "  ✓ SUCCESS: 6 records saved → J:\\Anand's Research\\TAFVeri\\PATNA\\LONG TAF\\2023\\Decoded TAF_1\\TAF_21_decoded.csv\n",
      "\n",
      "Processing TAF #22...\n",
      "  ✓ SUCCESS: 6 records saved → J:\\Anand's Research\\TAFVeri\\PATNA\\LONG TAF\\2023\\Decoded TAF_1\\TAF_22_decoded.csv\n",
      "\n",
      "Processing TAF #23...\n",
      "  ✓ SUCCESS: 5 records saved → J:\\Anand's Research\\TAFVeri\\PATNA\\LONG TAF\\2023\\Decoded TAF_1\\TAF_23_decoded.csv\n",
      "\n",
      "Processing TAF #24...\n",
      "  ✓ SUCCESS: 6 records saved → J:\\Anand's Research\\TAFVeri\\PATNA\\LONG TAF\\2023\\Decoded TAF_1\\TAF_24_decoded.csv\n",
      "\n",
      "Processing TAF #25...\n",
      "  ✓ SUCCESS: 6 records saved → J:\\Anand's Research\\TAFVeri\\PATNA\\LONG TAF\\2023\\Decoded TAF_1\\TAF_25_decoded.csv\n",
      "\n",
      "Processing TAF #26...\n",
      "  ✓ SUCCESS: 6 records saved → J:\\Anand's Research\\TAFVeri\\PATNA\\LONG TAF\\2023\\Decoded TAF_1\\TAF_26_decoded.csv\n",
      "\n",
      "Processing TAF #27...\n",
      "  ✓ SUCCESS: 5 records saved → J:\\Anand's Research\\TAFVeri\\PATNA\\LONG TAF\\2023\\Decoded TAF_1\\TAF_27_decoded.csv\n",
      "\n",
      "Processing TAF #28...\n",
      "  ✓ SUCCESS: 6 records saved → J:\\Anand's Research\\TAFVeri\\PATNA\\LONG TAF\\2023\\Decoded TAF_1\\TAF_28_decoded.csv\n",
      "\n",
      "Processing TAF #29...\n",
      "  ✓ SUCCESS: 6 records saved → J:\\Anand's Research\\TAFVeri\\PATNA\\LONG TAF\\2023\\Decoded TAF_1\\TAF_29_decoded.csv\n",
      "\n",
      "Processing TAF #30...\n",
      "  ✓ SUCCESS: 6 records saved → J:\\Anand's Research\\TAFVeri\\PATNA\\LONG TAF\\2023\\Decoded TAF_1\\TAF_30_decoded.csv\n",
      "\n",
      "Processing TAF #31...\n",
      "  ✓ SUCCESS: 5 records saved → J:\\Anand's Research\\TAFVeri\\PATNA\\LONG TAF\\2023\\Decoded TAF_1\\TAF_31_decoded.csv\n",
      "\n",
      "Processing TAF #32...\n",
      "  ✓ SUCCESS: 6 records saved → J:\\Anand's Research\\TAFVeri\\PATNA\\LONG TAF\\2023\\Decoded TAF_1\\TAF_32_decoded.csv\n",
      "\n",
      "Processing TAF #33...\n",
      "  ✓ SUCCESS: 6 records saved → J:\\Anand's Research\\TAFVeri\\PATNA\\LONG TAF\\2023\\Decoded TAF_1\\TAF_33_decoded.csv\n",
      "\n",
      "Processing TAF #34...\n",
      "  ✓ SUCCESS: 6 records saved → J:\\Anand's Research\\TAFVeri\\PATNA\\LONG TAF\\2023\\Decoded TAF_1\\TAF_34_decoded.csv\n",
      "\n",
      "Processing TAF #35...\n",
      "[WARNING] Invalid start hour: 24\n",
      "  ✓ SUCCESS: 7 records saved → J:\\Anand's Research\\TAFVeri\\PATNA\\LONG TAF\\2023\\Decoded TAF_1\\TAF_35_decoded.csv\n",
      "\n",
      "Processing TAF #36...\n",
      "  ✓ SUCCESS: 6 records saved → J:\\Anand's Research\\TAFVeri\\PATNA\\LONG TAF\\2023\\Decoded TAF_1\\TAF_36_decoded.csv\n",
      "\n",
      "Processing TAF #37...\n",
      "[WARNING] Invalid start hour: 24\n",
      "  ✓ SUCCESS: 6 records saved → J:\\Anand's Research\\TAFVeri\\PATNA\\LONG TAF\\2023\\Decoded TAF_1\\TAF_37_decoded.csv\n",
      "\n",
      "Processing TAF #38...\n",
      "  ✓ SUCCESS: 6 records saved → J:\\Anand's Research\\TAFVeri\\PATNA\\LONG TAF\\2023\\Decoded TAF_1\\TAF_38_decoded.csv\n",
      "\n",
      "Processing TAF #39...\n",
      "  ✓ SUCCESS: 3 records saved → J:\\Anand's Research\\TAFVeri\\PATNA\\LONG TAF\\2023\\Decoded TAF_1\\TAF_39_decoded.csv\n",
      "\n",
      "Processing TAF #40...\n",
      "  ✓ SUCCESS: 6 records saved → J:\\Anand's Research\\TAFVeri\\PATNA\\LONG TAF\\2023\\Decoded TAF_1\\TAF_40_decoded.csv\n",
      "\n",
      "Processing TAF #41...\n",
      "  ✓ SUCCESS: 6 records saved → J:\\Anand's Research\\TAFVeri\\PATNA\\LONG TAF\\2023\\Decoded TAF_1\\TAF_41_decoded.csv\n",
      "\n",
      "Processing TAF #42...\n",
      "  ✓ SUCCESS: 5 records saved → J:\\Anand's Research\\TAFVeri\\PATNA\\LONG TAF\\2023\\Decoded TAF_1\\TAF_42_decoded.csv\n",
      "\n",
      "Processing TAF #43...\n",
      "  ✓ SUCCESS: 5 records saved → J:\\Anand's Research\\TAFVeri\\PATNA\\LONG TAF\\2023\\Decoded TAF_1\\TAF_43_decoded.csv\n",
      "\n",
      "Processing TAF #44...\n",
      "  ✓ SUCCESS: 6 records saved → J:\\Anand's Research\\TAFVeri\\PATNA\\LONG TAF\\2023\\Decoded TAF_1\\TAF_44_decoded.csv\n",
      "\n",
      "Processing TAF #45...\n",
      "  ✓ SUCCESS: 6 records saved → J:\\Anand's Research\\TAFVeri\\PATNA\\LONG TAF\\2023\\Decoded TAF_1\\TAF_45_decoded.csv\n",
      "\n",
      "Processing TAF #46...\n",
      "  ✓ SUCCESS: 2 records saved → J:\\Anand's Research\\TAFVeri\\PATNA\\LONG TAF\\2023\\Decoded TAF_1\\TAF_46_decoded.csv\n",
      "\n",
      "Processing TAF #47...\n",
      "  ✓ SUCCESS: 6 records saved → J:\\Anand's Research\\TAFVeri\\PATNA\\LONG TAF\\2023\\Decoded TAF_1\\TAF_47_decoded.csv\n",
      "\n",
      "Processing TAF #48...\n",
      "  ✓ SUCCESS: 5 records saved → J:\\Anand's Research\\TAFVeri\\PATNA\\LONG TAF\\2023\\Decoded TAF_1\\TAF_48_decoded.csv\n",
      "\n",
      "Processing TAF #49...\n",
      "  ✓ SUCCESS: 6 records saved → J:\\Anand's Research\\TAFVeri\\PATNA\\LONG TAF\\2023\\Decoded TAF_1\\TAF_49_decoded.csv\n",
      "\n",
      "Processing TAF #50...\n",
      "  ✓ SUCCESS: 6 records saved → J:\\Anand's Research\\TAFVeri\\PATNA\\LONG TAF\\2023\\Decoded TAF_1\\TAF_50_decoded.csv\n",
      "\n",
      "Processing TAF #51...\n",
      "  ✓ SUCCESS: 5 records saved → J:\\Anand's Research\\TAFVeri\\PATNA\\LONG TAF\\2023\\Decoded TAF_1\\TAF_51_decoded.csv\n",
      "\n",
      "Processing TAF #52...\n",
      "  ✓ SUCCESS: 6 records saved → J:\\Anand's Research\\TAFVeri\\PATNA\\LONG TAF\\2023\\Decoded TAF_1\\TAF_52_decoded.csv\n",
      "\n",
      "Processing TAF #53...\n",
      "  ✓ SUCCESS: 6 records saved → J:\\Anand's Research\\TAFVeri\\PATNA\\LONG TAF\\2023\\Decoded TAF_1\\TAF_53_decoded.csv\n",
      "\n",
      "Processing TAF #54...\n",
      "  ✓ SUCCESS: 6 records saved → J:\\Anand's Research\\TAFVeri\\PATNA\\LONG TAF\\2023\\Decoded TAF_1\\TAF_54_decoded.csv\n",
      "\n",
      "Processing TAF #55...\n",
      "  ✓ SUCCESS: 5 records saved → J:\\Anand's Research\\TAFVeri\\PATNA\\LONG TAF\\2023\\Decoded TAF_1\\TAF_55_decoded.csv\n",
      "\n",
      "Processing TAF #56...\n",
      "  ✓ SUCCESS: 6 records saved → J:\\Anand's Research\\TAFVeri\\PATNA\\LONG TAF\\2023\\Decoded TAF_1\\TAF_56_decoded.csv\n",
      "\n",
      "Processing TAF #57...\n",
      "  ✓ SUCCESS: 6 records saved → J:\\Anand's Research\\TAFVeri\\PATNA\\LONG TAF\\2023\\Decoded TAF_1\\TAF_57_decoded.csv\n",
      "\n",
      "Processing TAF #58...\n",
      "  ✓ SUCCESS: 6 records saved → J:\\Anand's Research\\TAFVeri\\PATNA\\LONG TAF\\2023\\Decoded TAF_1\\TAF_58_decoded.csv\n",
      "\n",
      "Processing TAF #59...\n",
      "  ✓ SUCCESS: 6 records saved → J:\\Anand's Research\\TAFVeri\\PATNA\\LONG TAF\\2023\\Decoded TAF_1\\TAF_59_decoded.csv\n",
      "\n",
      "Processing TAF #60...\n",
      "  ✓ SUCCESS: 5 records saved → J:\\Anand's Research\\TAFVeri\\PATNA\\LONG TAF\\2023\\Decoded TAF_1\\TAF_60_decoded.csv\n",
      "\n",
      "Processing TAF #61...\n",
      "  ✓ SUCCESS: 6 records saved → J:\\Anand's Research\\TAFVeri\\PATNA\\LONG TAF\\2023\\Decoded TAF_1\\TAF_61_decoded.csv\n",
      "\n",
      "Processing TAF #62...\n",
      "  ✓ SUCCESS: 6 records saved → J:\\Anand's Research\\TAFVeri\\PATNA\\LONG TAF\\2023\\Decoded TAF_1\\TAF_62_decoded.csv\n",
      "\n",
      "Processing TAF #63...\n",
      "  ✓ SUCCESS: 6 records saved → J:\\Anand's Research\\TAFVeri\\PATNA\\LONG TAF\\2023\\Decoded TAF_1\\TAF_63_decoded.csv\n",
      "\n",
      "Processing TAF #64...\n",
      "  ✓ SUCCESS: 6 records saved → J:\\Anand's Research\\TAFVeri\\PATNA\\LONG TAF\\2023\\Decoded TAF_1\\TAF_64_decoded.csv\n",
      "\n",
      "Processing TAF #65...\n",
      "  ✓ SUCCESS: 6 records saved → J:\\Anand's Research\\TAFVeri\\PATNA\\LONG TAF\\2023\\Decoded TAF_1\\TAF_65_decoded.csv\n",
      "\n",
      "Processing TAF #66...\n",
      "  ✓ SUCCESS: 6 records saved → J:\\Anand's Research\\TAFVeri\\PATNA\\LONG TAF\\2023\\Decoded TAF_1\\TAF_66_decoded.csv\n",
      "\n",
      "Processing TAF #67...\n",
      "  ✓ SUCCESS: 6 records saved → J:\\Anand's Research\\TAFVeri\\PATNA\\LONG TAF\\2023\\Decoded TAF_1\\TAF_67_decoded.csv\n",
      "\n",
      "Processing TAF #68...\n",
      "  ✓ SUCCESS: 6 records saved → J:\\Anand's Research\\TAFVeri\\PATNA\\LONG TAF\\2023\\Decoded TAF_1\\TAF_68_decoded.csv\n",
      "\n",
      "Processing TAF #69...\n",
      "[WARNING] Invalid end hour: 24\n",
      "  ✓ SUCCESS: 6 records saved → J:\\Anand's Research\\TAFVeri\\PATNA\\LONG TAF\\2023\\Decoded TAF_1\\TAF_69_decoded.csv\n",
      "\n",
      "Processing TAF #70...\n",
      "  ✓ SUCCESS: 6 records saved → J:\\Anand's Research\\TAFVeri\\PATNA\\LONG TAF\\2023\\Decoded TAF_1\\TAF_70_decoded.csv\n",
      "\n",
      "Processing TAF #71...\n",
      "  ✓ SUCCESS: 6 records saved → J:\\Anand's Research\\TAFVeri\\PATNA\\LONG TAF\\2023\\Decoded TAF_1\\TAF_71_decoded.csv\n",
      "\n",
      "Processing TAF #72...\n",
      "  ✓ SUCCESS: 6 records saved → J:\\Anand's Research\\TAFVeri\\PATNA\\LONG TAF\\2023\\Decoded TAF_1\\TAF_72_decoded.csv\n",
      "\n",
      "Processing TAF #73...\n",
      "  ✓ SUCCESS: 6 records saved → J:\\Anand's Research\\TAFVeri\\PATNA\\LONG TAF\\2023\\Decoded TAF_1\\TAF_73_decoded.csv\n",
      "\n",
      "Processing TAF #74...\n",
      "  ✓ SUCCESS: 6 records saved → J:\\Anand's Research\\TAFVeri\\PATNA\\LONG TAF\\2023\\Decoded TAF_1\\TAF_74_decoded.csv\n",
      "\n",
      "Processing TAF #75...\n",
      "  ✓ SUCCESS: 6 records saved → J:\\Anand's Research\\TAFVeri\\PATNA\\LONG TAF\\2023\\Decoded TAF_1\\TAF_75_decoded.csv\n",
      "\n",
      "Processing TAF #76...\n",
      "  ✓ SUCCESS: 2 records saved → J:\\Anand's Research\\TAFVeri\\PATNA\\LONG TAF\\2023\\Decoded TAF_1\\TAF_76_decoded.csv\n",
      "\n",
      "Processing TAF #77...\n",
      "  ✓ SUCCESS: 6 records saved → J:\\Anand's Research\\TAFVeri\\PATNA\\LONG TAF\\2023\\Decoded TAF_1\\TAF_77_decoded.csv\n",
      "\n",
      "Processing TAF #78...\n",
      "  ✓ SUCCESS: 6 records saved → J:\\Anand's Research\\TAFVeri\\PATNA\\LONG TAF\\2023\\Decoded TAF_1\\TAF_78_decoded.csv\n",
      "\n",
      "Processing TAF #79...\n",
      "  ✓ SUCCESS: 6 records saved → J:\\Anand's Research\\TAFVeri\\PATNA\\LONG TAF\\2023\\Decoded TAF_1\\TAF_79_decoded.csv\n",
      "\n",
      "Processing TAF #80...\n",
      "  ✓ SUCCESS: 6 records saved → J:\\Anand's Research\\TAFVeri\\PATNA\\LONG TAF\\2023\\Decoded TAF_1\\TAF_80_decoded.csv\n",
      "\n",
      "Processing TAF #81...\n",
      "  ✓ SUCCESS: 7 records saved → J:\\Anand's Research\\TAFVeri\\PATNA\\LONG TAF\\2023\\Decoded TAF_1\\TAF_81_decoded.csv\n",
      "\n",
      "Processing TAF #82...\n",
      "  ✓ SUCCESS: 6 records saved → J:\\Anand's Research\\TAFVeri\\PATNA\\LONG TAF\\2023\\Decoded TAF_1\\TAF_82_decoded.csv\n",
      "\n",
      "Processing TAF #83...\n",
      "[WARNING] Invalid end hour: 24\n",
      "  ✓ SUCCESS: 5 records saved → J:\\Anand's Research\\TAFVeri\\PATNA\\LONG TAF\\2023\\Decoded TAF_1\\TAF_83_decoded.csv\n",
      "\n",
      "Processing TAF #84...\n",
      "  ✓ SUCCESS: 6 records saved → J:\\Anand's Research\\TAFVeri\\PATNA\\LONG TAF\\2023\\Decoded TAF_1\\TAF_84_decoded.csv\n",
      "\n",
      "Processing TAF #85...\n",
      "  ✓ SUCCESS: 6 records saved → J:\\Anand's Research\\TAFVeri\\PATNA\\LONG TAF\\2023\\Decoded TAF_1\\TAF_85_decoded.csv\n",
      "\n",
      "Processing TAF #86...\n",
      "  ✓ SUCCESS: 6 records saved → J:\\Anand's Research\\TAFVeri\\PATNA\\LONG TAF\\2023\\Decoded TAF_1\\TAF_86_decoded.csv\n",
      "\n",
      "Processing TAF #87...\n",
      "[WARNING] Invalid end hour: 24\n",
      "  ✓ SUCCESS: 6 records saved → J:\\Anand's Research\\TAFVeri\\PATNA\\LONG TAF\\2023\\Decoded TAF_1\\TAF_87_decoded.csv\n",
      "\n",
      "Processing TAF #88...\n",
      "[WARNING] Invalid end hour: 24\n",
      "  ✓ SUCCESS: 6 records saved → J:\\Anand's Research\\TAFVeri\\PATNA\\LONG TAF\\2023\\Decoded TAF_1\\TAF_88_decoded.csv\n",
      "\n",
      "Processing TAF #89...\n",
      "  ✓ SUCCESS: 6 records saved → J:\\Anand's Research\\TAFVeri\\PATNA\\LONG TAF\\2023\\Decoded TAF_1\\TAF_89_decoded.csv\n",
      "\n",
      "Processing TAF #90...\n",
      "  ✓ SUCCESS: 5 records saved → J:\\Anand's Research\\TAFVeri\\PATNA\\LONG TAF\\2023\\Decoded TAF_1\\TAF_90_decoded.csv\n",
      "\n",
      "Processing TAF #91...\n",
      "  ✓ SUCCESS: 6 records saved → J:\\Anand's Research\\TAFVeri\\PATNA\\LONG TAF\\2023\\Decoded TAF_1\\TAF_91_decoded.csv\n",
      "\n",
      "Processing TAF #92...\n",
      "  ✓ SUCCESS: 5 records saved → J:\\Anand's Research\\TAFVeri\\PATNA\\LONG TAF\\2023\\Decoded TAF_1\\TAF_92_decoded.csv\n",
      "\n",
      "Processing TAF #93...\n",
      "  ✓ SUCCESS: 6 records saved → J:\\Anand's Research\\TAFVeri\\PATNA\\LONG TAF\\2023\\Decoded TAF_1\\TAF_93_decoded.csv\n",
      "\n",
      "Processing TAF #94...\n",
      "[WARNING] Invalid end hour: 24\n",
      "[WARNING] Invalid end hour: 24\n",
      "  ✓ SUCCESS: 6 records saved → J:\\Anand's Research\\TAFVeri\\PATNA\\LONG TAF\\2023\\Decoded TAF_1\\TAF_94_decoded.csv\n",
      "\n",
      "Processing TAF #95...\n",
      "  ✓ SUCCESS: 6 records saved → J:\\Anand's Research\\TAFVeri\\PATNA\\LONG TAF\\2023\\Decoded TAF_1\\TAF_95_decoded.csv\n",
      "\n",
      "Processing TAF #96...\n",
      "  ✓ SUCCESS: 6 records saved → J:\\Anand's Research\\TAFVeri\\PATNA\\LONG TAF\\2023\\Decoded TAF_1\\TAF_96_decoded.csv\n",
      "\n",
      "Processing TAF #97...\n",
      "  ✓ SUCCESS: 6 records saved → J:\\Anand's Research\\TAFVeri\\PATNA\\LONG TAF\\2023\\Decoded TAF_1\\TAF_97_decoded.csv\n",
      "\n",
      "Processing TAF #98...\n",
      "  ✓ SUCCESS: 6 records saved → J:\\Anand's Research\\TAFVeri\\PATNA\\LONG TAF\\2023\\Decoded TAF_1\\TAF_98_decoded.csv\n",
      "\n",
      "Processing TAF #99...\n",
      "  ✓ SUCCESS: 3 records saved → J:\\Anand's Research\\TAFVeri\\PATNA\\LONG TAF\\2023\\Decoded TAF_1\\TAF_99_decoded.csv\n",
      "\n",
      "Processing TAF #100...\n",
      "  ✓ SUCCESS: 7 records saved → J:\\Anand's Research\\TAFVeri\\PATNA\\LONG TAF\\2023\\Decoded TAF_1\\TAF_100_decoded.csv\n",
      "\n",
      "Processing TAF #101...\n",
      "  ✓ SUCCESS: 6 records saved → J:\\Anand's Research\\TAFVeri\\PATNA\\LONG TAF\\2023\\Decoded TAF_1\\TAF_101_decoded.csv\n",
      "\n",
      "Processing TAF #102...\n",
      "[WARNING] Invalid end hour: 24\n",
      "  ✓ SUCCESS: 6 records saved → J:\\Anand's Research\\TAFVeri\\PATNA\\LONG TAF\\2023\\Decoded TAF_1\\TAF_102_decoded.csv\n",
      "\n",
      "Processing TAF #103...\n",
      "  ✓ SUCCESS: 6 records saved → J:\\Anand's Research\\TAFVeri\\PATNA\\LONG TAF\\2023\\Decoded TAF_1\\TAF_103_decoded.csv\n",
      "\n",
      "Processing TAF #104...\n",
      "  ✓ SUCCESS: 3 records saved → J:\\Anand's Research\\TAFVeri\\PATNA\\LONG TAF\\2023\\Decoded TAF_1\\TAF_104_decoded.csv\n",
      "\n",
      "Processing TAF #105...\n",
      "  ✓ SUCCESS: 6 records saved → J:\\Anand's Research\\TAFVeri\\PATNA\\LONG TAF\\2023\\Decoded TAF_1\\TAF_105_decoded.csv\n",
      "\n",
      "Processing TAF #106...\n",
      "  ✓ SUCCESS: 6 records saved → J:\\Anand's Research\\TAFVeri\\PATNA\\LONG TAF\\2023\\Decoded TAF_1\\TAF_106_decoded.csv\n",
      "\n",
      "Processing TAF #107...\n",
      "  ✓ SUCCESS: 6 records saved → J:\\Anand's Research\\TAFVeri\\PATNA\\LONG TAF\\2023\\Decoded TAF_1\\TAF_107_decoded.csv\n",
      "\n",
      "Processing TAF #108...\n",
      "  ✓ SUCCESS: 6 records saved → J:\\Anand's Research\\TAFVeri\\PATNA\\LONG TAF\\2023\\Decoded TAF_1\\TAF_108_decoded.csv\n",
      "\n",
      "Processing TAF #109...\n",
      "  ✓ SUCCESS: 6 records saved → J:\\Anand's Research\\TAFVeri\\PATNA\\LONG TAF\\2023\\Decoded TAF_1\\TAF_109_decoded.csv\n",
      "\n",
      "Processing TAF #110...\n",
      "  ✓ SUCCESS: 6 records saved → J:\\Anand's Research\\TAFVeri\\PATNA\\LONG TAF\\2023\\Decoded TAF_1\\TAF_110_decoded.csv\n",
      "\n",
      "Processing TAF #111...\n",
      "  ✓ SUCCESS: 7 records saved → J:\\Anand's Research\\TAFVeri\\PATNA\\LONG TAF\\2023\\Decoded TAF_1\\TAF_111_decoded.csv\n",
      "\n",
      "Processing TAF #112...\n",
      "  ✓ SUCCESS: 6 records saved → J:\\Anand's Research\\TAFVeri\\PATNA\\LONG TAF\\2023\\Decoded TAF_1\\TAF_112_decoded.csv\n",
      "\n",
      "Processing TAF #113...\n",
      "[WARNING] Invalid end hour: 24\n",
      "  ✓ SUCCESS: 6 records saved → J:\\Anand's Research\\TAFVeri\\PATNA\\LONG TAF\\2023\\Decoded TAF_1\\TAF_113_decoded.csv\n",
      "\n",
      "Processing TAF #114...\n",
      "  ✓ SUCCESS: 6 records saved → J:\\Anand's Research\\TAFVeri\\PATNA\\LONG TAF\\2023\\Decoded TAF_1\\TAF_114_decoded.csv\n",
      "\n",
      "Processing TAF #115...\n",
      "  ✓ SUCCESS: 6 records saved → J:\\Anand's Research\\TAFVeri\\PATNA\\LONG TAF\\2023\\Decoded TAF_1\\TAF_115_decoded.csv\n",
      "\n",
      "Processing TAF #116...\n",
      "  ✓ SUCCESS: 6 records saved → J:\\Anand's Research\\TAFVeri\\PATNA\\LONG TAF\\2023\\Decoded TAF_1\\TAF_116_decoded.csv\n",
      "\n",
      "======================================================================\n",
      "PROCESSING COMPLETE\n",
      "======================================================================\n",
      "Total TAFs processed: 116\n",
      "  ✓ Successful: 116\n",
      "  ✗ Failed: 0\n",
      "======================================================================\n"
     ]
    }
   ],
   "source": [
    "# January 2023_Long TAF - Improved with Error Checking\n",
    "import os\n",
    "import re\n",
    "import pandas as pd\n",
    "from datetime import datetime, timedelta\n",
    "\n",
    "# --------------------------\n",
    "# Helpers for datetimes\n",
    "# --------------------------\n",
    "def make_datetime(year, month, day, hour):\n",
    "    \"\"\"Create datetime object with error handling for invalid dates.\"\"\"\n",
    "    try:\n",
    "        return datetime(year, month, day, hour)\n",
    "    except ValueError:\n",
    "        # Adjust for days that exceed month limits\n",
    "        d = datetime(year, month, 1) + timedelta(days=day-1, hours=hour)\n",
    "        return d\n",
    "\n",
    "def adjust_end_if_earlier(start_dt, end_dt):\n",
    "    \"\"\"Ensure end datetime is after start datetime.\"\"\"\n",
    "    if pd.isna(start_dt) or pd.isna(end_dt):\n",
    "        return end_dt\n",
    "    while end_dt <= start_dt:\n",
    "        end_dt += timedelta(days=1)\n",
    "    return end_dt\n",
    "\n",
    "# --------------------------\n",
    "# Clean raw TAF file\n",
    "# --------------------------\n",
    "def clean_taf_ogimet_file(file_path):\n",
    "    \"\"\"Extract individual TAF reports from raw file with validation.\"\"\"\n",
    "    if not os.path.exists(file_path):\n",
    "        raise FileNotFoundError(f\"Input file not found: {file_path}\")\n",
    "    \n",
    "    if not os.path.isfile(file_path):\n",
    "        raise ValueError(f\"Path is not a file: {file_path}\")\n",
    "    \n",
    "    try:\n",
    "        with open(file_path, 'r', encoding='utf-8') as f:\n",
    "            text = f.read()\n",
    "    except UnicodeDecodeError:\n",
    "        print(f\"[WARNING] UTF-8 decode failed, trying with 'latin-1' encoding\")\n",
    "        with open(file_path, 'r', encoding='latin-1') as f:\n",
    "            text = f.read()\n",
    "    \n",
    "    if not text.strip():\n",
    "        raise ValueError(f\"Input file is empty: {file_path}\")\n",
    "    \n",
    "    # Extract TAF reports\n",
    "    taf_list = re.findall(r'\\d{12} TAF .+?=', text, re.DOTALL)\n",
    "    taf_list = [t.strip(\"= \\n\") for t in taf_list]\n",
    "    \n",
    "    if not taf_list:\n",
    "        raise ValueError(f\"No valid TAF reports found in file: {file_path}\")\n",
    "    \n",
    "    print(f\"[INFO] Found {len(taf_list)} TAF report(s) in file\")\n",
    "    return taf_list\n",
    "\n",
    "# --------------------------\n",
    "# Parse TAF header\n",
    "# --------------------------\n",
    "def parse_taf_header(taf_text):\n",
    "    \"\"\"Extract header information from TAF report with validation.\"\"\"\n",
    "    if not taf_text or not isinstance(taf_text, str):\n",
    "        raise ValueError(\"Invalid TAF text: empty or not a string\")\n",
    "    \n",
    "    m = re.match(r'(?P<Cdate>\\d{12}) TAF (?P<station>\\w+)', taf_text)\n",
    "    if not m:\n",
    "        raise ValueError(f\"Invalid TAF header format. Expected 'YYYYMMDDHHMM TAF STATION'. Got: {taf_text[:50]}...\")\n",
    "    \n",
    "    d = m.group('Cdate')\n",
    "    year = int(d[:4])\n",
    "    month = int(d[4:6])\n",
    "    \n",
    "    # Validate year and month\n",
    "    if not (1900 <= year <= 2100):\n",
    "        raise ValueError(f\"Invalid year in TAF header: {year}\")\n",
    "    if not (1 <= month <= 12):\n",
    "        raise ValueError(f\"Invalid month in TAF header: {month}\")\n",
    "    \n",
    "    return {\n",
    "        'Cdate': d,\n",
    "        'station': m.group('station'),\n",
    "        'year': year,\n",
    "        'month': month\n",
    "    }\n",
    "\n",
    "# --------------------------\n",
    "# Extract change groups\n",
    "# --------------------------\n",
    "def extract_groups(taf_text):\n",
    "    \"\"\"Extract change groups (FM, BECMG, TEMPO, PROB) from TAF.\"\"\"\n",
    "    pattern = r'(FM\\d{6}|BECMG \\d{4}/\\d{4}|TEMPO \\d{4}/\\d{4}|PROB\\d+ TEMPO \\d{4}/\\d{4})'\n",
    "    matches = list(re.finditer(pattern, taf_text))\n",
    "    \n",
    "    groups = []\n",
    "    last_pos = 0\n",
    "    \n",
    "    for m in matches:\n",
    "        start = m.start()\n",
    "        # Append remaining text to previous group\n",
    "        if last_pos < start and groups:\n",
    "            groups[-1]['text'] += \" \" + taf_text[last_pos:start].strip()\n",
    "        \n",
    "        g_text = m.group()\n",
    "        groups.append({'group': g_text, 'text': g_text})\n",
    "        last_pos = m.end()\n",
    "    \n",
    "    # Append any remaining text to last group\n",
    "    if last_pos < len(taf_text) and groups:\n",
    "        groups[-1]['text'] += \" \" + taf_text[last_pos:].strip()\n",
    "    \n",
    "    return groups\n",
    "\n",
    "# --------------------------\n",
    "# Parse start/end day/hour\n",
    "# --------------------------\n",
    "def parse_group_times(group):\n",
    "    \"\"\"Extract start and end times from group header.\"\"\"\n",
    "    text = group['group']\n",
    "    \n",
    "    # FM format: FMDDHHMM\n",
    "    m = re.match(r'FM(\\d{2})(\\d{2})(\\d{2})', text)\n",
    "    if m:\n",
    "        day = int(m.group(1))\n",
    "        hour = int(m.group(2))\n",
    "        if not (1 <= day <= 31):\n",
    "            print(f\"[WARNING] Invalid day in FM group: {day}\")\n",
    "        if not (0 <= hour <= 23):\n",
    "            print(f\"[WARNING] Invalid hour in FM group: {hour}\")\n",
    "        return day, hour, None, None\n",
    "    \n",
    "    # BECMG/TEMPO format: DDHH/DDHH\n",
    "    m = re.search(r'(\\d{2})(\\d{2})/(\\d{2})(\\d{2})', text)\n",
    "    if m:\n",
    "        sday, shour = int(m.group(1)), int(m.group(2))\n",
    "        eday, ehour = int(m.group(3)), int(m.group(4))\n",
    "        \n",
    "        if not (1 <= sday <= 31):\n",
    "            print(f\"[WARNING] Invalid start day: {sday}\")\n",
    "        if not (0 <= shour <= 23):\n",
    "            print(f\"[WARNING] Invalid start hour: {shour}\")\n",
    "        if not (1 <= eday <= 31):\n",
    "            print(f\"[WARNING] Invalid end day: {eday}\")\n",
    "        if not (0 <= ehour <= 23):\n",
    "            print(f\"[WARNING] Invalid end hour: {ehour}\")\n",
    "        \n",
    "        return sday, shour, eday, ehour\n",
    "    \n",
    "    return None, None, None, None\n",
    "\n",
    "# --------------------------\n",
    "# Extractors\n",
    "# --------------------------\n",
    "def extract_wind(text):\n",
    "    \"\"\"Extract wind direction, speed, and gust from TAF text.\"\"\"\n",
    "    wind_pat = r'\\b(VRB|\\d{3})(\\d{2,3})(G(\\d{2,3}))?KT\\b'\n",
    "    m = re.search(wind_pat, text)\n",
    "    if not m:\n",
    "        return None, None, None\n",
    "    \n",
    "    wd = None if m.group(1) == 'VRB' else int(m.group(1))\n",
    "    sp = int(m.group(2))\n",
    "    gust = int(m.group(4)) if m.group(4) else None\n",
    "    \n",
    "    # Validate wind values\n",
    "    if wd is not None and not (0 <= wd <= 360):\n",
    "        print(f\"[WARNING] Invalid wind direction: {wd}\")\n",
    "    if sp > 200:\n",
    "        print(f\"[WARNING] Unusually high wind speed: {sp}\")\n",
    "    if gust is not None and gust > 250:\n",
    "        print(f\"[WARNING] Unusually high gust: {gust}\")\n",
    "    \n",
    "    return wd, sp, gust\n",
    "\n",
    "def extract_visibility(text):\n",
    "    \"\"\"Extract visibility in meters, rounded to nearest 25m.\"\"\"\n",
    "    vis_m = re.findall(r' (\\d{4}) ', ' ' + text + ' ')\n",
    "    if vis_m:\n",
    "        vis = int(vis_m[0])\n",
    "        if vis > 9999:\n",
    "            print(f\"[WARNING] Unusually high visibility: {vis}\")\n",
    "        vis = (vis // 25) * 25\n",
    "        return vis\n",
    "    return None\n",
    "\n",
    "def extract_clouds(text):\n",
    "    \"\"\"Extract cloud layer information.\"\"\"\n",
    "    cloud_m = re.findall(r'\\b(FEW|SCT|BKN|OVC)(\\d{3})(CB)?\\b', text)\n",
    "    clouds = []\n",
    "    for c in cloud_m:\n",
    "        base_height = int(c[1])\n",
    "        if base_height > 500:\n",
    "            print(f\"[WARNING] Unusually high cloud base: {base_height}00 feet\")\n",
    "        \n",
    "        base = c[0] + c[1]\n",
    "        if c[2]:\n",
    "            base += \"CB\"\n",
    "        clouds.append(base)\n",
    "    return ', '.join(clouds) if clouds else None\n",
    "\n",
    "def extract_weather(text):\n",
    "    \"\"\"Extract weather phenomena from TAF text.\"\"\"\n",
    "    wxlist = [\n",
    "        \"TS\", \"RA\", \"DZ\", \"SN\", \"SG\", \"PL\", \"GR\", \"GS\", \"IC\",\n",
    "        \"FG\", \"BR\", \"HZ\", \"FU\", \"DU\", \"SA\", \"VA\", \"SQ\", \"FC\",\n",
    "        \"SS\", \"DS\", \"SH\", \"TSRA\", \"VCTS\", \"VCSH\"\n",
    "    ]\n",
    "    \n",
    "    # Remove known patterns that aren't weather\n",
    "    text2 = re.sub(r'\\b(VRB|\\d{3})(\\d{2,3})(G\\d{2,3})?KT\\b', ' ', text)\n",
    "    text2 = re.sub(r'\\b\\d{4}\\b', ' ', text2)\n",
    "    text2 = re.sub(r'\\b(FEW|SCT|BKN|OVC)\\d{3}CB?\\b', ' ', text2)\n",
    "    text2 = re.sub(r'\\b(BECMG|TEMPO|FM|PROB\\d+|PROB)\\b', ' ', text2)\n",
    "    \n",
    "    toks = [t for t in re.split(r'\\s+', text2) if t.strip()]\n",
    "    out = []\n",
    "    \n",
    "    for tok in toks:\n",
    "        if re.match(r'^(VC|\\+|\\-)?[A-Z]{2,}$', tok):\n",
    "            if any(wx in tok for wx in wxlist):\n",
    "                out.append(tok)\n",
    "    \n",
    "    return ', '.join(out) if out else None\n",
    "\n",
    "# --------------------------\n",
    "# Parse group data\n",
    "# --------------------------\n",
    "def parse_group_data(text):\n",
    "    \"\"\"Extract all meteorological data from group text.\"\"\"\n",
    "    wd, sp, gst = extract_wind(text)\n",
    "    vis = extract_visibility(text)\n",
    "    wx = extract_weather(text)\n",
    "    cld = extract_clouds(text)\n",
    "    \n",
    "    return {\n",
    "        'wind_dir': wd,\n",
    "        'wind_spd': sp,\n",
    "        'wind_gust': gst,\n",
    "        'vis': vis,\n",
    "        'weather': wx,\n",
    "        'clouds': cld\n",
    "    }\n",
    "\n",
    "# --------------------------\n",
    "# INITIAL group\n",
    "# --------------------------\n",
    "def add_initial_group(taf_text, groups):\n",
    "    \"\"\"Add INITIAL group representing the base forecast period.\"\"\"\n",
    "    m = re.search(r'\\d{4}/\\d{4}', taf_text)\n",
    "    if m and groups:\n",
    "        sday = int(m.group()[:2])\n",
    "        shour = int(m.group()[2:4])\n",
    "        \n",
    "        # Validate initial period times\n",
    "        if not (1 <= sday <= 31):\n",
    "            print(f\"[WARNING] Invalid initial start day: {sday}\")\n",
    "        if not (0 <= shour <= 23):\n",
    "            print(f\"[WARNING] Invalid initial start hour: {shour}\")\n",
    "        \n",
    "        next_sday, next_shour, _, _ = parse_group_times(groups[0])\n",
    "        init_text = taf_text.split(groups[0]['group'])[0].strip()\n",
    "\n",
    "        initial = {\n",
    "            'group': 'INITIAL',\n",
    "            'text': init_text,\n",
    "            'sday': sday,\n",
    "            'shour': shour,\n",
    "            'eday': next_sday,\n",
    "            'ehour': next_shour\n",
    "        }\n",
    "        groups.insert(0, initial)\n",
    "    elif not groups:\n",
    "        print(\"[WARNING] No change groups found in TAF\")\n",
    "    \n",
    "    return groups\n",
    "\n",
    "# --------------------------\n",
    "# Main TAF → dataframe\n",
    "# --------------------------\n",
    "def process_taf_to_df(taf_text):\n",
    "    \"\"\"Process single TAF report into structured dataframe.\"\"\"\n",
    "    if not taf_text or not taf_text.strip():\n",
    "        raise ValueError(\"Empty TAF text provided\")\n",
    "    \n",
    "    # Parse header\n",
    "    try:\n",
    "        header = parse_taf_header(taf_text)\n",
    "    except ValueError as e:\n",
    "        raise ValueError(f\"Header parsing failed: {e}\")\n",
    "    \n",
    "    year, month = header['year'], header['month']\n",
    "    station = header['station']\n",
    "\n",
    "    # Extract groups\n",
    "    groups = extract_groups(taf_text)\n",
    "    groups = add_initial_group(taf_text, groups)\n",
    "    \n",
    "    if not groups:\n",
    "        raise ValueError(f\"No groups found in TAF for station {station}\")\n",
    "\n",
    "    rows = []\n",
    "    for i, g in enumerate(groups):\n",
    "        sday, shour, eday, ehour = parse_group_times(g)\n",
    "\n",
    "        # Set times if parsed successfully\n",
    "        if sday is not None:\n",
    "            g.setdefault('sday', sday)\n",
    "            g.setdefault('shour', shour)\n",
    "        if eday is not None:\n",
    "            g.setdefault('eday', eday)\n",
    "            g.setdefault('ehour', ehour)\n",
    "\n",
    "        # For FM groups, end time is start of next group\n",
    "        if g['group'].startswith('FM') and i+1 < len(groups):\n",
    "            ns, nh, _, _ = parse_group_times(groups[i+1])\n",
    "            if ns:\n",
    "                g['eday'], g['ehour'] = ns, nh\n",
    "\n",
    "        # Extract meteorological data\n",
    "        g.update(parse_group_data(g['text']))\n",
    "        rows.append(g)\n",
    "\n",
    "    # Create dataframe\n",
    "    df = pd.DataFrame(rows)\n",
    "    \n",
    "    # Check for required fields\n",
    "    if 'sday' not in df.columns or 'shour' not in df.columns:\n",
    "        raise ValueError(\"Missing start time information in parsed groups\")\n",
    "\n",
    "    # Create datetime objects\n",
    "    df['st_dt'] = [\n",
    "        make_datetime(year, month, r['sday'], r['shour']) \n",
    "        if pd.notna(r['sday']) else pd.NaT \n",
    "        for _, r in df.iterrows()\n",
    "    ]\n",
    "    \n",
    "    df['end_dt'] = [\n",
    "        adjust_end_if_earlier(s, make_datetime(year, month, r['eday'], r['ehour'])) \n",
    "        if pd.notna(r['eday']) else pd.NaT\n",
    "        for s, (_, r) in zip(df['st_dt'], df.iterrows())\n",
    "    ]\n",
    "\n",
    "    # Sort by start time\n",
    "    df = df.sort_values('st_dt').reset_index(drop=True)\n",
    "\n",
    "    # Forward fill missing meteorological values\n",
    "    df[['wind_dir', 'wind_spd', 'wind_gust', 'vis', 'weather', 'clouds']] = \\\n",
    "        df[['wind_dir', 'wind_spd', 'wind_gust', 'vis', 'weather', 'clouds']].ffill()\n",
    "\n",
    "    # Add station and formatted dates\n",
    "    df['Station'] = station\n",
    "    df['st_date'] = df['st_dt'].dt.strftime('%d-%m-%Y %H:%M')\n",
    "    df['end_date'] = df['end_dt'].dt.strftime('%d-%m-%Y %H:%M')\n",
    "\n",
    "    return df[['Station', 'group', 'st_date', 'end_date',\n",
    "               'wind_dir', 'wind_spd', 'wind_gust', 'vis', 'weather', 'clouds']]\n",
    "\n",
    "# --------------------------\n",
    "# RUN MAIN PIPELINE\n",
    "# --------------------------\n",
    "\n",
    "if __name__ == \"__main__\":\n",
    "    # Configuration\n",
    "    input_file = r\"J:\\Anand's Research\\TAF Veri\\PATNA\\LONG TAF\\2023\\1.txt\"\n",
    "    output_folder = r\"J:\\Anand's Research\\TAFVeri\\PATNA\\LONG TAF\\2023\\Decoded TAF_1\"\n",
    "\n",
    "    print(\"=\"*70)\n",
    "    print(\"TAF PARSER - Enhanced with Error Checking\")\n",
    "    print(\"=\"*70)\n",
    "    \n",
    "    # Validate input file\n",
    "    try:\n",
    "        taf_list = clean_taf_ogimet_file(input_file)\n",
    "    except Exception as e:\n",
    "        print(f\"\\n[FATAL ERROR] Failed to read input file: {e}\")\n",
    "        exit(1)\n",
    "\n",
    "    # Create output directory\n",
    "    try:\n",
    "        os.makedirs(output_folder, exist_ok=True)\n",
    "        print(f\"[INFO] Output folder ready: {output_folder}\")\n",
    "    except Exception as e:\n",
    "        print(f\"\\n[FATAL ERROR] Cannot create output folder: {e}\")\n",
    "        exit(1)\n",
    "\n",
    "    # Process each TAF\n",
    "    print(f\"\\n{'='*70}\")\n",
    "    print(f\"Processing {len(taf_list)} TAF report(s)...\")\n",
    "    print(f\"{'='*70}\\n\")\n",
    "    \n",
    "    success_count = 0\n",
    "    error_count = 0\n",
    "    \n",
    "    for i, taf in enumerate(taf_list, start=1):\n",
    "        try:\n",
    "            print(f\"Processing TAF #{i}...\")\n",
    "            decoded = process_taf_to_df(taf)\n",
    "            \n",
    "            # Save to CSV\n",
    "            out_file = os.path.join(output_folder, f\"TAF_{i}_decoded.csv\")\n",
    "            decoded.to_csv(out_file, index=False, encoding='utf-8')\n",
    "            \n",
    "            print(f\"  ✓ SUCCESS: {len(decoded)} records saved → {out_file}\")\n",
    "            success_count += 1\n",
    "            \n",
    "        except Exception as e:\n",
    "            print(f\"  ✗ ERROR in TAF #{i}: {e}\")\n",
    "            print(f\"    TAF preview: {taf[:100]}...\")\n",
    "            error_count += 1\n",
    "        \n",
    "        print()\n",
    "\n",
    "    # Summary\n",
    "    print(f\"{'='*70}\")\n",
    "    print(f\"PROCESSING COMPLETE\")\n",
    "    print(f\"{'='*70}\")\n",
    "    print(f\"Total TAFs processed: {len(taf_list)}\")\n",
    "    print(f\"  ✓ Successful: {success_count}\")\n",
    "    print(f\"  ✗ Failed: {error_count}\")\n",
    "    print(f\"{'='*70}\")"
   ]
  },
  {
   "cell_type": "code",
   "execution_count": 1,
   "id": "e7f50acd-6323-4bc5-8519-75a1931e83d1",
   "metadata": {},
   "outputs": [
    {
     "name": "stdout",
     "output_type": "stream",
     "text": [
      "======================================================================\n",
      "METAR DECODER - Enhanced with Error Checking\n",
      "======================================================================\n",
      "\n",
      "[STEP 1] Reading METAR file...\n",
      "[INFO] Successfully read 1489 METAR line(s) from file\n",
      "[INFO] Total METARs loaded: 1489\n",
      "\n",
      "[STEP 2] Decoding 1489 METAR report(s)...\n",
      "----------------------------------------------------------------------\n",
      "[WARNING] [Line 1] Invalid METAR format: Missing required METAR/SPECI identifier or station code\n",
      "          METAR: 202301010000 METAR VEPT 010000Z 27002KT 0200 R25/0500 FG VV/// 11/10 Q1018 NOSIG...\n",
      "[WARNING] No station code found in METAR: 202301010000 METAR VEPT 010000Z 27002KT 0200 R25/0...\n",
      "[WARNING] [Line 2] Invalid METAR format: Missing required METAR/SPECI identifier or station code\n",
      "          METAR: 202301010030 METAR COR VEPT 010030Z 27002KT 0300 R25/0800 FG VV/// 11/10 Q1019 B...\n",
      "[WARNING] No station code found in METAR: 202301010030 METAR COR VEPT 010030Z 27002KT 0300 R...\n",
      "[WARNING] [Line 3] Invalid METAR format: Missing required METAR/SPECI identifier or station code\n",
      "          METAR: 202301010100 METAR VEPT 010100Z 27002KT 0400 R25/1000 FG VV/// 10/09 Q1019 NOSIG...\n",
      "[WARNING] No station code found in METAR: 202301010100 METAR VEPT 010100Z 27002KT 0400 R25/1...\n",
      "[WARNING] [Line 4] Invalid METAR format: Missing required METAR/SPECI identifier or station code\n",
      "          METAR: 202301010130 METAR VEPT 010130Z 00000KT 0200 R25/0200 FG VV/// 10/09 Q1020 NOSIG...\n",
      "[WARNING] No station code found in METAR: 202301010130 METAR VEPT 010130Z 00000KT 0200 R25/0...\n",
      "[WARNING] [Line 5] Invalid METAR format: Missing required METAR/SPECI identifier or station code\n",
      "          METAR: 202301010200 METAR VEPT 010200Z 00000KT 0100 R25/0125 FG VV/// 10/10 Q1020 NOSIG...\n",
      "[WARNING] No station code found in METAR: 202301010200 METAR VEPT 010200Z 00000KT 0100 R25/0...\n",
      "[WARNING] [Line 6] Invalid METAR format: Missing required METAR/SPECI identifier or station code\n",
      "          METAR: 202301010230 METAR VEPT 010230Z 00000KT 0050 R25/0125 FG VV/// 11/10 Q1021 NOSIG...\n",
      "[WARNING] No station code found in METAR: 202301010230 METAR VEPT 010230Z 00000KT 0050 R25/0...\n",
      "[WARNING] [Line 7] Invalid METAR format: Missing required METAR/SPECI identifier or station code\n",
      "          METAR: 202301010300 METAR VEPT 010300Z 00000KT 0050 R25/0125 FG VV/// 11/10 Q1021 NOSIG...\n",
      "[WARNING] No station code found in METAR: 202301010300 METAR VEPT 010300Z 00000KT 0050 R25/0...\n",
      "[WARNING] [Line 8] Invalid METAR format: Missing required METAR/SPECI identifier or station code\n",
      "          METAR: 202301010330 METAR VEPT 010330Z 00000KT 0050 R25/0125 FG VV/// 11/11 Q1021 NOSIG...\n",
      "[WARNING] No station code found in METAR: 202301010330 METAR VEPT 010330Z 00000KT 0050 R25/0...\n",
      "[WARNING] [Line 9] Invalid METAR format: Missing required METAR/SPECI identifier or station code\n",
      "          METAR: 202301010400 METAR VEPT 010400Z 00000KT 0050 R25/0150 FG VV/// 12/11 Q1022 NOSIG...\n",
      "[WARNING] No station code found in METAR: 202301010400 METAR VEPT 010400Z 00000KT 0050 R25/0...\n",
      "[WARNING] [Line 10] Invalid METAR format: Missing required METAR/SPECI identifier or station code\n",
      "          METAR: 202301010430 METAR VEPT 010430Z 00000KT 0050 R25/0175 FG VV/// 12/12 Q1022 NOSIG...\n",
      "[WARNING] No station code found in METAR: 202301010430 METAR VEPT 010430Z 00000KT 0050 R25/0...\n",
      "[WARNING] [Line 11] Invalid METAR format: Missing required METAR/SPECI identifier or station code\n",
      "          METAR: 202301010500 METAR VEPT 010500Z 00000KT 0100 R25/0500 FG VV/// 13/13 Q1021 NOSIG...\n",
      "[WARNING] No station code found in METAR: 202301010500 METAR VEPT 010500Z 00000KT 0100 R25/0...\n",
      "[WARNING] [Line 12] Invalid METAR format: Missing required METAR/SPECI identifier or station code\n",
      "          METAR: 202301010530 METAR VEPT 010530Z 00000KT 0300 R25/0950 FG VV/// 15/14 Q1021 NOSIG...\n",
      "[WARNING] No station code found in METAR: 202301010530 METAR VEPT 010530Z 00000KT 0300 R25/0...\n",
      "[WARNING] [Line 13] Invalid METAR format: Missing required METAR/SPECI identifier or station code\n",
      "          METAR: 202301010600 METAR VEPT 010600Z 00000KT 0500 R25/1100 FG VV/// 16/15 Q1021 NOSIG...\n",
      "[WARNING] No station code found in METAR: 202301010600 METAR VEPT 010600Z 00000KT 0500 R25/1...\n",
      "[WARNING] [Line 14] Invalid METAR format: Missing required METAR/SPECI identifier or station code\n",
      "          METAR: 202301010630 METAR VEPT 010630Z 00000KT 0700 R25/1150 FG NSC 18/16 Q1020 NOSIG=...\n",
      "[WARNING] No station code found in METAR: 202301010630 METAR VEPT 010630Z 00000KT 0700 R25/1...\n",
      "[WARNING] [Line 15] Invalid METAR format: Missing required METAR/SPECI identifier or station code\n",
      "          METAR: 202301010700 METAR VEPT 010700Z 36004KT 0700 R25/1150 FG NSC 18/15 Q1019 BECMG 0...\n",
      "[WARNING] No station code found in METAR: 202301010700 METAR VEPT 010700Z 36004KT 0700 R25/1...\n",
      "[WARNING] [Line 16] Invalid METAR format: Missing required METAR/SPECI identifier or station code\n",
      "          METAR: 202301010730 METAR VEPT 010730Z 32003KT 0700 R25/1100 FG NSC 19/15 Q1019 BECMG 0...\n",
      "[WARNING] No station code found in METAR: 202301010730 METAR VEPT 010730Z 32003KT 0700 R25/1...\n",
      "[WARNING] [Line 17] Invalid METAR format: Missing required METAR/SPECI identifier or station code\n",
      "          METAR: 202301010800 METAR VEPT 010800Z 30004KT 0800 R25/1200 FG NSC 18/15 Q1019 NOSIG=...\n",
      "[WARNING] No station code found in METAR: 202301010800 METAR VEPT 010800Z 30004KT 0800 R25/1...\n",
      "[WARNING] [Line 18] Invalid METAR format: Missing required METAR/SPECI identifier or station code\n",
      "          METAR: 202301010830 METAR VEPT 010830Z 34004KT 1000 R25/1200 MIFG NSC 19/15 Q1018 NOSIG...\n",
      "[WARNING] No station code found in METAR: 202301010830 METAR VEPT 010830Z 34004KT 1000 R25/1...\n",
      "[WARNING] [Line 19] Invalid METAR format: Missing required METAR/SPECI identifier or station code\n",
      "          METAR: 202301010900 METAR VEPT 010900Z 29004KT 1000 R25/1300 MIFG NSC 19/15 Q1018 NOSIG...\n",
      "[WARNING] No station code found in METAR: 202301010900 METAR VEPT 010900Z 29004KT 1000 R25/1...\n",
      "[WARNING] [Line 20] Invalid METAR format: Missing required METAR/SPECI identifier or station code\n",
      "          METAR: 202301010930 METAR VEPT 010930Z 30005KT 1000 R25/1400 MIFG NSC 19/15 Q1017 NOSIG...\n",
      "[WARNING] No station code found in METAR: 202301010930 METAR VEPT 010930Z 30005KT 1000 R25/1...\n",
      "[WARNING] [Line 21] Invalid METAR format: Missing required METAR/SPECI identifier or station code\n",
      "          METAR: 202301011000 METAR VEPT 011000Z 30004KT 1000 R25/1500 MIFG NSC 19/16 Q1017 NOSIG...\n",
      "[WARNING] No station code found in METAR: 202301011000 METAR VEPT 011000Z 30004KT 1000 R25/1...\n",
      "[WARNING] [Line 22] Invalid METAR format: Missing required METAR/SPECI identifier or station code\n",
      "          METAR: 202301011030 METAR VEPT 011030Z 29003KT 1000 R25/1500 MIFG NSC 19/16 Q1017 NOSIG...\n",
      "[WARNING] No station code found in METAR: 202301011030 METAR VEPT 011030Z 29003KT 1000 R25/1...\n",
      "[WARNING] [Line 23] Invalid METAR format: Missing required METAR/SPECI identifier or station code\n",
      "          METAR: 202301011100 METAR VEPT 011100Z 25002KT 1000 R25/1700 MIFG NSC 19/16 Q1017 NOSIG...\n",
      "[WARNING] No station code found in METAR: 202301011100 METAR VEPT 011100Z 25002KT 1000 R25/1...\n",
      "[WARNING] [Line 24] Invalid METAR format: Missing required METAR/SPECI identifier or station code\n",
      "          METAR: 202301011130 METAR VEPT 011130Z 28002KT 1000 R25/2000 MIFG NSC 18/16 Q1017 NOSIG...\n",
      "[WARNING] No station code found in METAR: 202301011130 METAR VEPT 011130Z 28002KT 1000 R25/2...\n",
      "[WARNING] [Line 25] Invalid METAR format: Missing required METAR/SPECI identifier or station code\n",
      "          METAR: 202301011200 METAR VEPT 011200Z 28002KT 1200 R25/2000 BR NSC 18/15 Q1018 NOSIG=...\n",
      "[WARNING] No station code found in METAR: 202301011200 METAR VEPT 011200Z 28002KT 1200 R25/2...\n",
      "[WARNING] [Line 26] Invalid METAR format: Missing required METAR/SPECI identifier or station code\n",
      "          METAR: 202301011230 METAR VEPT 011230Z 28003KT 1400 R25/2000 BR NSC 17/16 Q1018 BECMG 1...\n",
      "[WARNING] No station code found in METAR: 202301011230 METAR VEPT 011230Z 28003KT 1400 R25/2...\n",
      "[WARNING] [Line 27] Invalid METAR format: Missing required METAR/SPECI identifier or station code\n",
      "          METAR: 202301011300 METAR VEPT 011300Z 29004KT 1500 R25/2000 BR NSC 17/15 Q1019 NOSIG=...\n",
      "[WARNING] No station code found in METAR: 202301011300 METAR VEPT 011300Z 29004KT 1500 R25/2...\n",
      "[WARNING] [Line 28] Invalid METAR format: Missing required METAR/SPECI identifier or station code\n",
      "          METAR: 202301011330 METAR VEPT 011330Z 30005KT 1200 R25/1600 BR NSC 16/15 Q1019 NOSIG=...\n",
      "[WARNING] No station code found in METAR: 202301011330 METAR VEPT 011330Z 30005KT 1200 R25/1...\n",
      "[WARNING] [Line 29] Invalid METAR format: Missing required METAR/SPECI identifier or station code\n",
      "          METAR: 202301011400 METAR VEPT 011400Z 29005KT 1000 R25/1500 BR NSC 15/14 Q1019 BECMG 0...\n",
      "[WARNING] No station code found in METAR: 202301011400 METAR VEPT 011400Z 29005KT 1000 R25/1...\n",
      "[WARNING] [Line 30] Invalid METAR format: Missing required METAR/SPECI identifier or station code\n",
      "          METAR: 202301011430 METAR VEPT 011430Z 30002KT 1000 R25/1300 MIFG NSC 15/14 Q1019 BECMG...\n",
      "[WARNING] No station code found in METAR: 202301011430 METAR VEPT 011430Z 30002KT 1000 R25/1...\n",
      "[WARNING] [Line 31] Invalid METAR format: Missing required METAR/SPECI identifier or station code\n",
      "          METAR: 202301011500 METAR VEPT 011500Z 30003KT 0200 R25/0275 FG VV/// 14/13 Q1020 BECMG...\n",
      "[WARNING] No station code found in METAR: 202301011500 METAR VEPT 011500Z 30003KT 0200 R25/0...\n",
      "[WARNING] [Line 32] Invalid METAR format: Missing required METAR/SPECI identifier or station code\n",
      "          METAR: 202301011530 METAR VEPT 011530Z 29003KT 0150 R25/0300 FG VV/// 14/13 Q1020 NOSIG...\n",
      "[WARNING] No station code found in METAR: 202301011530 METAR VEPT 011530Z 29003KT 0150 R25/0...\n",
      "[WARNING] [Line 33] Invalid METAR format: Missing required METAR/SPECI identifier or station code\n",
      "          METAR: 202301011600 METAR VEPT 011600Z 29003KT 0100 R25/0175 FG VV/// 14/13 Q1020 NOSIG...\n",
      "[WARNING] No station code found in METAR: 202301011600 METAR VEPT 011600Z 29003KT 0100 R25/0...\n",
      "[WARNING] [Line 34] Invalid METAR format: Missing required METAR/SPECI identifier or station code\n",
      "          METAR: 202301011630 METAR VEPT 011630Z 26003KT 0100 R25/0175 FG VV/// 14/13 Q1020 NOSIG...\n",
      "[WARNING] No station code found in METAR: 202301011630 METAR VEPT 011630Z 26003KT 0100 R25/0...\n",
      "[WARNING] [Line 35] Invalid METAR format: Missing required METAR/SPECI identifier or station code\n",
      "          METAR: 202301011700 METAR VEPT 011700Z 29004KT 0100 R25/0175 FG VV/// 14/14 Q1020 NOSIG...\n",
      "[WARNING] No station code found in METAR: 202301011700 METAR VEPT 011700Z 29004KT 0100 R25/0...\n",
      "[WARNING] [Line 36] Invalid METAR format: Missing required METAR/SPECI identifier or station code\n",
      "          METAR: 202301011730 METAR VEPT 011730Z 28003KT 0100 R25/0200 FG VV/// 14/14 Q1020 NOSIG...\n",
      "[WARNING] No station code found in METAR: 202301011730 METAR VEPT 011730Z 28003KT 0100 R25/0...\n",
      "[WARNING] [Line 37] Invalid METAR format: Missing required METAR/SPECI identifier or station code\n",
      "          METAR: 202301011800 METAR VEPT 011800Z 28004KT 0100 R25/0200 FG VV/// 14/14 Q1020 NOSIG...\n",
      "[WARNING] No station code found in METAR: 202301011800 METAR VEPT 011800Z 28004KT 0100 R25/0...\n",
      "[WARNING] [Line 38] Invalid METAR format: Missing required METAR/SPECI identifier or station code\n",
      "          METAR: 202301011830 METAR VEPT 011830Z 27003KT 0100 R25/0200 FG VV/// 14/14 Q1020 NOSIG...\n",
      "[WARNING] No station code found in METAR: 202301011830 METAR VEPT 011830Z 27003KT 0100 R25/0...\n",
      "[WARNING] [Line 39] Invalid METAR format: Missing required METAR/SPECI identifier or station code\n",
      "          METAR: 202301011900 METAR VEPT 011900Z 25003KT 0100 R25/0200 FG VV/// 14/13 Q1019 NOSIG...\n",
      "[WARNING] No station code found in METAR: 202301011900 METAR VEPT 011900Z 25003KT 0100 R25/0...\n",
      "[WARNING] [Line 40] Invalid METAR format: Missing required METAR/SPECI identifier or station code\n",
      "          METAR: 202301011930 METAR VEPT 011930Z 25004KT 0100 R25/0225 FG VV/// 14/13 Q1019 NOSIG...\n",
      "[WARNING] No station code found in METAR: 202301011930 METAR VEPT 011930Z 25004KT 0100 R25/0...\n",
      "[WARNING] [Line 41] Invalid METAR format: Missing required METAR/SPECI identifier or station code\n",
      "          METAR: 202301012000 METAR VEPT 012000Z 24004KT 0100 R25/0225 FG VV/// 14/13 Q1019 NOSIG...\n",
      "[WARNING] No station code found in METAR: 202301012000 METAR VEPT 012000Z 24004KT 0100 R25/0...\n",
      "[WARNING] [Line 42] Invalid METAR format: Missing required METAR/SPECI identifier or station code\n",
      "          METAR: 202301012030 METAR VEPT 012030Z 28002KT 0100 R25/0250 FG VV/// 14/13 Q1019 NOSIG...\n",
      "[WARNING] No station code found in METAR: 202301012030 METAR VEPT 012030Z 28002KT 0100 R25/0...\n",
      "[WARNING] [Line 43] Invalid METAR format: Missing required METAR/SPECI identifier or station code\n",
      "          METAR: 202301012100 METAR VEPT 012100Z 27002KT 0100 R25/0225 FG VV/// 14/13 Q1019 NOSIG...\n",
      "[WARNING] No station code found in METAR: 202301012100 METAR VEPT 012100Z 27002KT 0100 R25/0...\n",
      "[WARNING] [Line 44] Invalid METAR format: Missing required METAR/SPECI identifier or station code\n",
      "          METAR: 202301012130 METAR VEPT 012130Z 29002KT 0100 R25/0225 FG VV/// 14/13 Q1019 NOSIG...\n",
      "[WARNING] No station code found in METAR: 202301012130 METAR VEPT 012130Z 29002KT 0100 R25/0...\n",
      "[WARNING] [Line 45] Invalid METAR format: Missing required METAR/SPECI identifier or station code\n",
      "          METAR: 202301012200 METAR VEPT 012200Z 26002KT 0100 R25/0275 FG VV/// 13/13 Q1019 NOSIG...\n",
      "[WARNING] No station code found in METAR: 202301012200 METAR VEPT 012200Z 26002KT 0100 R25/0...\n",
      "[WARNING] [Line 46] Invalid METAR format: Missing required METAR/SPECI identifier or station code\n",
      "          METAR: 202301012230 METAR VEPT 012230Z 28002KT 0100 R25/0250 FG VV/// 13/12 Q1018 NOSIG...\n",
      "[WARNING] No station code found in METAR: 202301012230 METAR VEPT 012230Z 28002KT 0100 R25/0...\n",
      "[WARNING] [Line 47] Invalid METAR format: Missing required METAR/SPECI identifier or station code\n",
      "          METAR: 202301012300 METAR VEPT 012300Z 27002KT 0100 R25/0800 FG VV/// 13/12 Q1018 NOSIG...\n",
      "[WARNING] No station code found in METAR: 202301012300 METAR VEPT 012300Z 27002KT 0100 R25/0...\n",
      "[WARNING] [Line 48] Invalid METAR format: Missing required METAR/SPECI identifier or station code\n",
      "          METAR: 202301012330 METAR VEPT 012330Z 00000KT 0200 R25/1200 FG VV/// 13/12 Q1019 BECMG...\n",
      "[WARNING] No station code found in METAR: 202301012330 METAR VEPT 012330Z 00000KT 0200 R25/1...\n",
      "[WARNING] [Line 49] Invalid METAR format: Missing required METAR/SPECI identifier or station code\n",
      "          METAR: 202301020000 METAR VEPT 020000Z 00000KT 0350 R25/1400 FG VV/// 13/12 Q1019 NOSIG...\n",
      "[WARNING] No station code found in METAR: 202301020000 METAR VEPT 020000Z 00000KT 0350 R25/1...\n",
      "[WARNING] [Line 50] Invalid METAR format: Missing required METAR/SPECI identifier or station code\n",
      "          METAR: 202301020030 METAR VEPT 020030Z 00000KT 0400 R25/1900 FG VV/// 13/12 Q1020 NOSIG...\n",
      "[WARNING] No station code found in METAR: 202301020030 METAR VEPT 020030Z 00000KT 0400 R25/1...\n",
      "[WARNING] [Line 51] Invalid METAR format: Missing required METAR/SPECI identifier or station code\n",
      "          METAR: 202301020100 METAR VEPT 020100Z 00000KT 0500 R25/1700 FG VV/// 13/12 Q1020 NOSIG...\n",
      "[WARNING] No station code found in METAR: 202301020100 METAR VEPT 020100Z 00000KT 0500 R25/1...\n",
      "[WARNING] [Line 52] Invalid METAR format: Missing required METAR/SPECI identifier or station code\n",
      "          METAR: 202301020130 METAR VEPT 020130Z 00000KT 0500 R25/1700 FG VV/// 13/12 Q1021 NOSIG...\n",
      "[WARNING] No station code found in METAR: 202301020130 METAR VEPT 020130Z 00000KT 0500 R25/1...\n",
      "[WARNING] [Line 53] Invalid METAR format: Missing required METAR/SPECI identifier or station code\n",
      "          METAR: 202301020200 METAR VEPT 020200Z 25003KT 0600 R25/1600 FG VV/// 14/13 Q1021 NOSIG...\n",
      "[WARNING] No station code found in METAR: 202301020200 METAR VEPT 020200Z 25003KT 0600 R25/1...\n",
      "[WARNING] [Line 54] Invalid METAR format: Missing required METAR/SPECI identifier or station code\n",
      "          METAR: 202301020230 METAR VEPT 020230Z 27004KT 0600 R25/1500 FG VV/// 14/13 Q1021 NOSIG...\n",
      "[WARNING] No station code found in METAR: 202301020230 METAR VEPT 020230Z 27004KT 0600 R25/1...\n",
      "[WARNING] [Line 55] Invalid METAR format: Missing required METAR/SPECI identifier or station code\n",
      "          METAR: 202301020300 METAR VEPT 020300Z 25002KT 0600 R25/1400 FG VV/// 14/13 Q1022 NOSIG...\n",
      "[WARNING] No station code found in METAR: 202301020300 METAR VEPT 020300Z 25002KT 0600 R25/1...\n",
      "[WARNING] [Line 56] Invalid METAR format: Missing required METAR/SPECI identifier or station code\n",
      "          METAR: 202301020330 METAR VEPT 020330Z 26003KT 0600 R25/1300 FG VV/// 14/13 Q1022 NOSIG...\n",
      "[WARNING] No station code found in METAR: 202301020330 METAR VEPT 020330Z 26003KT 0600 R25/1...\n",
      "[WARNING] [Line 57] Invalid METAR format: Missing required METAR/SPECI identifier or station code\n",
      "          METAR: 202301020400 METAR VEPT 020400Z 25002KT 0600 R25/1200 FG VV/// 14/13 Q1023 BECMG...\n",
      "[WARNING] No station code found in METAR: 202301020400 METAR VEPT 020400Z 25002KT 0600 R25/1...\n",
      "[WARNING] [Line 58] Invalid METAR format: Missing required METAR/SPECI identifier or station code\n",
      "          METAR: 202301020430 METAR VEPT 020430Z 26003KT 0800 R25/1300 FG SCT100 14/13 Q1023 NOSI...\n",
      "[WARNING] No station code found in METAR: 202301020430 METAR VEPT 020430Z 26003KT 0800 R25/1...\n",
      "[WARNING] [Line 59] Invalid METAR format: Missing required METAR/SPECI identifier or station code\n",
      "          METAR: 202301020500 METAR VEPT 020500Z 27003KT 1000 R25/1300 MIFG SCT100 15/13 Q1023 NO...\n",
      "[WARNING] No station code found in METAR: 202301020500 METAR VEPT 020500Z 27003KT 1000 R25/1...\n",
      "[WARNING] [Line 60] Invalid METAR format: Missing required METAR/SPECI identifier or station code\n",
      "          METAR: 202301020530 METAR VEPT 020530Z 29003KT 1000 R25/1300 MIFG SCT100 15/14 Q1022 NO...\n",
      "[WARNING] No station code found in METAR: 202301020530 METAR VEPT 020530Z 29003KT 1000 R25/1...\n",
      "[WARNING] [Line 61] Invalid METAR format: Missing required METAR/SPECI identifier or station code\n",
      "          METAR: 202301020600 METAR VEPT 020600Z 27003KT 1000 R25/1300 MIFG SCT100 15/14 Q1022 NO...\n",
      "[WARNING] No station code found in METAR: 202301020600 METAR VEPT 020600Z 27003KT 1000 R25/1...\n",
      "[WARNING] [Line 62] Invalid METAR format: Missing required METAR/SPECI identifier or station code\n",
      "          METAR: 202301020630 METAR VEPT 020630Z 25004KT 1000 R25/1400 MIFG SCT100 15/13 Q1022 NO...\n",
      "[WARNING] No station code found in METAR: 202301020630 METAR VEPT 020630Z 25004KT 1000 R25/1...\n",
      "[WARNING] [Line 63] Invalid METAR format: Missing required METAR/SPECI identifier or station code\n",
      "          METAR: 202301020700 METAR VEPT 020700Z 34003KT 1000 R25/1400 MIFG SCT100 16/13 Q1021 NO...\n",
      "[WARNING] No station code found in METAR: 202301020700 METAR VEPT 020700Z 34003KT 1000 R25/1...\n",
      "[WARNING] [Line 64] Invalid METAR format: Missing required METAR/SPECI identifier or station code\n",
      "          METAR: 202301020730 METAR VEPT 020730Z 28004KT 1000 R25/1400 MIFG SCT100 16/13 Q1021 NO...\n",
      "[WARNING] No station code found in METAR: 202301020730 METAR VEPT 020730Z 28004KT 1000 R25/1...\n",
      "[WARNING] [Line 65] Invalid METAR format: Missing required METAR/SPECI identifier or station code\n",
      "          METAR: 202301020800 METAR VEPT 020800Z 29003KT 1200 R25/1500 BR SCT015 16/13 Q1020 NOSI...\n",
      "[WARNING] No station code found in METAR: 202301020800 METAR VEPT 020800Z 29003KT 1200 R25/1...\n",
      "[WARNING] [Line 66] Invalid METAR format: Missing required METAR/SPECI identifier or station code\n",
      "          METAR: 202301020830 METAR VEPT 020830Z 34004KT 1200 R25/1500 BR SCT015 16/13 Q1020 NOSI...\n",
      "[WARNING] No station code found in METAR: 202301020830 METAR VEPT 020830Z 34004KT 1200 R25/1...\n",
      "[WARNING] [Line 67] Invalid METAR format: Missing required METAR/SPECI identifier or station code\n",
      "          METAR: 202301020900 METAR VEPT 020900Z 32003KT 1200 R25/1500 BR SCT015 16/13 Q1019 NOSI...\n",
      "[WARNING] No station code found in METAR: 202301020900 METAR VEPT 020900Z 32003KT 1200 R25/1...\n",
      "[WARNING] [Line 68] Invalid METAR format: Missing required METAR/SPECI identifier or station code\n",
      "          METAR: 202301020930 METAR VEPT 020930Z 35003KT 1200 R25/1600 BR SCT015 16/13 Q1019 BECM...\n",
      "[WARNING] No station code found in METAR: 202301020930 METAR VEPT 020930Z 35003KT 1200 R25/1...\n",
      "[WARNING] [Line 69] Invalid METAR format: Missing required METAR/SPECI identifier or station code\n",
      "          METAR: 202301021000 METAR VEPT 021000Z 30004KT 1500 R25/1800 BR SCT015 16/13 Q1019 NOSI...\n",
      "[WARNING] No station code found in METAR: 202301021000 METAR VEPT 021000Z 30004KT 1500 R25/1...\n",
      "[WARNING] [Line 70] Invalid METAR format: Missing required METAR/SPECI identifier or station code\n",
      "          METAR: 202301021030 METAR VEPT 021030Z 32004KT 1500 R25/2000 BR SCT015 15/13 Q1019 NOSI...\n",
      "[WARNING] No station code found in METAR: 202301021030 METAR VEPT 021030Z 32004KT 1500 R25/2...\n",
      "[WARNING] [Line 71] Invalid METAR format: Missing required METAR/SPECI identifier or station code\n",
      "          METAR: 202301021100 METAR VEPT 021100Z 34004KT 1500 R25/2000 BR FEW010 SCT015 15/13 Q10...\n",
      "[WARNING] No station code found in METAR: 202301021100 METAR VEPT 021100Z 34004KT 1500 R25/2...\n",
      "[WARNING] [Line 72] Invalid METAR format: Missing required METAR/SPECI identifier or station code\n",
      "          METAR: 202301021130 METAR VEPT 021130Z 35004KT 1500 R25/2000 BR FEW010 SCT015 15/13 Q10...\n",
      "[WARNING] No station code found in METAR: 202301021130 METAR VEPT 021130Z 35004KT 1500 R25/2...\n",
      "[WARNING] [Line 73] Invalid METAR format: Missing required METAR/SPECI identifier or station code\n",
      "          METAR: 202301021200 METAR VEPT 021200Z 35003KT 1800 BR FEW010 SCT015 15/13 Q1020 BECMG ...\n",
      "[WARNING] No station code found in METAR: 202301021200 METAR VEPT 021200Z 35003KT 1800 BR FE...\n",
      "[WARNING] [Line 74] Invalid METAR format: Missing required METAR/SPECI identifier or station code\n",
      "          METAR: 202301021230 METAR VEPT 021230Z 31003KT 1800 BR FEW010 SCT015 14/13 Q1020 NOSIG=...\n",
      "[WARNING] No station code found in METAR: 202301021230 METAR VEPT 021230Z 31003KT 1800 BR FE...\n",
      "[WARNING] [Line 75] Invalid METAR format: Missing required METAR/SPECI identifier or station code\n",
      "          METAR: 202301021300 METAR VEPT 021300Z 31004KT 1800 BR FEW010 SCT015 14/12 Q1020 NOSIG=...\n",
      "[WARNING] No station code found in METAR: 202301021300 METAR VEPT 021300Z 31004KT 1800 BR FE...\n",
      "[WARNING] [Line 76] Invalid METAR format: Missing required METAR/SPECI identifier or station code\n",
      "          METAR: 202301021330 METAR VEPT 021330Z 31001KT 1800 BR FEW010 SCT015 14/13 Q1020 NOSIG=...\n",
      "[WARNING] No station code found in METAR: 202301021330 METAR VEPT 021330Z 31001KT 1800 BR FE...\n",
      "[WARNING] [Line 77] Invalid METAR format: Missing required METAR/SPECI identifier or station code\n",
      "          METAR: 202301021400 METAR VEPT 021400Z 31003KT 1800 BR FEW010 SCT015 14/12 Q1021 NOSIG=...\n",
      "[WARNING] No station code found in METAR: 202301021400 METAR VEPT 021400Z 31003KT 1800 BR FE...\n",
      "[WARNING] [Line 78] Invalid METAR format: Missing required METAR/SPECI identifier or station code\n",
      "          METAR: 202301021430 METAR VEPT 021430Z 32004KT 1600 BR FEW010 SCT015 14/12 Q1021 BECMG ...\n",
      "[WARNING] No station code found in METAR: 202301021430 METAR VEPT 021430Z 32004KT 1600 BR FE...\n",
      "[WARNING] [Line 79] Invalid METAR format: Missing required METAR/SPECI identifier or station code\n",
      "          METAR: 202301021500 METAR VEPT 021500Z 33006KT 1500 R25/2000 BR NSC 14/12 Q1021 NOSIG=...\n",
      "[WARNING] No station code found in METAR: 202301021500 METAR VEPT 021500Z 33006KT 1500 R25/2...\n",
      "[WARNING] [Line 80] Invalid METAR format: Missing required METAR/SPECI identifier or station code\n",
      "          METAR: 202301021530 METAR VEPT 021530Z 30005KT 1500 R25/2000 BR NSC 14/12 Q1021 NOSIG=...\n",
      "[WARNING] No station code found in METAR: 202301021530 METAR VEPT 021530Z 30005KT 1500 R25/2...\n",
      "[WARNING] [Line 81] Invalid METAR format: Missing required METAR/SPECI identifier or station code\n",
      "          METAR: 202301021600 METAR VEPT 021600Z 30005KT 1200 R25/2000 MIFG NSC 14/12 Q1022 NOSIG...\n",
      "[WARNING] No station code found in METAR: 202301021600 METAR VEPT 021600Z 30005KT 1200 R25/2...\n",
      "[WARNING] [Line 82] Invalid METAR format: Missing required METAR/SPECI identifier or station code\n",
      "          METAR: 202301021630 METAR VEPT 021630Z 32002KT 1200 R25/2000 MIFG NSC 14/12 Q1022 NOSIG...\n",
      "[WARNING] No station code found in METAR: 202301021630 METAR VEPT 021630Z 32002KT 1200 R25/2...\n",
      "[WARNING] [Line 83] Invalid METAR format: Missing required METAR/SPECI identifier or station code\n",
      "          METAR: 202301021700 METAR VEPT 021700Z 34004KT 1200 R25/2000 MIFG NSC 14/12 Q1022 NOSIG...\n",
      "[WARNING] No station code found in METAR: 202301021700 METAR VEPT 021700Z 34004KT 1200 R25/2...\n",
      "[WARNING] [Line 84] Invalid METAR format: Missing required METAR/SPECI identifier or station code\n",
      "          METAR: 202301021730 METAR VEPT 021730Z 26003KT 1200 R25/2000 MIFG NSC 13/12 Q1022 NOSIG...\n",
      "[WARNING] No station code found in METAR: 202301021730 METAR VEPT 021730Z 26003KT 1200 R25/2...\n",
      "[WARNING] [Line 85] Invalid METAR format: Missing required METAR/SPECI identifier or station code\n",
      "          METAR: 202301021800 METAR VEPT 021800Z 31003KT 1200 R25/2000 MIFG NSC 13/12 Q1022 NOSIG...\n",
      "[WARNING] No station code found in METAR: 202301021800 METAR VEPT 021800Z 31003KT 1200 R25/2...\n",
      "[WARNING] [Line 86] Invalid METAR format: Missing required METAR/SPECI identifier or station code\n",
      "          METAR: 202301021830 METAR VEPT 021830Z 00000KT 1000 R25/2000 MIFG NSC 13/12 Q1021 NOSIG...\n",
      "[WARNING] No station code found in METAR: 202301021830 METAR VEPT 021830Z 00000KT 1000 R25/2...\n",
      "[WARNING] [Line 87] Invalid METAR format: Missing required METAR/SPECI identifier or station code\n",
      "          METAR: 202301021900 METAR VEPT 021900Z 00000KT 1000 R25/2000 MIFG NSC 13/12 Q1021 NOSIG...\n",
      "[WARNING] No station code found in METAR: 202301021900 METAR VEPT 021900Z 00000KT 1000 R25/2...\n",
      "[WARNING] [Line 88] Invalid METAR format: Missing required METAR/SPECI identifier or station code\n",
      "          METAR: 202301021930 METAR VEPT 021930Z 00000KT 1000 R25/2000 MIFG NSC 13/12 Q1021 NOSIG...\n",
      "[WARNING] No station code found in METAR: 202301021930 METAR VEPT 021930Z 00000KT 1000 R25/2...\n",
      "[WARNING] [Line 89] Invalid METAR format: Missing required METAR/SPECI identifier or station code\n",
      "          METAR: 202301022000 METAR VEPT 022000Z 00000KT 1000 R25/2000 MIFG NSC 13/12 Q1020 NOSIG...\n",
      "[WARNING] No station code found in METAR: 202301022000 METAR VEPT 022000Z 00000KT 1000 R25/2...\n",
      "[WARNING] [Line 90] Invalid METAR format: Missing required METAR/SPECI identifier or station code\n",
      "          METAR: 202301022030 METAR VEPT 022030Z 25003KT 1000 R25/2000 MIFG NSC 13/12 Q1020 NOSIG...\n",
      "[WARNING] No station code found in METAR: 202301022030 METAR VEPT 022030Z 25003KT 1000 R25/2...\n",
      "[WARNING] [Line 91] Invalid METAR format: Missing required METAR/SPECI identifier or station code\n",
      "          METAR: 202301022100 METAR VEPT 022100Z 00000KT 1000 R25/2000 MIFG NSC 13/12 Q1020 NOSIG...\n",
      "[WARNING] No station code found in METAR: 202301022100 METAR VEPT 022100Z 00000KT 1000 R25/2...\n",
      "[WARNING] [Line 92] Invalid METAR format: Missing required METAR/SPECI identifier or station code\n",
      "          METAR: 202301022130 METAR VEPT 022130Z 26003KT 1000 R25/2000 MIFG NSC 13/12 Q1020 NOSIG...\n",
      "[WARNING] No station code found in METAR: 202301022130 METAR VEPT 022130Z 26003KT 1000 R25/2...\n",
      "[WARNING] [Line 93] Invalid METAR format: Missing required METAR/SPECI identifier or station code\n",
      "          METAR: 202301022200 METAR VEPT 022200Z 25003KT 1000 R25/2000 MIFG NSC 13/12 Q1020 NOSIG...\n",
      "[WARNING] No station code found in METAR: 202301022200 METAR VEPT 022200Z 25003KT 1000 R25/2...\n",
      "[WARNING] [Line 94] Invalid METAR format: Missing required METAR/SPECI identifier or station code\n",
      "          METAR: 202301022230 METAR VEPT 022230Z 27003KT 1000 R25/2000 MIFG NSC 13/11 Q1020 NOSIG...\n",
      "[WARNING] No station code found in METAR: 202301022230 METAR VEPT 022230Z 27003KT 1000 R25/2...\n",
      "[WARNING] [Line 95] Invalid METAR format: Missing required METAR/SPECI identifier or station code\n",
      "          METAR: 202301022300 METAR VEPT 022300Z 30003KT 1000 R25/2000 MIFG NSC 13/11 Q1020 NOSIG...\n",
      "[WARNING] No station code found in METAR: 202301022300 METAR VEPT 022300Z 30003KT 1000 R25/2...\n",
      "[WARNING] [Line 96] Invalid METAR format: Missing required METAR/SPECI identifier or station code\n",
      "          METAR: 202301022330 METAR VEPT 022330Z 30003KT 1000 R25/2000 MIFG NSC 13/11 Q1020 NOSIG...\n",
      "[WARNING] No station code found in METAR: 202301022330 METAR VEPT 022330Z 30003KT 1000 R25/2...\n",
      "[WARNING] [Line 97] Invalid METAR format: Missing required METAR/SPECI identifier or station code\n",
      "          METAR: 202301030000 METAR VEPT 030000Z 29003KT 1000 R25/2000 MIFG NSC 13/11 Q1020 NOSIG...\n",
      "[WARNING] No station code found in METAR: 202301030000 METAR VEPT 030000Z 29003KT 1000 R25/2...\n",
      "[WARNING] [Line 98] Invalid METAR format: Missing required METAR/SPECI identifier or station code\n",
      "          METAR: 202301030030 METAR VEPT 030030Z 22003KT 1000 R25/2000 MIFG NSC 13/12 Q1020 NOSIG...\n",
      "[WARNING] No station code found in METAR: 202301030030 METAR VEPT 030030Z 22003KT 1000 R25/2...\n",
      "[WARNING] [Line 99] Invalid METAR format: Missing required METAR/SPECI identifier or station code\n",
      "          METAR: 202301030100 METAR VEPT 030100Z 27004KT 1000 R25/2000 MIFG NSC 13/12 Q1021 BECMG...\n",
      "[WARNING] No station code found in METAR: 202301030100 METAR VEPT 030100Z 27004KT 1000 R25/2...\n",
      "[PROGRESS] Processed 100/1489 METARs...\n",
      "[WARNING] [Line 100] Invalid METAR format: Missing required METAR/SPECI identifier or station code\n",
      "          METAR: 202301030130 METAR VEPT 030130Z 24004KT 0800 R25/1800 DZ SCT010 BKN015 12/11 Q10...\n",
      "[WARNING] No station code found in METAR: 202301030130 METAR VEPT 030130Z 24004KT 0800 R25/1...\n",
      "[WARNING] [Line 101] Invalid METAR format: Missing required METAR/SPECI identifier or station code\n",
      "          METAR: 202301030200 METAR VEPT 030200Z 27003KT 0800 R25/1400 DZ SCT010 BKN015 12/11 Q10...\n",
      "[WARNING] No station code found in METAR: 202301030200 METAR VEPT 030200Z 27003KT 0800 R25/1...\n",
      "[WARNING] [Line 102] Invalid METAR format: Missing required METAR/SPECI identifier or station code\n",
      "          METAR: 202301030230 METAR VEPT 030230Z 26005KT 0600 R25/1200 DZ SCT010 BKN015 12/11 Q10...\n",
      "[WARNING] No station code found in METAR: 202301030230 METAR VEPT 030230Z 26005KT 0600 R25/1...\n",
      "[WARNING] [Line 103] Invalid METAR format: Missing required METAR/SPECI identifier or station code\n",
      "          METAR: 202301030300 METAR VEPT 030300Z 28003KT 0600 R25/1200 DZ SCT010 BKN015 12/11 Q10...\n",
      "[WARNING] No station code found in METAR: 202301030300 METAR VEPT 030300Z 28003KT 0600 R25/1...\n",
      "[WARNING] [Line 104] Invalid METAR format: Missing required METAR/SPECI identifier or station code\n",
      "          METAR: 202301030330 METAR VEPT 030330Z 27003KT 0600 R25/1200 FG SCT010 BKN015 12/11 Q10...\n",
      "[WARNING] No station code found in METAR: 202301030330 METAR VEPT 030330Z 27003KT 0600 R25/1...\n",
      "[WARNING] [Line 105] Invalid METAR format: Missing required METAR/SPECI identifier or station code\n",
      "          METAR: 202301030400 METAR VEPT 030400Z 00000KT 0600 R25/1200 FG SCT010 BKN015 13/12 Q10...\n",
      "[WARNING] No station code found in METAR: 202301030400 METAR VEPT 030400Z 00000KT 0600 R25/1...\n",
      "[WARNING] [Line 106] Invalid METAR format: Missing required METAR/SPECI identifier or station code\n",
      "          METAR: 202301030430 METAR VEPT 030430Z 25003KT 0800 R25/1300 FG SCT010 BKN015 13/12 Q10...\n",
      "[WARNING] No station code found in METAR: 202301030430 METAR VEPT 030430Z 25003KT 0800 R25/1...\n",
      "[WARNING] [Line 107] Invalid METAR format: Missing required METAR/SPECI identifier or station code\n",
      "          METAR: 202301030500 METAR VEPT 030500Z 32003KT 1100 R25/1600 BR SCT015 13/12 Q1024 BECM...\n",
      "[WARNING] No station code found in METAR: 202301030500 METAR VEPT 030500Z 32003KT 1100 R25/1...\n",
      "[WARNING] [Line 108] Invalid METAR format: Missing required METAR/SPECI identifier or station code\n",
      "          METAR: 202301030530 METAR VEPT 030530Z 00000KT 1200 R25/1500 BR SCT015 13/12 Q1023 BECM...\n",
      "[WARNING] No station code found in METAR: 202301030530 METAR VEPT 030530Z 00000KT 1200 R25/1...\n",
      "[WARNING] [Line 109] Invalid METAR format: Missing required METAR/SPECI identifier or station code\n",
      "          METAR: 202301030600 METAR VEPT 030600Z 29002KT 1200 R25/1400 BR SCT015 14/12 Q1023 NOSI...\n",
      "[WARNING] No station code found in METAR: 202301030600 METAR VEPT 030600Z 29002KT 1200 R25/1...\n",
      "[WARNING] [Line 110] Invalid METAR format: Missing required METAR/SPECI identifier or station code\n",
      "          METAR: 202301030630 METAR VEPT 030630Z 34003KT 1500 R25/1500 BR SCT015 14/12 Q1022 NOSI...\n",
      "[WARNING] No station code found in METAR: 202301030630 METAR VEPT 030630Z 34003KT 1500 R25/1...\n",
      "[WARNING] [Line 111] Invalid METAR format: Missing required METAR/SPECI identifier or station code\n",
      "          METAR: 202301030700 METAR VEPT 030700Z 36002KT 1500 R25/1500 BR SCT015 14/12 Q1021 NOSI...\n",
      "[WARNING] No station code found in METAR: 202301030700 METAR VEPT 030700Z 36002KT 1500 R25/1...\n",
      "[WARNING] [Line 112] Invalid METAR format: Missing required METAR/SPECI identifier or station code\n",
      "          METAR: 202301030730 METAR VEPT 030730Z 28002KT 1500 R25/1500 BR SCT015 14/12 Q1021 NOSI...\n",
      "[WARNING] No station code found in METAR: 202301030730 METAR VEPT 030730Z 28002KT 1500 R25/1...\n",
      "[WARNING] [Line 113] Invalid METAR format: Missing required METAR/SPECI identifier or station code\n",
      "          METAR: 202301030800 METAR VEPT 030800Z 35003KT 1400 R25/1400 BR SCT015 BKN100 14/12 Q10...\n",
      "[WARNING] No station code found in METAR: 202301030800 METAR VEPT 030800Z 35003KT 1400 R25/1...\n",
      "[WARNING] [Line 114] Invalid METAR format: Missing required METAR/SPECI identifier or station code\n",
      "          METAR: 202301030830 METAR VEPT 030830Z 27003KT 1400 R25/1500 BR SCT015 BKN100 14/12 Q10...\n",
      "[WARNING] No station code found in METAR: 202301030830 METAR VEPT 030830Z 27003KT 1400 R25/1...\n",
      "[WARNING] [Line 115] Invalid METAR format: Missing required METAR/SPECI identifier or station code\n",
      "          METAR: 202301030900 METAR VEPT 030900Z 35004KT 1400 R25/1500 BR SCT010 BKN020 14/12 Q10...\n",
      "[WARNING] No station code found in METAR: 202301030900 METAR VEPT 030900Z 35004KT 1400 R25/1...\n",
      "[WARNING] [Line 116] Invalid METAR format: Missing required METAR/SPECI identifier or station code\n",
      "          METAR: 202301030930 METAR VEPT 030930Z 30002KT 1400 R25/1600 BR SCT010 BKN020 14/12 Q10...\n",
      "[WARNING] No station code found in METAR: 202301030930 METAR VEPT 030930Z 30002KT 1400 R25/1...\n",
      "[WARNING] [Line 117] Invalid METAR format: Missing required METAR/SPECI identifier or station code\n",
      "          METAR: 202301031000 METAR VEPT 031000Z 34003KT 1400 R25/1600 BR SCT010 BKN020 14/12 Q10...\n",
      "[WARNING] No station code found in METAR: 202301031000 METAR VEPT 031000Z 34003KT 1400 R25/1...\n",
      "[WARNING] [Line 118] Invalid METAR format: Missing required METAR/SPECI identifier or station code\n",
      "          METAR: 202301031030 METAR VEPT 031030Z 30002KT 1400 R25/1900 BR SCT010 BKN020 14/12 Q10...\n",
      "[WARNING] No station code found in METAR: 202301031030 METAR VEPT 031030Z 30002KT 1400 R25/1...\n",
      "[WARNING] [Line 119] Invalid METAR format: Missing required METAR/SPECI identifier or station code\n",
      "          METAR: 202301031100 METAR VEPT 031100Z 34003KT 1400 R25/1900 BR SCT010 BKN020 14/12 Q10...\n",
      "[WARNING] No station code found in METAR: 202301031100 METAR VEPT 031100Z 34003KT 1400 R25/1...\n",
      "[WARNING] [Line 120] Invalid METAR format: Missing required METAR/SPECI identifier or station code\n",
      "          METAR: 202301031130 METAR VEPT 031130Z 31003KT 1400 R25/1900 BR SCT010 BKN020 14/12 Q10...\n",
      "[WARNING] No station code found in METAR: 202301031130 METAR VEPT 031130Z 31003KT 1400 R25/1...\n",
      "[WARNING] [Line 121] Invalid METAR format: Missing required METAR/SPECI identifier or station code\n",
      "          METAR: 202301031200 METAR VEPT 031200Z 34003KT 1400 R25/1900 BR SCT010 BKN020 14/12 Q10...\n",
      "[WARNING] No station code found in METAR: 202301031200 METAR VEPT 031200Z 34003KT 1400 R25/1...\n",
      "[WARNING] [Line 122] Invalid METAR format: Missing required METAR/SPECI identifier or station code\n",
      "          METAR: 202301031230 METAR VEPT 031230Z 28003KT 1400 R25/1900 BR SCT010 BKN020 14/12 Q10...\n",
      "[WARNING] No station code found in METAR: 202301031230 METAR VEPT 031230Z 28003KT 1400 R25/1...\n",
      "[WARNING] [Line 123] Invalid METAR format: Missing required METAR/SPECI identifier or station code\n",
      "          METAR: 202301031300 METAR VEPT 031300Z 29003KT 1400 R25/2000 BR SCT010 BKN020 14/11 Q10...\n",
      "[WARNING] No station code found in METAR: 202301031300 METAR VEPT 031300Z 29003KT 1400 R25/2...\n",
      "[WARNING] [Line 124] Invalid METAR format: Missing required METAR/SPECI identifier or station code\n",
      "          METAR: 202301031330 METAR VEPT 031330Z 30004KT 1500 R25/2000 BR SCT010 BKN020 14/11 Q10...\n",
      "[WARNING] No station code found in METAR: 202301031330 METAR VEPT 031330Z 30004KT 1500 R25/2...\n",
      "[WARNING] [Line 125] Invalid METAR format: Missing required METAR/SPECI identifier or station code\n",
      "          METAR: 202301031400 METAR VEPT 031400Z 32005KT 1500 R25/2000 BR SCT015 BKN100 14/11 Q10...\n",
      "[WARNING] No station code found in METAR: 202301031400 METAR VEPT 031400Z 32005KT 1500 R25/2...\n",
      "[WARNING] [Line 126] Invalid METAR format: Missing required METAR/SPECI identifier or station code\n",
      "          METAR: 202301031430 METAR VEPT 031430Z 29004KT 1500 R25/2000 BR SCT015 BKN100 13/11 Q10...\n",
      "[WARNING] No station code found in METAR: 202301031430 METAR VEPT 031430Z 29004KT 1500 R25/2...\n",
      "[WARNING] [Line 127] Invalid METAR format: Missing required METAR/SPECI identifier or station code\n",
      "          METAR: 202301031500 METAR VEPT 031500Z 29005KT 1600 BR SCT015 BKN100 13/11 Q1021 NOSIG=...\n",
      "[WARNING] No station code found in METAR: 202301031500 METAR VEPT 031500Z 29005KT 1600 BR SC...\n",
      "[WARNING] [Line 128] Invalid METAR format: Missing required METAR/SPECI identifier or station code\n",
      "          METAR: 202301031530 METAR VEPT 031530Z 32003KT 1600 BR FEW015 SCT100 13/11 Q1021 NOSIG=...\n",
      "[WARNING] No station code found in METAR: 202301031530 METAR VEPT 031530Z 32003KT 1600 BR FE...\n",
      "[WARNING] [Line 129] Invalid METAR format: Missing required METAR/SPECI identifier or station code\n",
      "          METAR: 202301031600 METAR VEPT 031600Z 31002KT 1600 BR FEW015 SCT100 13/11 Q1021 NOSIG=...\n",
      "[WARNING] No station code found in METAR: 202301031600 METAR VEPT 031600Z 31002KT 1600 BR FE...\n",
      "[WARNING] [Line 130] Invalid METAR format: Missing required METAR/SPECI identifier or station code\n",
      "          METAR: 202301031630 METAR VEPT 031630Z 29002KT 1600 BR FEW015 SCT100 13/11 Q1021 NOSIG=...\n",
      "[WARNING] No station code found in METAR: 202301031630 METAR VEPT 031630Z 29002KT 1600 BR FE...\n",
      "[WARNING] [Line 131] Invalid METAR format: Missing required METAR/SPECI identifier or station code\n",
      "          METAR: 202301031700 METAR VEPT 031700Z 29003KT 1600 BR FEW015 SCT100 13/11 Q1021 BECMG ...\n",
      "[WARNING] No station code found in METAR: 202301031700 METAR VEPT 031700Z 29003KT 1600 BR FE...\n",
      "[WARNING] [Line 132] Invalid METAR format: Missing required METAR/SPECI identifier or station code\n",
      "          METAR: 202301031730 METAR VEPT 031730Z 00000KT 1500 R25/2000 BR FEW015 SCT100 13/11 Q10...\n",
      "[WARNING] No station code found in METAR: 202301031730 METAR VEPT 031730Z 00000KT 1500 R25/2...\n",
      "[WARNING] [Line 133] Invalid METAR format: Missing required METAR/SPECI identifier or station code\n",
      "          METAR: 202301031800 METAR VEPT 031800Z 00000KT 1500 R25/2000 BR FEW015 SCT100 13/11 Q10...\n",
      "[WARNING] No station code found in METAR: 202301031800 METAR VEPT 031800Z 00000KT 1500 R25/2...\n",
      "[WARNING] [Line 134] Invalid METAR format: Missing required METAR/SPECI identifier or station code\n",
      "          METAR: 202301031830 METAR VEPT 031830Z 27005KT 1500 R25/2000 BR FEW015 SCT100 14/11 Q10...\n",
      "[WARNING] No station code found in METAR: 202301031830 METAR VEPT 031830Z 27005KT 1500 R25/2...\n",
      "[WARNING] [Line 135] Invalid METAR format: Missing required METAR/SPECI identifier or station code\n",
      "          METAR: 202301031900 METAR VEPT 031900Z 25003KT 1500 R25/2000 BR FEW015 SCT100 13/11 Q10...\n",
      "[WARNING] No station code found in METAR: 202301031900 METAR VEPT 031900Z 25003KT 1500 R25/2...\n",
      "[WARNING] [Line 136] Invalid METAR format: Missing required METAR/SPECI identifier or station code\n",
      "          METAR: 202301031930 METAR VEPT 031930Z 26003KT 1500 R25/2000 BR FEW015 SCT100 13/10 Q10...\n",
      "[WARNING] No station code found in METAR: 202301031930 METAR VEPT 031930Z 26003KT 1500 R25/2...\n",
      "[WARNING] [Line 137] Invalid METAR format: Missing required METAR/SPECI identifier or station code\n",
      "          METAR: 202301032000 METAR VEPT 032000Z 31003KT 1500 R25/2000 BR FEW015 SCT100 13/10 Q10...\n",
      "[WARNING] No station code found in METAR: 202301032000 METAR VEPT 032000Z 31003KT 1500 R25/2...\n",
      "[WARNING] [Line 138] Invalid METAR format: Missing required METAR/SPECI identifier or station code\n",
      "          METAR: 202301032030 METAR VEPT 032030Z 28003KT 1500 R25/2000 BR FEW015 SCT100 12/10 Q10...\n",
      "[WARNING] No station code found in METAR: 202301032030 METAR VEPT 032030Z 28003KT 1500 R25/2...\n",
      "[WARNING] [Line 139] Invalid METAR format: Missing required METAR/SPECI identifier or station code\n",
      "          METAR: 202301032100 METAR VEPT 032100Z 27002KT 1500 R25/2000 BR FEW015 SCT100 12/10 Q10...\n",
      "[WARNING] No station code found in METAR: 202301032100 METAR VEPT 032100Z 27002KT 1500 R25/2...\n",
      "[WARNING] [Line 140] Invalid METAR format: Missing required METAR/SPECI identifier or station code\n",
      "          METAR: 202301032130 METAR VEPT 032130Z 29002KT 1500 R25/2000 BR FEW015 SCT100 12/10 Q10...\n",
      "[WARNING] No station code found in METAR: 202301032130 METAR VEPT 032130Z 29002KT 1500 R25/2...\n",
      "[WARNING] [Line 141] Invalid METAR format: Missing required METAR/SPECI identifier or station code\n",
      "          METAR: 202301032200 METAR VEPT 032200Z 30002KT 1500 R25/2000 BR FEW015 SCT100 12/10 Q10...\n",
      "[WARNING] No station code found in METAR: 202301032200 METAR VEPT 032200Z 30002KT 1500 R25/2...\n",
      "[WARNING] [Line 142] Invalid METAR format: Missing required METAR/SPECI identifier or station code\n",
      "          METAR: 202301032230 METAR VEPT 032230Z 31002KT 1500 R25/2000 BR FEW015 SCT100 12/10 Q10...\n",
      "[WARNING] No station code found in METAR: 202301032230 METAR VEPT 032230Z 31002KT 1500 R25/2...\n",
      "[WARNING] [Line 143] Invalid METAR format: Missing required METAR/SPECI identifier or station code\n",
      "          METAR: 202301032300 METAR VEPT 032300Z 32002KT 1500 R25/2000 BR FEW015 SCT100 12/10 Q10...\n",
      "[WARNING] No station code found in METAR: 202301032300 METAR VEPT 032300Z 32002KT 1500 R25/2...\n",
      "[WARNING] [Line 144] Invalid METAR format: Missing required METAR/SPECI identifier or station code\n",
      "          METAR: 202301032330 METAR VEPT 032330Z 33002KT 1500 R25/2000 BR FEW015 SCT100 12/10 Q10...\n",
      "[WARNING] No station code found in METAR: 202301032330 METAR VEPT 032330Z 33002KT 1500 R25/2...\n",
      "[WARNING] [Line 145] Invalid METAR format: Missing required METAR/SPECI identifier or station code\n",
      "          METAR: 202301040000 METAR VEPT 040000Z 32002KT 1500 R25/2000 BR FEW015 SCT100 12/11 Q10...\n",
      "[WARNING] No station code found in METAR: 202301040000 METAR VEPT 040000Z 32002KT 1500 R25/2...\n",
      "[WARNING] [Line 146] Invalid METAR format: Missing required METAR/SPECI identifier or station code\n",
      "          METAR: 202301040030 METAR VEPT 040030Z 33002KT 1500 R25/2000 BR FEW015 SCT100 12/11 Q10...\n",
      "[WARNING] No station code found in METAR: 202301040030 METAR VEPT 040030Z 33002KT 1500 R25/2...\n",
      "[WARNING] [Line 147] Invalid METAR format: Missing required METAR/SPECI identifier or station code\n",
      "          METAR: 202301040100 METAR VEPT 040100Z 32002KT 1400 R25/2000 BR FEW015 SCT100 12/11 Q10...\n",
      "[WARNING] No station code found in METAR: 202301040100 METAR VEPT 040100Z 32002KT 1400 R25/2...\n",
      "[WARNING] [Line 148] Invalid METAR format: Missing required METAR/SPECI identifier or station code\n",
      "          METAR: 202301040130 METAR VEPT 040130Z 27002KT 1200 R25/2000 BR FEW015 SCT100 12/11 Q10...\n",
      "[WARNING] No station code found in METAR: 202301040130 METAR VEPT 040130Z 27002KT 1200 R25/2...\n",
      "[WARNING] [Line 149] Invalid METAR format: Missing required METAR/SPECI identifier or station code\n",
      "          METAR: 202301040200 METAR VEPT 040200Z 30003KT 1000 R25/1800 MIFG SCT010 BKN020 12/11 Q...\n",
      "[WARNING] No station code found in METAR: 202301040200 METAR VEPT 040200Z 30003KT 1000 R25/1...\n",
      "[WARNING] [Line 150] Invalid METAR format: Missing required METAR/SPECI identifier or station code\n",
      "          METAR: 202301040230 METAR VEPT 040230Z 27004KT 1000 R25/1600 MIFG SCT010 BKN020 12/11 Q...\n",
      "[WARNING] No station code found in METAR: 202301040230 METAR VEPT 040230Z 27004KT 1000 R25/1...\n",
      "[WARNING] [Line 151] Invalid METAR format: Missing required METAR/SPECI identifier or station code\n",
      "          METAR: 202301040300 METAR VEPT 040300Z 28003KT 1000 R25/1400 MIFG SCT010 BKN020 12/11 Q...\n",
      "[WARNING] No station code found in METAR: 202301040300 METAR VEPT 040300Z 28003KT 1000 R25/1...\n",
      "[WARNING] [Line 152] Invalid METAR format: Missing required METAR/SPECI identifier or station code\n",
      "          METAR: 202301040330 METAR VEPT 040330Z 02002KT 1000 R25/1400 MIFG SCT010 BKN020 13/11 Q...\n",
      "[WARNING] No station code found in METAR: 202301040330 METAR VEPT 040330Z 02002KT 1000 R25/1...\n",
      "[WARNING] [Line 153] Invalid METAR format: Missing required METAR/SPECI identifier or station code\n",
      "          METAR: 202301040400 METAR VEPT 040400Z 35003KT 1000 R25/1400 MIFG SCT010 BKN020 13/11 Q...\n",
      "[WARNING] No station code found in METAR: 202301040400 METAR VEPT 040400Z 35003KT 1000 R25/1...\n",
      "[WARNING] [Line 154] Invalid METAR format: Missing required METAR/SPECI identifier or station code\n",
      "          METAR: 202301040430 METAR VEPT 040430Z 01003KT 1000 R25/1300 MIFG SCT010 BKN020 13/11 Q...\n",
      "[WARNING] No station code found in METAR: 202301040430 METAR VEPT 040430Z 01003KT 1000 R25/1...\n",
      "[WARNING] [Line 155] Invalid METAR format: Missing required METAR/SPECI identifier or station code\n",
      "          METAR: 202301040500 METAR VEPT 040500Z 34003KT 1100 R25/1300 BR SCT010 BKN020 13/11 Q10...\n",
      "[WARNING] No station code found in METAR: 202301040500 METAR VEPT 040500Z 34003KT 1100 R25/1...\n",
      "[WARNING] [Line 156] Invalid METAR format: Missing required METAR/SPECI identifier or station code\n",
      "          METAR: 202301040530 METAR VEPT 040530Z 34003KT 1100 R25/1400 BR SCT010 BKN020 13/11 Q10...\n",
      "[WARNING] No station code found in METAR: 202301040530 METAR VEPT 040530Z 34003KT 1100 R25/1...\n",
      "[WARNING] [Line 157] Invalid METAR format: Missing required METAR/SPECI identifier or station code\n",
      "          METAR: 202301040600 METAR VEPT 040600Z 33004KT 1100 R25/1400 BR SCT010 BKN020 13/11 Q10...\n",
      "[WARNING] No station code found in METAR: 202301040600 METAR VEPT 040600Z 33004KT 1100 R25/1...\n",
      "[WARNING] [Line 158] Invalid METAR format: Missing required METAR/SPECI identifier or station code\n",
      "          METAR: 202301040630 METAR VEPT 040630Z 35003KT 1100 R25/1400 BR SCT010 BKN020 13/11 Q10...\n",
      "[WARNING] No station code found in METAR: 202301040630 METAR VEPT 040630Z 35003KT 1100 R25/1...\n",
      "[WARNING] [Line 159] Invalid METAR format: Missing required METAR/SPECI identifier or station code\n",
      "          METAR: 202301040700 METAR VEPT 040700Z 34004KT 1100 R25/1400 BR SCT010 BKN020 13/11 Q10...\n",
      "[WARNING] No station code found in METAR: 202301040700 METAR VEPT 040700Z 34004KT 1100 R25/1...\n",
      "[WARNING] [Line 160] Invalid METAR format: Missing required METAR/SPECI identifier or station code\n",
      "          METAR: 202301040730 METAR VEPT 040730Z 32002KT 1100 R25/1400 BR SCT010 BKN020 14/11 Q10...\n",
      "[WARNING] No station code found in METAR: 202301040730 METAR VEPT 040730Z 32002KT 1100 R25/1...\n",
      "[WARNING] [Line 161] Invalid METAR format: Missing required METAR/SPECI identifier or station code\n",
      "          METAR: 202301040800 METAR VEPT 040800Z 35004KT 1200 R25/1400 BR SCT010 BKN020 14/11 Q10...\n",
      "[WARNING] No station code found in METAR: 202301040800 METAR VEPT 040800Z 35004KT 1200 R25/1...\n",
      "[WARNING] [Line 162] Invalid METAR format: Missing required METAR/SPECI identifier or station code\n",
      "          METAR: 202301040830 METAR VEPT 040830Z 34004KT 1200 R25/1400 BR SCT010 BKN020 14/11 Q10...\n",
      "[WARNING] No station code found in METAR: 202301040830 METAR VEPT 040830Z 34004KT 1200 R25/1...\n",
      "[WARNING] [Line 163] Invalid METAR format: Missing required METAR/SPECI identifier or station code\n",
      "          METAR: 202301040900 METAR VEPT 040900Z 31003KT 1200 R25/1400 BR SCT010 BKN020 14/11 Q10...\n",
      "[WARNING] No station code found in METAR: 202301040900 METAR VEPT 040900Z 31003KT 1200 R25/1...\n",
      "[WARNING] [Line 164] Invalid METAR format: Missing required METAR/SPECI identifier or station code\n",
      "          METAR: 202301040930 METAR VEPT 040930Z 31005KT 1200 R25/1500 BR SCT010 BKN020 14/11 Q10...\n",
      "[WARNING] No station code found in METAR: 202301040930 METAR VEPT 040930Z 31005KT 1200 R25/1...\n",
      "[WARNING] [Line 165] Invalid METAR format: Missing required METAR/SPECI identifier or station code\n",
      "          METAR: 202301041000 METAR VEPT 041000Z 33006KT 1200 R25/1600 BR SCT010 BKN020 14/11 Q10...\n",
      "[WARNING] No station code found in METAR: 202301041000 METAR VEPT 041000Z 33006KT 1200 R25/1...\n",
      "[WARNING] [Line 166] Invalid METAR format: Missing required METAR/SPECI identifier or station code\n",
      "          METAR: 202301041030 METAR VEPT 041030Z 33004KT 1200 R25/1600 BR SCT010 BKN020 14/11 Q10...\n",
      "[WARNING] No station code found in METAR: 202301041030 METAR VEPT 041030Z 33004KT 1200 R25/1...\n",
      "[WARNING] [Line 167] Invalid METAR format: Missing required METAR/SPECI identifier or station code\n",
      "          METAR: 202301041100 METAR VEPT 041100Z 30005KT 1200 R25/1900 BR SCT010 BKN020 14/11 Q10...\n",
      "[WARNING] No station code found in METAR: 202301041100 METAR VEPT 041100Z 30005KT 1200 R25/1...\n",
      "[WARNING] [Line 168] Invalid METAR format: Missing required METAR/SPECI identifier or station code\n",
      "          METAR: 202301041130 METAR VEPT 041130Z 32003KT 1200 R25/2000 BR SCT010 BKN020 14/11 Q10...\n",
      "[WARNING] No station code found in METAR: 202301041130 METAR VEPT 041130Z 32003KT 1200 R25/2...\n",
      "[WARNING] [Line 169] Invalid METAR format: Missing required METAR/SPECI identifier or station code\n",
      "          METAR: 202301041200 METAR VEPT 041200Z 27004KT 1200 R25/2000 BR SCT010 BKN020 14/11 Q10...\n",
      "[WARNING] No station code found in METAR: 202301041200 METAR VEPT 041200Z 27004KT 1200 R25/2...\n",
      "[WARNING] [Line 170] Invalid METAR format: Missing required METAR/SPECI identifier or station code\n",
      "          METAR: 202301041230 METAR VEPT 041230Z 30003KT 1200 R25/2000 BR SCT010 BKN020 14/10 Q10...\n",
      "[WARNING] No station code found in METAR: 202301041230 METAR VEPT 041230Z 30003KT 1200 R25/2...\n",
      "[WARNING] [Line 171] Invalid METAR format: Missing required METAR/SPECI identifier or station code\n",
      "          METAR: 202301041300 METAR VEPT 041300Z 28005KT 1200 R25/2000 BR SCT010 BKN020 15/11 Q10...\n",
      "[WARNING] No station code found in METAR: 202301041300 METAR VEPT 041300Z 28005KT 1200 R25/2...\n",
      "[WARNING] [Line 172] Invalid METAR format: Missing required METAR/SPECI identifier or station code\n",
      "          METAR: 202301041330 METAR VEPT 041330Z 30006KT 1200 R25/2000 BR SCT010 BKN020 14/10 Q10...\n",
      "[WARNING] No station code found in METAR: 202301041330 METAR VEPT 041330Z 30006KT 1200 R25/2...\n",
      "[WARNING] [Line 173] Invalid METAR format: Missing required METAR/SPECI identifier or station code\n",
      "          METAR: 202301041400 METAR VEPT 041400Z 29004KT 1800 BR SCT010 BKN015 14/10 Q1020 NOSIG=...\n",
      "[WARNING] No station code found in METAR: 202301041400 METAR VEPT 041400Z 29004KT 1800 BR SC...\n",
      "[WARNING] [Line 174] Invalid METAR format: Missing required METAR/SPECI identifier or station code\n",
      "          METAR: 202301041430 METAR VEPT 041430Z 30003KT 1800 BR SCT015 13/10 Q1021 NOSIG=...\n",
      "[WARNING] No station code found in METAR: 202301041430 METAR VEPT 041430Z 30003KT 1800 BR SC...\n",
      "[WARNING] [Line 175] Invalid METAR format: Missing required METAR/SPECI identifier or station code\n",
      "          METAR: 202301041500 METAR VEPT 041500Z 32004KT 1800 BR SCT015 13/10 Q1021 NOSIG=...\n",
      "[WARNING] No station code found in METAR: 202301041500 METAR VEPT 041500Z 32004KT 1800 BR SC...\n",
      "[WARNING] [Line 176] Invalid METAR format: Missing required METAR/SPECI identifier or station code\n",
      "          METAR: 202301041530 METAR VEPT 041530Z 32003KT 1800 BR SCT015 13/10 Q1021 NOSIG=...\n",
      "[WARNING] No station code found in METAR: 202301041530 METAR VEPT 041530Z 32003KT 1800 BR SC...\n",
      "[WARNING] [Line 177] Invalid METAR format: Missing required METAR/SPECI identifier or station code\n",
      "          METAR: 202301041600 METAR VEPT 041600Z 29003KT 1600 BR SCT015 13/11 Q1021 NOSIG=...\n",
      "[WARNING] No station code found in METAR: 202301041600 METAR VEPT 041600Z 29003KT 1600 BR SC...\n",
      "[WARNING] [Line 178] Invalid METAR format: Missing required METAR/SPECI identifier or station code\n",
      "          METAR: 202301041630 METAR VEPT 041630Z 29003KT 1600 BR SCT015 13/10 Q1021 NOSIG=...\n",
      "[WARNING] No station code found in METAR: 202301041630 METAR VEPT 041630Z 29003KT 1600 BR SC...\n",
      "[WARNING] [Line 179] Invalid METAR format: Missing required METAR/SPECI identifier or station code\n",
      "          METAR: 202301041700 METAR VEPT 041700Z 28003KT 1600 BR SCT015 13/10 Q1021 NOSIG=...\n",
      "[WARNING] No station code found in METAR: 202301041700 METAR VEPT 041700Z 28003KT 1600 BR SC...\n",
      "[WARNING] [Line 180] Invalid METAR format: Missing required METAR/SPECI identifier or station code\n",
      "          METAR: 202301041730 METAR VEPT 041730Z 28003KT 1600 BR SCT015 12/10 Q1021 NOSIG=...\n",
      "[WARNING] No station code found in METAR: 202301041730 METAR VEPT 041730Z 28003KT 1600 BR SC...\n",
      "[WARNING] [Line 181] Invalid METAR format: Missing required METAR/SPECI identifier or station code\n",
      "          METAR: 202301041800 METAR VEPT 041800Z 32003KT 1600 BR SCT015 12/10 Q1021 NOSIG=...\n",
      "[WARNING] No station code found in METAR: 202301041800 METAR VEPT 041800Z 32003KT 1600 BR SC...\n",
      "[WARNING] [Line 182] Invalid METAR format: Missing required METAR/SPECI identifier or station code\n",
      "          METAR: 202301041830 METAR VEPT 041830Z 28003KT 1600 BR SCT015 12/10 Q1021 NOSIG=...\n",
      "[WARNING] No station code found in METAR: 202301041830 METAR VEPT 041830Z 28003KT 1600 BR SC...\n",
      "[WARNING] [Line 183] Invalid METAR format: Missing required METAR/SPECI identifier or station code\n",
      "          METAR: 202301041900 METAR VEPT 041900Z 28003KT 1600 BR SCT015 12/10 Q1021 NOSIG=...\n",
      "[WARNING] No station code found in METAR: 202301041900 METAR VEPT 041900Z 28003KT 1600 BR SC...\n",
      "[WARNING] [Line 184] Invalid METAR format: Missing required METAR/SPECI identifier or station code\n",
      "          METAR: 202301041930 METAR VEPT 041930Z 30004KT 1600 BR SCT015 11/10 Q1021 NOSIG=...\n",
      "[WARNING] No station code found in METAR: 202301041930 METAR VEPT 041930Z 30004KT 1600 BR SC...\n",
      "[WARNING] [Line 185] Invalid METAR format: Missing required METAR/SPECI identifier or station code\n",
      "          METAR: 202301042000 METAR VEPT 042000Z 30004KT 1600 BR SCT015 11/10 Q1021 NOSIG=...\n",
      "[WARNING] No station code found in METAR: 202301042000 METAR VEPT 042000Z 30004KT 1600 BR SC...\n",
      "[WARNING] [Line 186] Invalid METAR format: Missing required METAR/SPECI identifier or station code\n",
      "          METAR: 202301042030 METAR VEPT 042030Z 29004KT 1600 BR SCT015 11/10 Q1021 NOSIG=...\n",
      "[WARNING] No station code found in METAR: 202301042030 METAR VEPT 042030Z 29004KT 1600 BR SC...\n",
      "[WARNING] [Line 187] Invalid METAR format: Missing required METAR/SPECI identifier or station code\n",
      "          METAR: 202301042100 METAR VEPT 042100Z 30003KT 1600 BR SCT015 11/10 Q1021 NOSIG=...\n",
      "[WARNING] No station code found in METAR: 202301042100 METAR VEPT 042100Z 30003KT 1600 BR SC...\n",
      "[WARNING] [Line 188] Invalid METAR format: Missing required METAR/SPECI identifier or station code\n",
      "          METAR: 202301042130 METAR VEPT 042130Z 29003KT 1200 MIFG SCT015 11/10 Q1021 NOSIG=...\n",
      "[WARNING] No station code found in METAR: 202301042130 METAR VEPT 042130Z 29003KT 1200 MIFG ...\n",
      "[WARNING] [Line 189] Invalid METAR format: Missing required METAR/SPECI identifier or station code\n",
      "          METAR: 202301042200 METAR VEPT 042200Z 29003KT 1200 MIFG SCT015 11/10 Q1021 NOSIG=...\n",
      "[WARNING] No station code found in METAR: 202301042200 METAR VEPT 042200Z 29003KT 1200 MIFG ...\n",
      "[WARNING] [Line 190] Invalid METAR format: Missing required METAR/SPECI identifier or station code\n",
      "          METAR: 202301042230 METAR VEPT 042230Z 30005KT 1200 MIFG SCT015 11/10 Q1021 NOSIG=...\n",
      "[WARNING] No station code found in METAR: 202301042230 METAR VEPT 042230Z 30005KT 1200 MIFG ...\n",
      "[WARNING] [Line 191] Invalid METAR format: Missing required METAR/SPECI identifier or station code\n",
      "          METAR: 202301042300 METAR VEPT 042300Z 28004KT 1200 MIFG SCT015 11/10 Q1021 NOSIG=...\n",
      "[WARNING] No station code found in METAR: 202301042300 METAR VEPT 042300Z 28004KT 1200 MIFG ...\n",
      "[WARNING] [Line 192] Invalid METAR format: Missing required METAR/SPECI identifier or station code\n",
      "          METAR: 202301042330 METAR VEPT 042330Z 27004KT 1100 MIFG SCT015 11/10 Q1021 NOSIG=...\n",
      "[WARNING] No station code found in METAR: 202301042330 METAR VEPT 042330Z 27004KT 1100 MIFG ...\n",
      "[WARNING] [Line 193] Invalid METAR format: Missing required METAR/SPECI identifier or station code\n",
      "          METAR: 202301050000 METAR VEPT 050000Z 28003KT 1100 MIFG SCT015 11/10 Q1021 NOSIG=...\n",
      "[WARNING] No station code found in METAR: 202301050000 METAR VEPT 050000Z 28003KT 1100 MIFG ...\n",
      "[WARNING] [Line 194] Invalid METAR format: Missing required METAR/SPECI identifier or station code\n",
      "          METAR: 202301050030 METAR VEPT 050030Z 27004KT 1100 MIFG SCT015 11/10 Q1021 NOSIG=...\n",
      "[WARNING] No station code found in METAR: 202301050030 METAR VEPT 050030Z 27004KT 1100 MIFG ...\n",
      "[WARNING] [Line 195] Invalid METAR format: Missing required METAR/SPECI identifier or station code\n",
      "          METAR: 202301050100 METAR VEPT 050100Z 25003KT 1100 MIFG SCT015 11/10 Q1022 NOSIG=...\n",
      "[WARNING] No station code found in METAR: 202301050100 METAR VEPT 050100Z 25003KT 1100 MIFG ...\n",
      "[WARNING] [Line 196] Invalid METAR format: Missing required METAR/SPECI identifier or station code\n",
      "          METAR: 202301050130 METAR VEPT 050130Z 26005KT 1100 MIFG SCT015 11/09 Q1022 NOSIG=...\n",
      "[WARNING] No station code found in METAR: 202301050130 METAR VEPT 050130Z 26005KT 1100 MIFG ...\n",
      "[WARNING] [Line 197] Invalid METAR format: Missing required METAR/SPECI identifier or station code\n",
      "          METAR: 202301050200 METAR VEPT 050200Z 27005KT 1100 R25/1700 MIFG SCT015 11/10 Q1023 NO...\n",
      "[WARNING] No station code found in METAR: 202301050200 METAR VEPT 050200Z 27005KT 1100 R25/1...\n",
      "[WARNING] [Line 198] Invalid METAR format: Missing required METAR/SPECI identifier or station code\n",
      "          METAR: 202301050230 METAR VEPT 050230Z 26004KT 1100 R25/1500 BR SCT010 BKN015 11/09 Q10...\n",
      "[WARNING] No station code found in METAR: 202301050230 METAR VEPT 050230Z 26004KT 1100 R25/1...\n",
      "[WARNING] [Line 199] Invalid METAR format: Missing required METAR/SPECI identifier or station code\n",
      "          METAR: 202301050300 METAR VEPT 050300Z 26004KT 1000 R25/1500 BR SCT010 BKN015 11/09 Q10...\n",
      "[WARNING] No station code found in METAR: 202301050300 METAR VEPT 050300Z 26004KT 1000 R25/1...\n",
      "[PROGRESS] Processed 200/1489 METARs...\n",
      "[WARNING] [Line 200] Invalid METAR format: Missing required METAR/SPECI identifier or station code\n",
      "          METAR: 202301050330 METAR VEPT 050330Z 28002KT 1000 R25/1400 BR SCT010 BKN015 12/09 Q10...\n",
      "[WARNING] No station code found in METAR: 202301050330 METAR VEPT 050330Z 28002KT 1000 R25/1...\n",
      "[WARNING] [Line 201] Invalid METAR format: Missing required METAR/SPECI identifier or station code\n",
      "          METAR: 202301050400 METAR VEPT 050400Z 21002KT 1000 R25/1300 BR SCT010 BKN015 12/09 Q10...\n",
      "[WARNING] No station code found in METAR: 202301050400 METAR VEPT 050400Z 21002KT 1000 R25/1...\n",
      "[WARNING] [Line 202] Invalid METAR format: Missing required METAR/SPECI identifier or station code\n",
      "          METAR: 202301050430 METAR VEPT 050430Z 25003KT 1200 R25/1300 BR SCT010 BKN015 12/09 Q10...\n",
      "[WARNING] No station code found in METAR: 202301050430 METAR VEPT 050430Z 25003KT 1200 R25/1...\n",
      "[WARNING] [Line 203] Invalid METAR format: Missing required METAR/SPECI identifier or station code\n",
      "          METAR: 202301050500 METAR VEPT 050500Z 31004KT 1200 R25/1300 BR SCT010 BKN015 12/09 Q10...\n",
      "[WARNING] No station code found in METAR: 202301050500 METAR VEPT 050500Z 31004KT 1200 R25/1...\n",
      "[WARNING] [Line 204] Invalid METAR format: Missing required METAR/SPECI identifier or station code\n",
      "          METAR: 202301050530 METAR VEPT 050530Z 29004KT 1200 R25/1200 BR SCT010 BKN015 12/09 Q10...\n",
      "[WARNING] No station code found in METAR: 202301050530 METAR VEPT 050530Z 29004KT 1200 R25/1...\n",
      "[WARNING] [Line 205] Invalid METAR format: Missing required METAR/SPECI identifier or station code\n",
      "          METAR: 202301050600 METAR VEPT 050600Z 29004KT 1200 R25/1200 BR SCT010 BKN015 12/09 Q10...\n",
      "[WARNING] No station code found in METAR: 202301050600 METAR VEPT 050600Z 29004KT 1200 R25/1...\n",
      "[WARNING] [Line 206] Invalid METAR format: Missing required METAR/SPECI identifier or station code\n",
      "          METAR: 202301050630 METAR VEPT 050630Z 28004KT 1200 R25/1200 BR SCT010 BKN015 13/09 Q10...\n",
      "[WARNING] No station code found in METAR: 202301050630 METAR VEPT 050630Z 28004KT 1200 R25/1...\n",
      "[WARNING] [Line 207] Invalid METAR format: Missing required METAR/SPECI identifier or station code\n",
      "          METAR: 202301050700 METAR VEPT 050700Z 29004KT 1200 R25/1200 BR SCT010 BKN016 13/09 Q10...\n",
      "[WARNING] No station code found in METAR: 202301050700 METAR VEPT 050700Z 29004KT 1200 R25/1...\n",
      "[WARNING] [Line 208] Invalid METAR format: Missing required METAR/SPECI identifier or station code\n",
      "          METAR: 202301050730 METAR VEPT 050730Z 35004KT 1200 R25/1200 BR SCT010 BKN016 13/09 Q10...\n",
      "[WARNING] No station code found in METAR: 202301050730 METAR VEPT 050730Z 35004KT 1200 R25/1...\n",
      "[WARNING] [Line 209] Invalid METAR format: Missing required METAR/SPECI identifier or station code\n",
      "          METAR: 202301050800 METAR VEPT 050800Z 30005KT 1300 R25/1300 BR SCT018 BKN100 13/09 Q10...\n",
      "[WARNING] No station code found in METAR: 202301050800 METAR VEPT 050800Z 30005KT 1300 R25/1...\n",
      "[WARNING] [Line 210] Invalid METAR format: Missing required METAR/SPECI identifier or station code\n",
      "          METAR: 202301050830 METAR VEPT 050830Z 29004KT 1300 R25/1300 BR SCT018 BKN100 13/10 Q10...\n",
      "[WARNING] No station code found in METAR: 202301050830 METAR VEPT 050830Z 29004KT 1300 R25/1...\n",
      "[WARNING] [Line 211] Invalid METAR format: Missing required METAR/SPECI identifier or station code\n",
      "          METAR: 202301050900 METAR VEPT 050900Z 32003KT 1500 R25/1400 BR SCT018 BKN100 13/09 Q10...\n",
      "[WARNING] No station code found in METAR: 202301050900 METAR VEPT 050900Z 32003KT 1500 R25/1...\n",
      "[WARNING] [Line 212] Invalid METAR format: Missing required METAR/SPECI identifier or station code\n",
      "          METAR: 202301050930 METAR VEPT 050930Z 30005KT 1500 R25/1400 BR SCT018 BKN100 13/10 Q10...\n",
      "[WARNING] No station code found in METAR: 202301050930 METAR VEPT 050930Z 30005KT 1500 R25/1...\n",
      "[WARNING] [Line 213] Invalid METAR format: Missing required METAR/SPECI identifier or station code\n",
      "          METAR: 202301051000 METAR VEPT 051000Z 26004KT 1500 R25/1400 BR SCT018 BKN100 13/09 Q10...\n",
      "[WARNING] No station code found in METAR: 202301051000 METAR VEPT 051000Z 26004KT 1500 R25/1...\n",
      "[WARNING] [Line 214] Invalid METAR format: Missing required METAR/SPECI identifier or station code\n",
      "          METAR: 202301051030 METAR VEPT 051030Z 26004KT 1500 R25/1500 BR SCT018 BKN100 13/09 Q10...\n",
      "[WARNING] No station code found in METAR: 202301051030 METAR VEPT 051030Z 26004KT 1500 R25/1...\n",
      "[WARNING] [Line 215] Invalid METAR format: Missing required METAR/SPECI identifier or station code\n",
      "          METAR: 202301051100 METAR VEPT 051100Z 25004KT 1500 R25/1700 BR SCT018 BKN100 12/09 Q10...\n",
      "[WARNING] No station code found in METAR: 202301051100 METAR VEPT 051100Z 25004KT 1500 R25/1...\n",
      "[WARNING] [Line 216] Invalid METAR format: Missing required METAR/SPECI identifier or station code\n",
      "          METAR: 202301051130 METAR VEPT 051130Z 30004KT 1600 BR FEW018 SCT100 12/09 Q1021 NOSIG=...\n",
      "[WARNING] No station code found in METAR: 202301051130 METAR VEPT 051130Z 30004KT 1600 BR FE...\n",
      "[WARNING] [Line 217] Invalid METAR format: Missing required METAR/SPECI identifier or station code\n",
      "          METAR: 202301051200 METAR VEPT 051200Z 26006KT 1600 BR FEW018 SCT100 12/09 Q1021 NOSIG=...\n",
      "[WARNING] No station code found in METAR: 202301051200 METAR VEPT 051200Z 26006KT 1600 BR FE...\n",
      "[WARNING] [Line 218] Invalid METAR format: Missing required METAR/SPECI identifier or station code\n",
      "          METAR: 202301051230 METAR VEPT 051230Z 29004KT 1600 BR FEW018 SCT100 12/09 Q1022 NOSIG=...\n",
      "[WARNING] No station code found in METAR: 202301051230 METAR VEPT 051230Z 29004KT 1600 BR FE...\n",
      "[WARNING] [Line 219] Invalid METAR format: Missing required METAR/SPECI identifier or station code\n",
      "          METAR: 202301051300 METAR VEPT 051300Z 26003KT 1600 BR FEW018 SCT100 12/09 Q1022 NOSIG=...\n",
      "[WARNING] No station code found in METAR: 202301051300 METAR VEPT 051300Z 26003KT 1600 BR FE...\n",
      "[WARNING] [Line 220] Invalid METAR format: Missing required METAR/SPECI identifier or station code\n",
      "          METAR: 202301051330 METAR VEPT 051330Z 29006KT 1600 BR FEW018 SCT100 11/09 Q1022 NOSIG=...\n",
      "[WARNING] No station code found in METAR: 202301051330 METAR VEPT 051330Z 29006KT 1600 BR FE...\n",
      "[WARNING] [Line 221] Invalid METAR format: Missing required METAR/SPECI identifier or station code\n",
      "          METAR: 202301051400 METAR VEPT 051400Z 30003KT 1600 BR FEW018 SCT100 11/09 Q1022 NOSIG=...\n",
      "[WARNING] No station code found in METAR: 202301051400 METAR VEPT 051400Z 30003KT 1600 BR FE...\n",
      "[WARNING] [Line 222] Invalid METAR format: Missing required METAR/SPECI identifier or station code\n",
      "          METAR: 202301051430 METAR VEPT 051430Z 29003KT 1600 BR FEW018 SCT100 11/09 Q1022 NOSIG=...\n",
      "[WARNING] No station code found in METAR: 202301051430 METAR VEPT 051430Z 29003KT 1600 BR FE...\n",
      "[WARNING] [Line 223] Invalid METAR format: Missing required METAR/SPECI identifier or station code\n",
      "          METAR: 202301051500 METAR VEPT 051500Z 26003KT 1600 BR FEW018 SCT100 11/08 Q1023 NOSIG=...\n",
      "[WARNING] No station code found in METAR: 202301051500 METAR VEPT 051500Z 26003KT 1600 BR FE...\n",
      "[WARNING] [Line 224] Invalid METAR format: Missing required METAR/SPECI identifier or station code\n",
      "          METAR: 202301051530 METAR VEPT 051530Z 27002KT 1600 BR FEW018 SCT100 10/08 Q1023 BECMG ...\n",
      "[WARNING] No station code found in METAR: 202301051530 METAR VEPT 051530Z 27002KT 1600 BR FE...\n",
      "[WARNING] [Line 225] Invalid METAR format: Missing required METAR/SPECI identifier or station code\n",
      "          METAR: 202301051600 METAR VEPT 051600Z 26002KT 1500 R25/2000 BR FEW018 SCT100 10/09 Q10...\n",
      "[WARNING] No station code found in METAR: 202301051600 METAR VEPT 051600Z 26002KT 1500 R25/2...\n",
      "[WARNING] [Line 226] Invalid METAR format: Missing required METAR/SPECI identifier or station code\n",
      "          METAR: 202301051630 METAR VEPT 051630Z 26003KT 1500 R25/2000 BR FEW018 SCT100 10/08 Q10...\n",
      "[WARNING] No station code found in METAR: 202301051630 METAR VEPT 051630Z 26003KT 1500 R25/2...\n",
      "[WARNING] [Line 227] Invalid METAR format: Missing required METAR/SPECI identifier or station code\n",
      "          METAR: 202301051700 METAR VEPT 051700Z 26002KT 1500 R25/2000 BR FEW100 10/08 Q1023 NOSI...\n",
      "[WARNING] No station code found in METAR: 202301051700 METAR VEPT 051700Z 26002KT 1500 R25/2...\n",
      "[WARNING] [Line 228] Invalid METAR format: Missing required METAR/SPECI identifier or station code\n",
      "          METAR: 202301051730 METAR VEPT 051730Z 27004KT 1500 R25/2000 BR FEW100 11/09 Q1023 NOSI...\n",
      "[WARNING] No station code found in METAR: 202301051730 METAR VEPT 051730Z 27004KT 1500 R25/2...\n",
      "[WARNING] [Line 229] Invalid METAR format: Missing required METAR/SPECI identifier or station code\n",
      "          METAR: 202301051800 METAR VEPT 051800Z 29003KT 1500 R25/2000 BR SCT018 11/09 Q1023 NOSI...\n",
      "[WARNING] No station code found in METAR: 202301051800 METAR VEPT 051800Z 29003KT 1500 R25/2...\n",
      "[WARNING] [Line 230] Invalid METAR format: Missing required METAR/SPECI identifier or station code\n",
      "          METAR: 202301051830 METAR VEPT 051830Z 27005KT 1500 R25/2000 BR SCT018 11/09 Q1022 NOSI...\n",
      "[WARNING] No station code found in METAR: 202301051830 METAR VEPT 051830Z 27005KT 1500 R25/2...\n",
      "[WARNING] [Line 231] Invalid METAR format: Missing required METAR/SPECI identifier or station code\n",
      "          METAR: 202301051900 METAR VEPT 051900Z 28003KT 1500 R25/2000 BR SCT018 11/09 Q1022 NOSI...\n",
      "[WARNING] No station code found in METAR: 202301051900 METAR VEPT 051900Z 28003KT 1500 R25/2...\n",
      "[WARNING] [Line 232] Invalid METAR format: Missing required METAR/SPECI identifier or station code\n",
      "          METAR: 202301051930 METAR VEPT 051930Z 28007KT 1500 R25/2000 BR SCT018 11/08 Q1022 NOSI...\n",
      "[WARNING] No station code found in METAR: 202301051930 METAR VEPT 051930Z 28007KT 1500 R25/2...\n",
      "[WARNING] [Line 233] Invalid METAR format: Missing required METAR/SPECI identifier or station code\n",
      "          METAR: 202301052000 METAR VEPT 052000Z 30005KT 1500 R25/2000 BR SCT018 10/08 Q1022 NOSI...\n",
      "[WARNING] No station code found in METAR: 202301052000 METAR VEPT 052000Z 30005KT 1500 R25/2...\n",
      "[WARNING] [Line 234] Invalid METAR format: Missing required METAR/SPECI identifier or station code\n",
      "          METAR: 202301052030 METAR VEPT 052030Z 29005KT 1400 R25/2000 BR SCT018 10/08 Q1022 NOSI...\n",
      "[WARNING] No station code found in METAR: 202301052030 METAR VEPT 052030Z 29005KT 1400 R25/2...\n",
      "[WARNING] [Line 235] Invalid METAR format: Missing required METAR/SPECI identifier or station code\n",
      "          METAR: 202301052100 METAR VEPT 052100Z 28005KT 1200 R25/2000 BR SCT018 10/08 Q1022 NOSI...\n",
      "[WARNING] No station code found in METAR: 202301052100 METAR VEPT 052100Z 28005KT 1200 R25/2...\n",
      "[WARNING] [Line 236] Invalid METAR format: Missing required METAR/SPECI identifier or station code\n",
      "          METAR: 202301052130 METAR VEPT 052130Z 27005KT 1200 R25/2000 BR SCT018 10/08 Q1021 NOSI...\n",
      "[WARNING] No station code found in METAR: 202301052130 METAR VEPT 052130Z 27005KT 1200 R25/2...\n",
      "[WARNING] [Line 237] Invalid METAR format: Missing required METAR/SPECI identifier or station code\n",
      "          METAR: 202301052200 METAR VEPT 052200Z 29006KT 1200 R25/2000 BR SCT018 10/08 Q1021 NOSI...\n",
      "[WARNING] No station code found in METAR: 202301052200 METAR VEPT 052200Z 29006KT 1200 R25/2...\n",
      "[WARNING] [Line 238] Invalid METAR format: Missing required METAR/SPECI identifier or station code\n",
      "          METAR: 202301052230 METAR VEPT 052230Z 27005KT 1200 R25/2000 BR SCT018 10/08 Q1021 NOSI...\n",
      "[WARNING] No station code found in METAR: 202301052230 METAR VEPT 052230Z 27005KT 1200 R25/2...\n",
      "[WARNING] [Line 239] Invalid METAR format: Missing required METAR/SPECI identifier or station code\n",
      "          METAR: 202301052300 METAR VEPT 052300Z 26006KT 1200 R25/2000 BR SCT018 09/08 Q1021 NOSI...\n",
      "[WARNING] No station code found in METAR: 202301052300 METAR VEPT 052300Z 26006KT 1200 R25/2...\n",
      "[WARNING] [Line 240] Invalid METAR format: Missing required METAR/SPECI identifier or station code\n",
      "          METAR: 202301052330 METAR VEPT 052330Z 27006KT 1200 R25/2000 BR SCT018 09/08 Q1021 NOSI...\n",
      "[WARNING] No station code found in METAR: 202301052330 METAR VEPT 052330Z 27006KT 1200 R25/2...\n",
      "[WARNING] [Line 241] Invalid METAR format: Missing required METAR/SPECI identifier or station code\n",
      "          METAR: 202301060000 METAR VEPT 060000Z 28006KT 1200 R25/2000 BR SCT018 09/08 Q1021 NOSI...\n",
      "[WARNING] No station code found in METAR: 202301060000 METAR VEPT 060000Z 28006KT 1200 R25/2...\n",
      "[WARNING] [Line 242] Invalid METAR format: Missing required METAR/SPECI identifier or station code\n",
      "          METAR: 202301060030 METAR VEPT 060030Z 29006KT 1200 R25/2000 BR SCT018 09/08 Q1022 NOSI...\n",
      "[WARNING] No station code found in METAR: 202301060030 METAR VEPT 060030Z 29006KT 1200 R25/2...\n",
      "[WARNING] [Line 243] Invalid METAR format: Missing required METAR/SPECI identifier or station code\n",
      "          METAR: 202301060100 METAR VEPT 060100Z 27005KT 1200 R25/2000 MIFG VV/// 09/07 Q1022 NOS...\n",
      "[WARNING] No station code found in METAR: 202301060100 METAR VEPT 060100Z 27005KT 1200 R25/2...\n",
      "[WARNING] [Line 244] Invalid METAR format: Missing required METAR/SPECI identifier or station code\n",
      "          METAR: 202301060130 METAR VEPT 060130Z 30005KT 1200 R25/2000 MIFG VV/// 09/07 Q1023 NOS...\n",
      "[WARNING] No station code found in METAR: 202301060130 METAR VEPT 060130Z 30005KT 1200 R25/2...\n",
      "[WARNING] [Line 245] Invalid METAR format: Missing required METAR/SPECI identifier or station code\n",
      "          METAR: 202301060200 METAR VEPT 060200Z 25005KT 1200 R25/1600 BR SCT018 BKN100 09/07 Q10...\n",
      "[WARNING] No station code found in METAR: 202301060200 METAR VEPT 060200Z 25005KT 1200 R25/1...\n",
      "[WARNING] [Line 246] Invalid METAR format: Missing required METAR/SPECI identifier or station code\n",
      "          METAR: 202301060230 METAR VEPT 060230Z 30005KT 1200 R25/1500 BR SCT018 BKN100 09/07 Q10...\n",
      "[WARNING] No station code found in METAR: 202301060230 METAR VEPT 060230Z 30005KT 1200 R25/1...\n",
      "[WARNING] [Line 247] Invalid METAR format: Missing required METAR/SPECI identifier or station code\n",
      "          METAR: 202301060300 METAR VEPT 060300Z 26007KT 1200 R25/1400 BR SCT018 BKN100 09/07 Q10...\n",
      "[WARNING] No station code found in METAR: 202301060300 METAR VEPT 060300Z 26007KT 1200 R25/1...\n",
      "[WARNING] [Line 248] Invalid METAR format: Missing required METAR/SPECI identifier or station code\n",
      "          METAR: 202301060330 METAR VEPT 060330Z 25007KT 1200 R25/1300 BR SCT018 BKN100 10/08 Q10...\n",
      "[WARNING] No station code found in METAR: 202301060330 METAR VEPT 060330Z 25007KT 1200 R25/1...\n",
      "[WARNING] [Line 249] Invalid METAR format: Missing required METAR/SPECI identifier or station code\n",
      "          METAR: 202301060400 METAR VEPT 060400Z 25005KT 1200 R25/1200 BR SCT018 BKN100 10/08 Q10...\n",
      "[WARNING] No station code found in METAR: 202301060400 METAR VEPT 060400Z 25005KT 1200 R25/1...\n",
      "[WARNING] [Line 250] Invalid METAR format: Missing required METAR/SPECI identifier or station code\n",
      "          METAR: 202301060430 METAR VEPT 060430Z 25006KT 1200 R25/1200 BR SCT018 BKN100 10/08 Q10...\n",
      "[WARNING] No station code found in METAR: 202301060430 METAR VEPT 060430Z 25006KT 1200 R25/1...\n",
      "[WARNING] [Line 251] Invalid METAR format: Missing required METAR/SPECI identifier or station code\n",
      "          METAR: 202301060500 METAR VEPT 060500Z 27007KT 1100 R25/1200 BR SCT018 BKN100 11/08 Q10...\n",
      "[WARNING] No station code found in METAR: 202301060500 METAR VEPT 060500Z 27007KT 1100 R25/1...\n",
      "[WARNING] [Line 252] Invalid METAR format: Missing required METAR/SPECI identifier or station code\n",
      "          METAR: 202301060530 METAR VEPT 060530Z 31006KT 1100 R25/1200 BR SCT018 BKN100 11/08 Q10...\n",
      "[WARNING] No station code found in METAR: 202301060530 METAR VEPT 060530Z 31006KT 1100 R25/1...\n",
      "[WARNING] [Line 253] Invalid METAR format: Missing required METAR/SPECI identifier or station code\n",
      "          METAR: 202301060600 METAR VEPT 060600Z 28006KT 1100 R25/1200 BR SCT018 BKN100 12/08 Q10...\n",
      "[WARNING] No station code found in METAR: 202301060600 METAR VEPT 060600Z 28006KT 1100 R25/1...\n",
      "[WARNING] [Line 254] Invalid METAR format: Missing required METAR/SPECI identifier or station code\n",
      "          METAR: 202301060630 METAR VEPT 060630Z 27006KT 1100 R25/1200 BR FEW018 SCT100 12/08 Q10...\n",
      "[WARNING] No station code found in METAR: 202301060630 METAR VEPT 060630Z 27006KT 1100 R25/1...\n",
      "[WARNING] [Line 255] Invalid METAR format: Missing required METAR/SPECI identifier or station code\n",
      "          METAR: 202301060700 METAR VEPT 060700Z 29008KT 1200 R25/1200 BR FEW018 SCT100 13/09 Q10...\n",
      "[WARNING] No station code found in METAR: 202301060700 METAR VEPT 060700Z 29008KT 1200 R25/1...\n",
      "[WARNING] [Line 256] Invalid METAR format: Missing required METAR/SPECI identifier or station code\n",
      "          METAR: 202301060730 METAR VEPT 060730Z 27005KT 1200 R25/1200 BR FEW018 SCT100 13/10 Q10...\n",
      "[WARNING] No station code found in METAR: 202301060730 METAR VEPT 060730Z 27005KT 1200 R25/1...\n",
      "[WARNING] [Line 257] Invalid METAR format: Missing required METAR/SPECI identifier or station code\n",
      "          METAR: 202301060800 METAR VEPT 060800Z 30004KT 1200 R25/1200 BR SCT015 SCT100 14/10 Q10...\n",
      "[WARNING] No station code found in METAR: 202301060800 METAR VEPT 060800Z 30004KT 1200 R25/1...\n",
      "[WARNING] [Line 258] Invalid METAR format: Missing required METAR/SPECI identifier or station code\n",
      "          METAR: 202301060830 METAR VEPT 060830Z 30004KT 1200 R25/1300 BR SCT015 14/11 Q1021 NOSI...\n",
      "[WARNING] No station code found in METAR: 202301060830 METAR VEPT 060830Z 30004KT 1200 R25/1...\n",
      "[WARNING] [Line 259] Invalid METAR format: Missing required METAR/SPECI identifier or station code\n",
      "          METAR: 202301060900 METAR VEPT 060900Z 31004KT 1200 R25/1300 BR SCT015 15/11 Q1020 BECM...\n",
      "[WARNING] No station code found in METAR: 202301060900 METAR VEPT 060900Z 31004KT 1200 R25/1...\n",
      "[WARNING] [Line 260] Invalid METAR format: Missing required METAR/SPECI identifier or station code\n",
      "          METAR: 202301060930 METAR VEPT 060930Z 30004KT 1600 BR SCT015 15/11 Q1020 NOSIG=...\n",
      "[WARNING] No station code found in METAR: 202301060930 METAR VEPT 060930Z 30004KT 1600 BR SC...\n",
      "[WARNING] [Line 261] Invalid METAR format: Missing required METAR/SPECI identifier or station code\n",
      "          METAR: 202301061000 METAR VEPT 061000Z 32004KT 1600 BR SCT015 15/11 Q1020 NOSIG=...\n",
      "[WARNING] No station code found in METAR: 202301061000 METAR VEPT 061000Z 32004KT 1600 BR SC...\n",
      "[WARNING] [Line 262] Invalid METAR format: Missing required METAR/SPECI identifier or station code\n",
      "          METAR: 202301061030 METAR VEPT 061030Z 32004KT 1600 BR SCT015 15/11 Q1020 NOSIG=...\n",
      "[WARNING] No station code found in METAR: 202301061030 METAR VEPT 061030Z 32004KT 1600 BR SC...\n",
      "[WARNING] [Line 263] Invalid METAR format: Missing required METAR/SPECI identifier or station code\n",
      "          METAR: 202301061100 METAR VEPT 061100Z 31004KT 1600 BR SCT015 14/11 Q1020 BECMG 1500 BR...\n",
      "[WARNING] No station code found in METAR: 202301061100 METAR VEPT 061100Z 31004KT 1600 BR SC...\n",
      "[WARNING] [Line 264] Invalid METAR format: Missing required METAR/SPECI identifier or station code\n",
      "          METAR: 202301061130 METAR VEPT 061130Z 32003KT 1500 R25/1900 BR FEW015 14/11 Q1020 NOSI...\n",
      "[WARNING] No station code found in METAR: 202301061130 METAR VEPT 061130Z 32003KT 1500 R25/1...\n",
      "[WARNING] [Line 265] Invalid METAR format: Missing required METAR/SPECI identifier or station code\n",
      "          METAR: 202301061200 METAR VEPT 061200Z 33003KT 1200 R25/2000 BR FEW015 14/10 Q1020 NOSI...\n",
      "[WARNING] No station code found in METAR: 202301061200 METAR VEPT 061200Z 33003KT 1200 R25/2...\n",
      "[WARNING] [Line 266] Invalid METAR format: Missing required METAR/SPECI identifier or station code\n",
      "          METAR: 202301061230 METAR VEPT 061230Z 33003KT 1200 R25/2000 BR NSC 13/10 Q1020 BECMG 1...\n",
      "[WARNING] No station code found in METAR: 202301061230 METAR VEPT 061230Z 33003KT 1200 R25/2...\n",
      "[WARNING] [Line 267] Invalid METAR format: Missing required METAR/SPECI identifier or station code\n",
      "          METAR: 202301061300 METAR VEPT 061300Z 32003KT 1500 R25/2000 BR NSC 13/10 Q1021 NOSIG=...\n",
      "[WARNING] No station code found in METAR: 202301061300 METAR VEPT 061300Z 32003KT 1500 R25/2...\n",
      "[WARNING] [Line 268] Invalid METAR format: Missing required METAR/SPECI identifier or station code\n",
      "          METAR: 202301061330 METAR VEPT 061330Z 31003KT 1500 R25/2000 BR NSC 13/10 Q1021 NOSIG=...\n",
      "[WARNING] No station code found in METAR: 202301061330 METAR VEPT 061330Z 31003KT 1500 R25/2...\n",
      "[WARNING] [Line 269] Invalid METAR format: Missing required METAR/SPECI identifier or station code\n",
      "          METAR: 202301061400 METAR VEPT 061400Z 32005KT 1500 R25/2000 BR NSC 13/10 Q1021 NOSIG=...\n",
      "[WARNING] No station code found in METAR: 202301061400 METAR VEPT 061400Z 32005KT 1500 R25/2...\n",
      "[WARNING] [Line 270] Invalid METAR format: Missing required METAR/SPECI identifier or station code\n",
      "          METAR: 202301061430 METAR VEPT 061430Z 31006KT 1500 R25/2000 BR NSC 12/10 Q1022 NOSIG=...\n",
      "[WARNING] No station code found in METAR: 202301061430 METAR VEPT 061430Z 31006KT 1500 R25/2...\n",
      "[WARNING] [Line 271] Invalid METAR format: Missing required METAR/SPECI identifier or station code\n",
      "          METAR: 202301061500 METAR VEPT 061500Z 29006KT 1200 R25/2000 BR NSC 12/10 Q1022 NOSIG=...\n",
      "[WARNING] No station code found in METAR: 202301061500 METAR VEPT 061500Z 29006KT 1200 R25/2...\n",
      "[WARNING] [Line 272] Invalid METAR format: Missing required METAR/SPECI identifier or station code\n",
      "          METAR: 202301061530 METAR VEPT 061530Z 31005KT 1200 R25/2000 BR NSC 12/10 Q1022 NOSIG=...\n",
      "[WARNING] No station code found in METAR: 202301061530 METAR VEPT 061530Z 31005KT 1200 R25/2...\n",
      "[WARNING] [Line 273] Invalid METAR format: Missing required METAR/SPECI identifier or station code\n",
      "          METAR: 202301061600 METAR VEPT 061600Z 31003KT 1200 R25/2000 BR NSC 12/10 Q1022 NOSIG=...\n",
      "[WARNING] No station code found in METAR: 202301061600 METAR VEPT 061600Z 31003KT 1200 R25/2...\n",
      "[WARNING] [Line 274] Invalid METAR format: Missing required METAR/SPECI identifier or station code\n",
      "          METAR: 202301061630 METAR VEPT 061630Z 27005KT 1200 R25/2000 BR NSC 11/09 Q1022 NOSIG=...\n",
      "[WARNING] No station code found in METAR: 202301061630 METAR VEPT 061630Z 27005KT 1200 R25/2...\n",
      "[WARNING] [Line 275] Invalid METAR format: Missing required METAR/SPECI identifier or station code\n",
      "          METAR: 202301061700 METAR VEPT 061700Z 28004KT 1200 R25/2000 BR NSC 10/09 Q1022 NOSIG=...\n",
      "[WARNING] No station code found in METAR: 202301061700 METAR VEPT 061700Z 28004KT 1200 R25/2...\n",
      "[WARNING] [Line 276] Invalid METAR format: Missing required METAR/SPECI identifier or station code\n",
      "          METAR: 202301061730 METAR VEPT 061730Z 29002KT 1000 R25/1800 MIFG NSC 10/09 Q1022 NOSIG...\n",
      "[WARNING] No station code found in METAR: 202301061730 METAR VEPT 061730Z 29002KT 1000 R25/1...\n",
      "[WARNING] [Line 277] Invalid METAR format: Missing required METAR/SPECI identifier or station code\n",
      "          METAR: 202301061800 METAR VEPT 061800Z 27003KT 1000 R25/1600 MIFG NSC 10/08 Q1022 BECMG...\n",
      "[WARNING] No station code found in METAR: 202301061800 METAR VEPT 061800Z 27003KT 1000 R25/1...\n",
      "[WARNING] [Line 278] Invalid METAR format: Missing required METAR/SPECI identifier or station code\n",
      "          METAR: 202301061830 METAR VEPT 061830Z 27002KT 0800 R25/1600 FG NSC 09/08 Q1021 NOSIG=...\n",
      "[WARNING] No station code found in METAR: 202301061830 METAR VEPT 061830Z 27002KT 0800 R25/1...\n",
      "[WARNING] [Line 279] Invalid METAR format: Missing required METAR/SPECI identifier or station code\n",
      "          METAR: 202301061900 METAR VEPT 061900Z 26003KT 0800 R25/1600 FG NSC 09/08 Q1021 NOSIG=...\n",
      "[WARNING] No station code found in METAR: 202301061900 METAR VEPT 061900Z 26003KT 0800 R25/1...\n",
      "[WARNING] [Line 280] Invalid METAR format: Missing required METAR/SPECI identifier or station code\n",
      "          METAR: 202301061930 METAR VEPT 061930Z 27003KT 0800 R25/1700 FG NSC 09/08 Q1021 NOSIG=...\n",
      "[WARNING] No station code found in METAR: 202301061930 METAR VEPT 061930Z 27003KT 0800 R25/1...\n",
      "[WARNING] [Line 281] Invalid METAR format: Missing required METAR/SPECI identifier or station code\n",
      "          METAR: 202301062000 METAR VEPT 062000Z 26003KT 0800 R25/1600 FG NSC 09/07 Q1021 NOSIG=...\n",
      "[WARNING] No station code found in METAR: 202301062000 METAR VEPT 062000Z 26003KT 0800 R25/1...\n",
      "[WARNING] [Line 282] Invalid METAR format: Missing required METAR/SPECI identifier or station code\n",
      "          METAR: 202301062030 METAR VEPT 062030Z 26004KT 0800 R25/1400 FG NSC 08/07 Q1021 NOSIG=...\n",
      "[WARNING] No station code found in METAR: 202301062030 METAR VEPT 062030Z 26004KT 0800 R25/1...\n",
      "[WARNING] [Line 283] Invalid METAR format: Missing required METAR/SPECI identifier or station code\n",
      "          METAR: 202301062100 METAR VEPT 062100Z 26004KT 0800 R25/1500 FG NSC 08/07 Q1020 NOSIG=...\n",
      "[WARNING] No station code found in METAR: 202301062100 METAR VEPT 062100Z 26004KT 0800 R25/1...\n",
      "[WARNING] [Line 284] Invalid METAR format: Missing required METAR/SPECI identifier or station code\n",
      "          METAR: 202301062130 METAR VEPT 062130Z 27004KT 0800 R25/1500 FG NSC 08/07 Q1020 NOSIG=...\n",
      "[WARNING] No station code found in METAR: 202301062130 METAR VEPT 062130Z 27004KT 0800 R25/1...\n",
      "[WARNING] [Line 285] Invalid METAR format: Missing required METAR/SPECI identifier or station code\n",
      "          METAR: 202301062200 METAR VEPT 062200Z 29004KT 0800 R25/1500 FG NSC 08/07 Q1020 NOSIG=...\n",
      "[WARNING] No station code found in METAR: 202301062200 METAR VEPT 062200Z 29004KT 0800 R25/1...\n",
      "[WARNING] [Line 286] Invalid METAR format: Missing required METAR/SPECI identifier or station code\n",
      "          METAR: 202301062230 METAR VEPT 062230Z 29006KT 0800 R25/1500 FG NSC 08/07 Q1020 NOSIG=...\n",
      "[WARNING] No station code found in METAR: 202301062230 METAR VEPT 062230Z 29006KT 0800 R25/1...\n",
      "[WARNING] [Line 287] Invalid METAR format: Missing required METAR/SPECI identifier or station code\n",
      "          METAR: 202301062300 METAR VEPT 062300Z 29004KT 0800 R25/1200 FG NSC 09/08 Q1020 NOSIG=...\n",
      "[WARNING] No station code found in METAR: 202301062300 METAR VEPT 062300Z 29004KT 0800 R25/1...\n",
      "[WARNING] [Line 288] Invalid METAR format: Missing required METAR/SPECI identifier or station code\n",
      "          METAR: 202301062330 METAR VEPT 062330Z 30003KT 0800 R25/1200 FG NSC 09/08 Q1020 NOSIG=...\n",
      "[WARNING] No station code found in METAR: 202301062330 METAR VEPT 062330Z 30003KT 0800 R25/1...\n",
      "[WARNING] [Line 289] Invalid METAR format: Missing required METAR/SPECI identifier or station code\n",
      "          METAR: 202301070000 METAR VEPT 070000Z 30004KT 0800 R25/1600 FG NSC 09/08 Q1020 NOSIG=...\n",
      "[WARNING] No station code found in METAR: 202301070000 METAR VEPT 070000Z 30004KT 0800 R25/1...\n",
      "[WARNING] [Line 290] Invalid METAR format: Missing required METAR/SPECI identifier or station code\n",
      "          METAR: 202301070030 METAR VEPT 070030Z 28005KT 0800 R25/1600 FG NSC 09/08 Q1020 NOSIG=...\n",
      "[WARNING] No station code found in METAR: 202301070030 METAR VEPT 070030Z 28005KT 0800 R25/1...\n",
      "[WARNING] [Line 291] Invalid METAR format: Missing required METAR/SPECI identifier or station code\n",
      "          METAR: 202301070100 METAR VEPT 070100Z 30004KT 0800 R25/2000 FG NSC 09/08 Q1021 NOSIG=...\n",
      "[WARNING] No station code found in METAR: 202301070100 METAR VEPT 070100Z 30004KT 0800 R25/2...\n",
      "[WARNING] [Line 292] Invalid METAR format: Missing required METAR/SPECI identifier or station code\n",
      "          METAR: 202301070130 METAR VEPT 070130Z 28005KT 0800 R25/2000 FG NSC 09/08 Q1021 NOSIG=...\n",
      "[WARNING] No station code found in METAR: 202301070130 METAR VEPT 070130Z 28005KT 0800 R25/2...\n",
      "[WARNING] [Line 293] Invalid METAR format: Missing required METAR/SPECI identifier or station code\n",
      "          METAR: 202301070200 METAR VEPT 070200Z 30004KT 1000 R25/1600 MIFG FEW010 SCT015 09/08 Q...\n",
      "[WARNING] No station code found in METAR: 202301070200 METAR VEPT 070200Z 30004KT 1000 R25/1...\n",
      "[WARNING] [Line 294] Invalid METAR format: Missing required METAR/SPECI identifier or station code\n",
      "          METAR: 202301070230 METAR VEPT 070230Z 28005KT 1000 R25/1400 MIFG FEW010 SCT015 09/08 Q...\n",
      "[WARNING] No station code found in METAR: 202301070230 METAR VEPT 070230Z 28005KT 1000 R25/1...\n",
      "[WARNING] [Line 295] Invalid METAR format: Missing required METAR/SPECI identifier or station code\n",
      "          METAR: 202301070300 METAR VEPT 070300Z 29004KT 1000 R25/1400 MIFG FEW010 SCT015 09/08 Q...\n",
      "[WARNING] No station code found in METAR: 202301070300 METAR VEPT 070300Z 29004KT 1000 R25/1...\n",
      "[WARNING] [Line 296] Invalid METAR format: Missing required METAR/SPECI identifier or station code\n",
      "          METAR: 202301070330 METAR VEPT 070330Z 27004KT 1000 R25/1300 MIFG FEW010 SCT015 09/08 Q...\n",
      "[WARNING] No station code found in METAR: 202301070330 METAR VEPT 070330Z 27004KT 1000 R25/1...\n",
      "[WARNING] [Line 297] Invalid METAR format: Missing required METAR/SPECI identifier or station code\n",
      "          METAR: 202301070400 METAR VEPT 070400Z 28004KT 1000 R25/1200 MIFG FEW010 SCT015 09/08 Q...\n",
      "[WARNING] No station code found in METAR: 202301070400 METAR VEPT 070400Z 28004KT 1000 R25/1...\n",
      "[WARNING] [Line 298] Invalid METAR format: Missing required METAR/SPECI identifier or station code\n",
      "          METAR: 202301070430 METAR VEPT 070430Z 27004KT 1000 R25/1200 MIFG FEW010 SCT015 10/08 Q...\n",
      "[WARNING] No station code found in METAR: 202301070430 METAR VEPT 070430Z 27004KT 1000 R25/1...\n",
      "[WARNING] [Line 299] Invalid METAR format: Missing required METAR/SPECI identifier or station code\n",
      "          METAR: 202301070500 METAR VEPT 070500Z 30004KT 1200 R25/1200 BR SCT015 10/08 Q1023 NOSI...\n",
      "[WARNING] No station code found in METAR: 202301070500 METAR VEPT 070500Z 30004KT 1200 R25/1...\n",
      "[PROGRESS] Processed 300/1489 METARs...\n",
      "[WARNING] [Line 300] Invalid METAR format: Missing required METAR/SPECI identifier or station code\n",
      "          METAR: 202301070530 METAR VEPT 070530Z 29003KT 1200 R25/1200 BR SCT015 10/08 Q1022 BECM...\n",
      "[WARNING] No station code found in METAR: 202301070530 METAR VEPT 070530Z 29003KT 1200 R25/1...\n",
      "[WARNING] [Line 301] Invalid METAR format: Missing required METAR/SPECI identifier or station code\n",
      "          METAR: 202301070600 METAR VEPT 070600Z 27004KT 1200 R25/1200 BR SCT015 11/09 Q1022 NOSI...\n",
      "[WARNING] No station code found in METAR: 202301070600 METAR VEPT 070600Z 27004KT 1200 R25/1...\n",
      "[WARNING] [Line 302] Invalid METAR format: Missing required METAR/SPECI identifier or station code\n",
      "          METAR: 202301070630 METAR VEPT 070630Z 30004KT 1200 R25/1200 BR SCT015 11/09 Q1021 NOSI...\n",
      "[WARNING] No station code found in METAR: 202301070630 METAR VEPT 070630Z 30004KT 1200 R25/1...\n",
      "[WARNING] [Line 303] Invalid METAR format: Missing required METAR/SPECI identifier or station code\n",
      "          METAR: 202301070700 METAR VEPT 070700Z 29004KT 1200 R25/1200 BR SCT015 12/09 Q1020 NOSI...\n",
      "[WARNING] No station code found in METAR: 202301070700 METAR VEPT 070700Z 29004KT 1200 R25/1...\n",
      "[WARNING] [Line 304] Invalid METAR format: Missing required METAR/SPECI identifier or station code\n",
      "          METAR: 202301070730 METAR VEPT 070730Z 31004KT 1200 R25/1200 BR SCT015 12/09 Q1020 BECM...\n",
      "[WARNING] No station code found in METAR: 202301070730 METAR VEPT 070730Z 31004KT 1200 R25/1...\n",
      "[WARNING] [Line 305] Invalid METAR format: Missing required METAR/SPECI identifier or station code\n",
      "          METAR: 202301070800 METAR VEPT 070800Z 31004KT 1500 R25/1200 BR SCT015 13/10 Q1019 NOSI...\n",
      "[WARNING] No station code found in METAR: 202301070800 METAR VEPT 070800Z 31004KT 1500 R25/1...\n",
      "[WARNING] [Line 306] Invalid METAR format: Missing required METAR/SPECI identifier or station code\n",
      "          METAR: 202301070830 METAR VEPT 070830Z 30004KT 1500 R25/1200 BR SCT015 14/10 Q1019 NOSI...\n",
      "[WARNING] No station code found in METAR: 202301070830 METAR VEPT 070830Z 30004KT 1500 R25/1...\n",
      "[WARNING] [Line 307] Invalid METAR format: Missing required METAR/SPECI identifier or station code\n",
      "          METAR: 202301070900 METAR VEPT 070900Z 31005KT 1500 R25/1200 BR SCT015 14/10 Q1018 NOSI...\n",
      "[WARNING] No station code found in METAR: 202301070900 METAR VEPT 070900Z 31005KT 1500 R25/1...\n",
      "[WARNING] [Line 308] Invalid METAR format: Missing required METAR/SPECI identifier or station code\n",
      "          METAR: 202301070930 METAR VEPT 070930Z 29004KT 1500 R25/1300 BR FEW015 14/10 Q1018 NOSI...\n",
      "[WARNING] No station code found in METAR: 202301070930 METAR VEPT 070930Z 29004KT 1500 R25/1...\n",
      "[WARNING] [Line 309] Invalid METAR format: Missing required METAR/SPECI identifier or station code\n",
      "          METAR: 202301071000 METAR VEPT 071000Z 31005KT 1400 R25/1200 BR NSC 14/11 Q1018 NOSIG=...\n",
      "[WARNING] No station code found in METAR: 202301071000 METAR VEPT 071000Z 31005KT 1400 R25/1...\n",
      "[WARNING] [Line 310] Invalid METAR format: Missing required METAR/SPECI identifier or station code\n",
      "          METAR: 202301071030 METAR VEPT 071030Z 33005KT 1400 R25/1300 BR NSC 14/10 Q1018 NOSIG=...\n",
      "[WARNING] No station code found in METAR: 202301071030 METAR VEPT 071030Z 33005KT 1400 R25/1...\n",
      "[WARNING] [Line 311] Invalid METAR format: Missing required METAR/SPECI identifier or station code\n",
      "          METAR: 202301071100 METAR VEPT 071100Z 31004KT 1400 R25/1500 BR NSC 13/10 Q1018 NOSIG=...\n",
      "[WARNING] No station code found in METAR: 202301071100 METAR VEPT 071100Z 31004KT 1400 R25/1...\n",
      "[WARNING] [Line 312] Invalid METAR format: Missing required METAR/SPECI identifier or station code\n",
      "          METAR: 202301071130 METAR VEPT 071130Z 31004KT 1300 R25/1800 BR NSC 13/10 Q1018 NOSIG=...\n",
      "[WARNING] No station code found in METAR: 202301071130 METAR VEPT 071130Z 31004KT 1300 R25/1...\n",
      "[WARNING] [Line 313] Invalid METAR format: Missing required METAR/SPECI identifier or station code\n",
      "          METAR: 202301071200 METAR VEPT 071200Z 33004KT 1300 R25/2000 BR NSC 13/10 Q1018 NOSIG=...\n",
      "[WARNING] No station code found in METAR: 202301071200 METAR VEPT 071200Z 33004KT 1300 R25/2...\n",
      "[WARNING] [Line 314] Invalid METAR format: Missing required METAR/SPECI identifier or station code\n",
      "          METAR: 202301071230 METAR VEPT 071230Z 34004KT 1400 R25/2000 BR NSC 12/09 Q1018 NOSIG=...\n",
      "[WARNING] No station code found in METAR: 202301071230 METAR VEPT 071230Z 34004KT 1400 R25/2...\n",
      "[WARNING] [Line 315] Invalid METAR format: Missing required METAR/SPECI identifier or station code\n",
      "          METAR: 202301071300 METAR VEPT 071300Z 33003KT 1400 R25/2000 BR NSC 12/09 Q1018 NOSIG=...\n",
      "[WARNING] No station code found in METAR: 202301071300 METAR VEPT 071300Z 33003KT 1400 R25/2...\n",
      "[WARNING] [Line 316] Invalid METAR format: Missing required METAR/SPECI identifier or station code\n",
      "          METAR: 202301071330 METAR VEPT 071330Z 34003KT 1400 R25/2000 BR NSC 12/09 Q1019 NOSIG=...\n",
      "[WARNING] No station code found in METAR: 202301071330 METAR VEPT 071330Z 34003KT 1400 R25/2...\n",
      "[WARNING] [Line 317] Invalid METAR format: Missing required METAR/SPECI identifier or station code\n",
      "          METAR: 202301071400 METAR VEPT 071400Z 34004KT 1400 R25/2000 BR NSC 11/09 Q1019 NOSIG=...\n",
      "[WARNING] No station code found in METAR: 202301071400 METAR VEPT 071400Z 34004KT 1400 R25/2...\n",
      "[WARNING] [Line 318] Invalid METAR format: Missing required METAR/SPECI identifier or station code\n",
      "          METAR: 202301071430 METAR VEPT 071430Z 30004KT 1400 R25/2000 BR NSC 11/09 Q1019 NOSIG=...\n",
      "[WARNING] No station code found in METAR: 202301071430 METAR VEPT 071430Z 30004KT 1400 R25/2...\n",
      "[WARNING] [Line 319] Invalid METAR format: Missing required METAR/SPECI identifier or station code\n",
      "          METAR: 202301071500 METAR VEPT 071500Z 32004KT 1400 R25/1900 BR NSC 10/09 Q1019 NOSIG=...\n",
      "[WARNING] No station code found in METAR: 202301071500 METAR VEPT 071500Z 32004KT 1400 R25/1...\n",
      "[WARNING] [Line 320] Invalid METAR format: Missing required METAR/SPECI identifier or station code\n",
      "          METAR: 202301071530 METAR VEPT 071530Z 30005KT 1400 R25/1800 BR NSC 10/08 Q1019 NOSIG=...\n",
      "[WARNING] No station code found in METAR: 202301071530 METAR VEPT 071530Z 30005KT 1400 R25/1...\n",
      "[WARNING] [Line 321] Invalid METAR format: Missing required METAR/SPECI identifier or station code\n",
      "          METAR: 202301071600 METAR VEPT 071600Z 32004KT 1400 R25/1800 BR NSC 10/08 Q1020 NOSIG=...\n",
      "[WARNING] No station code found in METAR: 202301071600 METAR VEPT 071600Z 32004KT 1400 R25/1...\n",
      "[WARNING] [Line 322] Invalid METAR format: Missing required METAR/SPECI identifier or station code\n",
      "          METAR: 202301071630 METAR VEPT 071630Z 32005KT 1400 R25/1800 BR NSC 10/08 Q1020 NOSIG=...\n",
      "[WARNING] No station code found in METAR: 202301071630 METAR VEPT 071630Z 32005KT 1400 R25/1...\n",
      "[WARNING] [Line 323] Invalid METAR format: Missing required METAR/SPECI identifier or station code\n",
      "          METAR: 202301071700 METAR VEPT 071700Z 31003KT 1400 R25/1700 BR NSC 09/08 Q1019 NOSIG=...\n",
      "[WARNING] No station code found in METAR: 202301071700 METAR VEPT 071700Z 31003KT 1400 R25/1...\n",
      "[WARNING] [Line 324] Invalid METAR format: Missing required METAR/SPECI identifier or station code\n",
      "          METAR: 202301071730 METAR VEPT 071730Z 31003KT 1200 R25/1500 BR NSC 09/08 Q1019 NOSIG=...\n",
      "[WARNING] No station code found in METAR: 202301071730 METAR VEPT 071730Z 31003KT 1200 R25/1...\n",
      "[WARNING] [Line 325] Invalid METAR format: Missing required METAR/SPECI identifier or station code\n",
      "          METAR: 202301071800 METAR VEPT 071800Z 32003KT 1000 R25/1300 MIFG NSC 09/08 Q1019 BECMG...\n",
      "[WARNING] No station code found in METAR: 202301071800 METAR VEPT 071800Z 32003KT 1000 R25/1...\n",
      "[WARNING] [Line 326] Invalid METAR format: Missing required METAR/SPECI identifier or station code\n",
      "          METAR: 202301071830 METAR VEPT 071830Z 29004KT 1000 R25/1200 MIFG NSC 09/08 Q1019 BECMG...\n",
      "[WARNING] No station code found in METAR: 202301071830 METAR VEPT 071830Z 29004KT 1000 R25/1...\n",
      "[WARNING] [Line 327] Invalid METAR format: Missing required METAR/SPECI identifier or station code\n",
      "          METAR: 202301071900 METAR VEPT 071900Z 29003KT 1000 R25/1200 MIFG NSC 09/08 Q1019 BECMG...\n",
      "[WARNING] No station code found in METAR: 202301071900 METAR VEPT 071900Z 29003KT 1000 R25/1...\n",
      "[WARNING] [Line 328] Invalid METAR format: Missing required METAR/SPECI identifier or station code\n",
      "          METAR: 202301071930 METAR VEPT 071930Z 30004KT 1000 R25/1200 MIFG NSC 09/08 Q1019 BECMG...\n",
      "[WARNING] No station code found in METAR: 202301071930 METAR VEPT 071930Z 30004KT 1000 R25/1...\n",
      "[WARNING] [Line 329] Invalid METAR format: Missing required METAR/SPECI identifier or station code\n",
      "          METAR: 202301072000 METAR VEPT 072000Z 31003KT 1000 R25/1200 MIFG NSC 09/08 Q1018 BECMG...\n",
      "[WARNING] No station code found in METAR: 202301072000 METAR VEPT 072000Z 31003KT 1000 R25/1...\n",
      "[WARNING] [Line 330] Invalid METAR format: Missing required METAR/SPECI identifier or station code\n",
      "          METAR: 202301072030 METAR VEPT 072030Z 28004KT 0800 R25/1200 MIFG NSC 09/08 Q1018 NOSIG...\n",
      "[WARNING] No station code found in METAR: 202301072030 METAR VEPT 072030Z 28004KT 0800 R25/1...\n",
      "[WARNING] [Line 331] Invalid METAR format: Missing required METAR/SPECI identifier or station code\n",
      "          METAR: 202301072100 METAR VEPT 072100Z 27004KT 0800 R25/1200 MIFG NSC 09/08 Q1018 NOSIG...\n",
      "[WARNING] No station code found in METAR: 202301072100 METAR VEPT 072100Z 27004KT 0800 R25/1...\n",
      "[WARNING] [Line 332] Invalid METAR format: Missing required METAR/SPECI identifier or station code\n",
      "          METAR: 202301072130 METAR VEPT 072130Z 30004KT 0800 R25/1200 MIFG VV/// 09/08 Q1018 NOS...\n",
      "[WARNING] No station code found in METAR: 202301072130 METAR VEPT 072130Z 30004KT 0800 R25/1...\n",
      "[WARNING] [Line 333] Invalid METAR format: Missing required METAR/SPECI identifier or station code\n",
      "          METAR: 202301072200 METAR VEPT 072200Z 29002KT 0800 R25/1400 MIFG VV/// 09/08 Q1017 NOS...\n",
      "[WARNING] No station code found in METAR: 202301072200 METAR VEPT 072200Z 29002KT 0800 R25/1...\n",
      "[WARNING] [Line 334] Invalid METAR format: Missing required METAR/SPECI identifier or station code\n",
      "          METAR: 202301072230 METAR VEPT 072230Z 30002KT 0800 R25/1400 MIFG VV/// 09/08 Q1017 NOS...\n",
      "[WARNING] No station code found in METAR: 202301072230 METAR VEPT 072230Z 30002KT 0800 R25/1...\n",
      "[WARNING] [Line 335] Invalid METAR format: Missing required METAR/SPECI identifier or station code\n",
      "          METAR: 202301072300 METAR VEPT 072300Z 28002KT 0800 R25/1600 MIFG VV/// 09/08 Q1017 NOS...\n",
      "[WARNING] No station code found in METAR: 202301072300 METAR VEPT 072300Z 28002KT 0800 R25/1...\n",
      "[WARNING] [Line 336] Invalid METAR format: Missing required METAR/SPECI identifier or station code\n",
      "          METAR: 202301072330 METAR VEPT 072330Z 29004KT 0800 R25/1600 MIFG VV/// 09/08 Q1018 NOS...\n",
      "[WARNING] No station code found in METAR: 202301072330 METAR VEPT 072330Z 29004KT 0800 R25/1...\n",
      "[WARNING] [Line 337] Invalid METAR format: Missing required METAR/SPECI identifier or station code\n",
      "          METAR: 202301080000 METAR VEPT 080000Z 27002KT 0800 R25/1700 MIFG VV/// 09/08 Q1018 NOS...\n",
      "[WARNING] No station code found in METAR: 202301080000 METAR VEPT 080000Z 27002KT 0800 R25/1...\n",
      "[WARNING] [Line 338] Invalid METAR format: Missing required METAR/SPECI identifier or station code\n",
      "          METAR: 202301080030 METAR VEPT 080030Z 28004KT 0700 R25/1700 FG VV/// 09/08 Q1018 BECMG...\n",
      "[WARNING] No station code found in METAR: 202301080030 METAR VEPT 080030Z 28004KT 0700 R25/1...\n",
      "[WARNING] [Line 339] Invalid METAR format: Missing required METAR/SPECI identifier or station code\n",
      "          METAR: 202301080100 METAR VEPT 080100Z 29004KT 0600 R25/1700 FG VV/// 08/07 Q1019 NOSIG...\n",
      "[WARNING] No station code found in METAR: 202301080100 METAR VEPT 080100Z 29004KT 0600 R25/1...\n",
      "[WARNING] [Line 340] Invalid METAR format: Missing required METAR/SPECI identifier or station code\n",
      "          METAR: 202301080130 METAR VEPT 080130Z 31004KT 0600 R25/1500 FG VV/// 09/08 Q1019 NOSIG...\n",
      "[WARNING] No station code found in METAR: 202301080130 METAR VEPT 080130Z 31004KT 0600 R25/1...\n",
      "[WARNING] [Line 341] Invalid METAR format: Missing required METAR/SPECI identifier or station code\n",
      "          METAR: 202301080200 METAR VEPT 080200Z 29005KT 0600 R25/1300 FG VV/// 09/08 Q1020 NOSIG...\n",
      "[WARNING] No station code found in METAR: 202301080200 METAR VEPT 080200Z 29005KT 0600 R25/1...\n",
      "[WARNING] [Line 342] Invalid METAR format: Missing required METAR/SPECI identifier or station code\n",
      "          METAR: 202301080230 METAR VEPT 080230Z 25004KT 0700 R25/1100 FG VV/// 09/08 Q1020 BECMG...\n",
      "[WARNING] No station code found in METAR: 202301080230 METAR VEPT 080230Z 25004KT 0700 R25/1...\n",
      "[WARNING] [Line 343] Invalid METAR format: Missing required METAR/SPECI identifier or station code\n",
      "          METAR: 202301080300 METAR VEPT 080300Z 26005KT 0700 R25/1100 FG VV/// 09/08 Q1020 BECMG...\n",
      "[WARNING] No station code found in METAR: 202301080300 METAR VEPT 080300Z 26005KT 0700 R25/1...\n",
      "[WARNING] [Line 344] Invalid METAR format: Missing required METAR/SPECI identifier or station code\n",
      "          METAR: 202301080330 METAR VEPT 080330Z 27005KT 0700 R25/1050 FG VV/// 09/08 Q1021 BECMG...\n",
      "[WARNING] No station code found in METAR: 202301080330 METAR VEPT 080330Z 27005KT 0700 R25/1...\n",
      "[WARNING] [Line 345] Invalid METAR format: Missing required METAR/SPECI identifier or station code\n",
      "          METAR: 202301080400 METAR VEPT 080400Z 26004KT 0700 R25/1000 FG VV/// 09/08 Q1021 NOSIG...\n",
      "[WARNING] No station code found in METAR: 202301080400 METAR VEPT 080400Z 26004KT 0700 R25/1...\n",
      "[WARNING] [Line 346] Invalid METAR format: Missing required METAR/SPECI identifier or station code\n",
      "          METAR: 202301080430 METAR VEPT 080430Z 34004KT 0700 R25/1050 FG VV/// 10/08 Q1021 BECMG...\n",
      "[WARNING] No station code found in METAR: 202301080430 METAR VEPT 080430Z 34004KT 0700 R25/1...\n",
      "[WARNING] [Line 347] Invalid METAR format: Missing required METAR/SPECI identifier or station code\n",
      "          METAR: 202301080500 METAR VEPT 080500Z 29004KT 0800 R25/1000 FG VV/// 10/08 Q1021 NOSIG...\n",
      "[WARNING] No station code found in METAR: 202301080500 METAR VEPT 080500Z 29004KT 0800 R25/1...\n",
      "[WARNING] [Line 348] Invalid METAR format: Missing required METAR/SPECI identifier or station code\n",
      "          METAR: 202301080530 METAR VEPT 080530Z 29003KT 0900 R25/1000 FG VV/// 10/09 Q1021 NOSIG...\n",
      "[WARNING] No station code found in METAR: 202301080530 METAR VEPT 080530Z 29003KT 0900 R25/1...\n",
      "[WARNING] [Line 349] Invalid METAR format: Missing required METAR/SPECI identifier or station code\n",
      "          METAR: 202301080600 METAR VEPT 080600Z 27003KT 1000 R25/1000 MIFG SCT010 BKN015 11/09 Q...\n",
      "[WARNING] No station code found in METAR: 202301080600 METAR VEPT 080600Z 27003KT 1000 R25/1...\n",
      "[WARNING] [Line 350] Invalid METAR format: Missing required METAR/SPECI identifier or station code\n",
      "          METAR: 202301080630 METAR VEPT 080630Z 30004KT 1000 R25/1000 MIFG SCT010 BKN015 11/09 Q...\n",
      "[WARNING] No station code found in METAR: 202301080630 METAR VEPT 080630Z 30004KT 1000 R25/1...\n",
      "[WARNING] [Line 351] Invalid METAR format: Missing required METAR/SPECI identifier or station code\n",
      "          METAR: 202301080700 METAR VEPT 080700Z 35003KT 1000 R25/1000 MIFG FEW010 SCT018 12/09 Q...\n",
      "[WARNING] No station code found in METAR: 202301080700 METAR VEPT 080700Z 35003KT 1000 R25/1...\n",
      "[WARNING] [Line 352] Invalid METAR format: Missing required METAR/SPECI identifier or station code\n",
      "          METAR: 202301080730 METAR VEPT 080730Z 32003KT 1000 R25/1100 BR SCT015 13/10 Q1019 NOSI...\n",
      "[WARNING] No station code found in METAR: 202301080730 METAR VEPT 080730Z 32003KT 1000 R25/1...\n",
      "[WARNING] [Line 353] Invalid METAR format: Missing required METAR/SPECI identifier or station code\n",
      "          METAR: 202301080800 METAR VEPT 080800Z 29004KT 1200 R25/1150 BR SCT015 14/10 Q1018 NOSI...\n",
      "[WARNING] No station code found in METAR: 202301080800 METAR VEPT 080800Z 29004KT 1200 R25/1...\n",
      "[WARNING] [Line 354] Invalid METAR format: Missing required METAR/SPECI identifier or station code\n",
      "          METAR: 202301080830 METAR VEPT 080830Z 31004KT 1200 R25/1200 BR NSC 15/11 Q1018 NOSIG=...\n",
      "[WARNING] No station code found in METAR: 202301080830 METAR VEPT 080830Z 31004KT 1200 R25/1...\n",
      "[WARNING] [Line 355] Invalid METAR format: Missing required METAR/SPECI identifier or station code\n",
      "          METAR: 202301080900 METAR VEPT 080900Z 28005KT 1200 R25/1200 BR NSC 15/11 Q1017 NOSIG=...\n",
      "[WARNING] No station code found in METAR: 202301080900 METAR VEPT 080900Z 28005KT 1200 R25/1...\n",
      "[WARNING] [Line 356] Invalid METAR format: Missing required METAR/SPECI identifier or station code\n",
      "          METAR: 202301080930 METAR VEPT 080930Z 30004KT 1200 R25/1200 FU NSC 16/11 Q1017 BECMG 1...\n",
      "[WARNING] No station code found in METAR: 202301080930 METAR VEPT 080930Z 30004KT 1200 R25/1...\n",
      "[WARNING] [Line 357] Invalid METAR format: Missing required METAR/SPECI identifier or station code\n",
      "          METAR: 202301081000 METAR VEPT 081000Z 26005KT 1500 R25/1300 FU NSC 16/11 Q1017 NOSIG=...\n",
      "[WARNING] No station code found in METAR: 202301081000 METAR VEPT 081000Z 26005KT 1500 R25/1...\n",
      "[WARNING] [Line 358] Invalid METAR format: Missing required METAR/SPECI identifier or station code\n",
      "          METAR: 202301081030 METAR VEPT 081030Z 26004KT 1500 R25/1300 FU NSC 16/11 Q1017 NOSIG=...\n",
      "[WARNING] No station code found in METAR: 202301081030 METAR VEPT 081030Z 26004KT 1500 R25/1...\n",
      "[WARNING] [Line 359] Invalid METAR format: Missing required METAR/SPECI identifier or station code\n",
      "          METAR: 202301081100 METAR VEPT 081100Z 29005KT 1500 R25/1500 FU NSC 15/11 Q1017 NOSIG=...\n",
      "[WARNING] No station code found in METAR: 202301081100 METAR VEPT 081100Z 29005KT 1500 R25/1...\n",
      "[WARNING] [Line 360] Invalid METAR format: Missing required METAR/SPECI identifier or station code\n",
      "          METAR: 202301081130 METAR VEPT 081130Z 31003KT 1300 R25/1800 BR NSC 15/11 Q1017 NOSIG=...\n",
      "[WARNING] No station code found in METAR: 202301081130 METAR VEPT 081130Z 31003KT 1300 R25/1...\n",
      "[WARNING] [Line 361] Invalid METAR format: Missing required METAR/SPECI identifier or station code\n",
      "          METAR: 202301081200 METAR VEPT 081200Z 31004KT 1300 R25/2000 BR NSC 14/11 Q1017 NOSIG=...\n",
      "[WARNING] No station code found in METAR: 202301081200 METAR VEPT 081200Z 31004KT 1300 R25/2...\n",
      "[WARNING] [Line 362] Invalid METAR format: Missing required METAR/SPECI identifier or station code\n",
      "          METAR: 202301081230 METAR VEPT 081230Z 30003KT 1200 R25/2000 BR NSC 14/11 Q1017 NOSIG=...\n",
      "[WARNING] No station code found in METAR: 202301081230 METAR VEPT 081230Z 30003KT 1200 R25/2...\n",
      "[WARNING] [Line 363] Invalid METAR format: Missing required METAR/SPECI identifier or station code\n",
      "          METAR: 202301081300 METAR VEPT 081300Z 33003KT 1200 R25/2000 BR NSC 13/10 Q1018 NOSIG=...\n",
      "[WARNING] No station code found in METAR: 202301081300 METAR VEPT 081300Z 33003KT 1200 R25/2...\n",
      "[WARNING] [Line 364] Invalid METAR format: Missing required METAR/SPECI identifier or station code\n",
      "          METAR: 202301081330 METAR VEPT 081330Z 31003KT 1200 R25/1900 BR NSC 13/10 Q1018 NOSIG=...\n",
      "[WARNING] No station code found in METAR: 202301081330 METAR VEPT 081330Z 31003KT 1200 R25/1...\n",
      "[WARNING] [Line 365] Invalid METAR format: Missing required METAR/SPECI identifier or station code\n",
      "          METAR: 202301081400 METAR VEPT 081400Z 35002KT 1200 R25/1900 BR NSC 12/10 Q1018 NOSIG=...\n",
      "[WARNING] No station code found in METAR: 202301081400 METAR VEPT 081400Z 35002KT 1200 R25/1...\n",
      "[WARNING] [Line 366] Invalid METAR format: Missing required METAR/SPECI identifier or station code\n",
      "          METAR: 202301081430 METAR VEPT 081430Z 00000KT 1200 R25/1700 BR NSC 12/09 Q1019 NOSIG=...\n",
      "[WARNING] No station code found in METAR: 202301081430 METAR VEPT 081430Z 00000KT 1200 R25/1...\n",
      "[WARNING] [Line 367] Invalid METAR format: Missing required METAR/SPECI identifier or station code\n",
      "          METAR: 202301081500 METAR VEPT 081500Z 00000KT 1200 R25/1600 BR NSC 11/09 Q1019 NOSIG=...\n",
      "[WARNING] No station code found in METAR: 202301081500 METAR VEPT 081500Z 00000KT 1200 R25/1...\n",
      "[WARNING] [Line 368] Invalid METAR format: Missing required METAR/SPECI identifier or station code\n",
      "          METAR: 202301081530 METAR VEPT 081530Z 00000KT 1200 R25/1600 BR NSC 11/10 Q1019 NOSIG=...\n",
      "[WARNING] No station code found in METAR: 202301081530 METAR VEPT 081530Z 00000KT 1200 R25/1...\n",
      "[WARNING] [Line 369] Invalid METAR format: Missing required METAR/SPECI identifier or station code\n",
      "          METAR: 202301081600 METAR VEPT 081600Z 00000KT 1000 R25/1200 MIFG NSC 11/09 Q1019 BECMG...\n",
      "[WARNING] No station code found in METAR: 202301081600 METAR VEPT 081600Z 00000KT 1000 R25/1...\n",
      "[WARNING] [Line 370] Invalid METAR format: Missing required METAR/SPECI identifier or station code\n",
      "          METAR: 202301081630 METAR VEPT 081630Z 00000KT 1000 R25/1400 MIFG NSC 10/09 Q1019 NOSIG...\n",
      "[WARNING] No station code found in METAR: 202301081630 METAR VEPT 081630Z 00000KT 1000 R25/1...\n",
      "[WARNING] [Line 371] Invalid METAR format: Missing required METAR/SPECI identifier or station code\n",
      "          METAR: 202301081700 METAR VEPT 081700Z 00000KT 1000 R25/1200 MIFG NSC 09/08 Q1020 NOSIG...\n",
      "[WARNING] No station code found in METAR: 202301081700 METAR VEPT 081700Z 00000KT 1000 R25/1...\n",
      "[WARNING] [Line 372] Invalid METAR format: Missing required METAR/SPECI identifier or station code\n",
      "          METAR: 202301081730 METAR VEPT 081730Z 00000KT 1000 R25/1200 MIFG NSC 09/07 Q1019 NOSIG...\n",
      "[WARNING] No station code found in METAR: 202301081730 METAR VEPT 081730Z 00000KT 1000 R25/1...\n",
      "[WARNING] [Line 373] Invalid METAR format: Missing required METAR/SPECI identifier or station code\n",
      "          METAR: 202301081800 METAR VEPT 081800Z 00000KT 1200 R25/1200 BR NSC 08/07 Q1019 NOSIG=...\n",
      "[WARNING] No station code found in METAR: 202301081800 METAR VEPT 081800Z 00000KT 1200 R25/1...\n",
      "[WARNING] [Line 374] Invalid METAR format: Missing required METAR/SPECI identifier or station code\n",
      "          METAR: 202301081830 METAR VEPT 081830Z 00000KT 1200 R25/1200 BR NSC 08/06 Q1019 NOSIG=...\n",
      "[WARNING] No station code found in METAR: 202301081830 METAR VEPT 081830Z 00000KT 1200 R25/1...\n",
      "[WARNING] [Line 375] Invalid METAR format: Missing required METAR/SPECI identifier or station code\n",
      "          METAR: 202301081900 METAR VEPT 081900Z 00000KT 1100 R25/1200 BR NSC 07/06 Q1019 NOSIG=...\n",
      "[WARNING] No station code found in METAR: 202301081900 METAR VEPT 081900Z 00000KT 1100 R25/1...\n",
      "[WARNING] [Line 376] Invalid METAR format: Missing required METAR/SPECI identifier or station code\n",
      "          METAR: 202301081930 METAR VEPT 081930Z 00000KT 1100 R25/1200 BR NSC 07/05 Q1019 NOSIG=...\n",
      "[WARNING] No station code found in METAR: 202301081930 METAR VEPT 081930Z 00000KT 1100 R25/1...\n",
      "[WARNING] [Line 377] Invalid METAR format: Missing required METAR/SPECI identifier or station code\n",
      "          METAR: 202301082000 METAR VEPT 082000Z 00000KT 1100 R25/1100 BR NSC 07/05 Q1019 NOSIG=...\n",
      "[WARNING] No station code found in METAR: 202301082000 METAR VEPT 082000Z 00000KT 1100 R25/1...\n",
      "[WARNING] [Line 378] Invalid METAR format: Missing required METAR/SPECI identifier or station code\n",
      "          METAR: 202301082030 METAR VEPT 082030Z 00000KT 1000 R25/0725 MIFG NSC 08/08 Q1018 BECMG...\n",
      "[WARNING] No station code found in METAR: 202301082030 METAR VEPT 082030Z 00000KT 1000 R25/0...\n",
      "[WARNING] [Line 379] Invalid METAR format: Missing required METAR/SPECI identifier or station code\n",
      "          METAR: 202301082100 METAR VEPT 082100Z 00000KT 0800 R25/0500 MIFG NSC 09/08 Q1018 NOSIG...\n",
      "[WARNING] No station code found in METAR: 202301082100 METAR VEPT 082100Z 00000KT 0800 R25/0...\n",
      "[WARNING] [Line 380] Invalid METAR format: Missing required METAR/SPECI identifier or station code\n",
      "          METAR: 202301082130 METAR VEPT 082130Z 36003KT 0800 R25/0500 FG NSC 08/07 Q1018 NOSIG=...\n",
      "[WARNING] No station code found in METAR: 202301082130 METAR VEPT 082130Z 36003KT 0800 R25/0...\n",
      "[WARNING] [Line 381] Invalid METAR format: Missing required METAR/SPECI identifier or station code\n",
      "          METAR: 202301082200 METAR VEPT 082200Z 00000KT 0700 R25/0250 FG NSC 08/07 Q1018 BECMG 0...\n",
      "[WARNING] No station code found in METAR: 202301082200 METAR VEPT 082200Z 00000KT 0700 R25/0...\n",
      "[WARNING] [Line 382] Invalid METAR format: Missing required METAR/SPECI identifier or station code\n",
      "          METAR: 202301082230 METAR VEPT 082230Z 00000KT 0500 R25/0275 FG NSC 08/07 Q1018 NOSIG=...\n",
      "[WARNING] No station code found in METAR: 202301082230 METAR VEPT 082230Z 00000KT 0500 R25/0...\n",
      "[WARNING] [Line 383] Invalid METAR format: Missing required METAR/SPECI identifier or station code\n",
      "          METAR: 202301082300 METAR VEPT 082300Z 00000KT 0500 R25/0350 FG NSC 08/07 Q1018 NOSIG=...\n",
      "[WARNING] No station code found in METAR: 202301082300 METAR VEPT 082300Z 00000KT 0500 R25/0...\n",
      "[WARNING] [Line 384] Invalid METAR format: Missing required METAR/SPECI identifier or station code\n",
      "          METAR: 202301082330 METAR VEPT 082330Z 00000KT 0100 R25/0225 FG NSC 08/07 Q1018 NOSIG=...\n",
      "[WARNING] No station code found in METAR: 202301082330 METAR VEPT 082330Z 00000KT 0100 R25/0...\n",
      "[WARNING] [Line 385] Invalid METAR format: Missing required METAR/SPECI identifier or station code\n",
      "          METAR: 202301090000 METAR VEPT 090000Z 00000KT 0100 R25/0225 FG NSC 08/07 Q1019 NOSIG=...\n",
      "[WARNING] No station code found in METAR: 202301090000 METAR VEPT 090000Z 00000KT 0100 R25/0...\n",
      "[WARNING] [Line 386] Invalid METAR format: Missing required METAR/SPECI identifier or station code\n",
      "          METAR: 202301090030 METAR VEPT 090030Z 00000KT 0200 R25/0300 FG NSC 08/07 Q1019 NOSIG=...\n",
      "[WARNING] No station code found in METAR: 202301090030 METAR VEPT 090030Z 00000KT 0200 R25/0...\n",
      "[WARNING] [Line 387] Invalid METAR format: Missing required METAR/SPECI identifier or station code\n",
      "          METAR: 202301090100 METAR VEPT 090100Z 00000KT 0200 R25/0350 FG NSC 08/07 Q1020 NOSIG=...\n",
      "[WARNING] No station code found in METAR: 202301090100 METAR VEPT 090100Z 00000KT 0200 R25/0...\n",
      "[WARNING] [Line 388] Invalid METAR format: Missing required METAR/SPECI identifier or station code\n",
      "          METAR: 202301090130 METAR VEPT 090130Z 00000KT 0200 R25/0325 FG NSC 08/07 Q1020 NOSIG=...\n",
      "[WARNING] No station code found in METAR: 202301090130 METAR VEPT 090130Z 00000KT 0200 R25/0...\n",
      "[WARNING] [Line 389] Invalid METAR format: Missing required METAR/SPECI identifier or station code\n",
      "          METAR: 202301090200 METAR VEPT 090200Z 00000KT 0100 R25/0325 FG VV/// 08/07 Q1020 NOSIG...\n",
      "[WARNING] No station code found in METAR: 202301090200 METAR VEPT 090200Z 00000KT 0100 R25/0...\n",
      "[WARNING] [Line 390] Invalid METAR format: Missing required METAR/SPECI identifier or station code\n",
      "          METAR: 202301090230 METAR VEPT 090230Z 00000KT 0050 R25/0300 FG VV/// 08/07 Q1021 NOSIG...\n",
      "[WARNING] No station code found in METAR: 202301090230 METAR VEPT 090230Z 00000KT 0050 R25/0...\n",
      "[WARNING] [Line 391] Invalid METAR format: Missing required METAR/SPECI identifier or station code\n",
      "          METAR: 202301090300 METAR VEPT 090300Z 00000KT 0050 R25/0225 FG VV/// 08/07 Q1022 NOSIG...\n",
      "[WARNING] No station code found in METAR: 202301090300 METAR VEPT 090300Z 00000KT 0050 R25/0...\n",
      "[WARNING] [Line 392] Invalid METAR format: Missing required METAR/SPECI identifier or station code\n",
      "          METAR: 202301090330 METAR VEPT 090330Z 00000KT 0050 R25/0300 FG VV/// 08/07 Q1022 NOSIG...\n",
      "[WARNING] No station code found in METAR: 202301090330 METAR VEPT 090330Z 00000KT 0050 R25/0...\n",
      "[WARNING] [Line 393] Invalid METAR format: Missing required METAR/SPECI identifier or station code\n",
      "          METAR: 202301090400 METAR VEPT 090400Z 00000KT 0100 R25/0400 FG VV/// 08/08 Q1022 NOSIG...\n",
      "[WARNING] No station code found in METAR: 202301090400 METAR VEPT 090400Z 00000KT 0100 R25/0...\n",
      "[WARNING] [Line 394] Invalid METAR format: Missing required METAR/SPECI identifier or station code\n",
      "          METAR: 202301090430 METAR VEPT 090430Z 28005KT 0150 R25/0500 FG VV/// 09/08 Q1022 NOSIG...\n",
      "[WARNING] No station code found in METAR: 202301090430 METAR VEPT 090430Z 28005KT 0150 R25/0...\n",
      "[WARNING] [Line 395] Invalid METAR format: Missing required METAR/SPECI identifier or station code\n",
      "          METAR: 202301090500 METAR VEPT 090500Z 27004KT 0300 R25/0700 FG VV/// 09/08 Q1022 NOSIG...\n",
      "[WARNING] No station code found in METAR: 202301090500 METAR VEPT 090500Z 27004KT 0300 R25/0...\n",
      "[WARNING] [Line 396] Invalid METAR format: Missing required METAR/SPECI identifier or station code\n",
      "          METAR: 202301090530 METAR VEPT 090530Z 34003KT 0300 R25/0800 FG VV/// 10/09 Q1022 NOSIG...\n",
      "[WARNING] No station code found in METAR: 202301090530 METAR VEPT 090530Z 34003KT 0300 R25/0...\n",
      "[WARNING] [Line 397] Invalid METAR format: Missing required METAR/SPECI identifier or station code\n",
      "          METAR: 202301090600 METAR VEPT 090600Z 34004KT 0400 R25/0800 FG VV/// 10/09 Q1021 NOSIG...\n",
      "[WARNING] No station code found in METAR: 202301090600 METAR VEPT 090600Z 34004KT 0400 R25/0...\n",
      "[WARNING] [Line 398] Invalid METAR format: Missing required METAR/SPECI identifier or station code\n",
      "          METAR: 202301090630 METAR VEPT 090630Z 34004KT 0500 R25/0900 FG VV/// 11/10 Q1020 NOSIG...\n",
      "[WARNING] No station code found in METAR: 202301090630 METAR VEPT 090630Z 34004KT 0500 R25/0...\n",
      "[WARNING] [Line 399] Invalid METAR format: Missing required METAR/SPECI identifier or station code\n",
      "          METAR: 202301090700 METAR VEPT 090700Z 35004KT 0500 R25/0900 FG VV/// 11/10 Q1020 NOSIG...\n",
      "[WARNING] No station code found in METAR: 202301090700 METAR VEPT 090700Z 35004KT 0500 R25/0...\n",
      "[PROGRESS] Processed 400/1489 METARs...\n",
      "[WARNING] [Line 400] Invalid METAR format: Missing required METAR/SPECI identifier or station code\n",
      "          METAR: 202301090730 METAR VEPT 090730Z 28004KT 0600 R25/0950 FG VV/// 12/10 Q1020 NOSIG...\n",
      "[WARNING] No station code found in METAR: 202301090730 METAR VEPT 090730Z 28004KT 0600 R25/0...\n",
      "[WARNING] [Line 401] Invalid METAR format: Missing required METAR/SPECI identifier or station code\n",
      "          METAR: 202301090800 METAR VEPT 090800Z 32005KT 0700 R25/1000 FG VV/// 12/10 Q1019 BECMG...\n",
      "[WARNING] No station code found in METAR: 202301090800 METAR VEPT 090800Z 32005KT 0700 R25/1...\n",
      "[WARNING] [Line 402] Invalid METAR format: Missing required METAR/SPECI identifier or station code\n",
      "          METAR: 202301090830 METAR VEPT 090830Z 30005KT 0800 R25/1000 FG SCT018 BKN100 12/10 Q10...\n",
      "[WARNING] No station code found in METAR: 202301090830 METAR VEPT 090830Z 30005KT 0800 R25/1...\n",
      "[WARNING] [Line 403] Invalid METAR format: Missing required METAR/SPECI identifier or station code\n",
      "          METAR: 202301090900 METAR VEPT 090900Z 31005KT 1000 R25/1000 MIFG FEW018 SCT100 12/11 Q...\n",
      "[WARNING] No station code found in METAR: 202301090900 METAR VEPT 090900Z 31005KT 1000 R25/1...\n",
      "[WARNING] [Line 404] Invalid METAR format: Missing required METAR/SPECI identifier or station code\n",
      "          METAR: 202301090930 METAR VEPT 090930Z 32003KT 1000 R25/1000 MIFG NSC 12/11 Q1018 NOSIG...\n",
      "[WARNING] No station code found in METAR: 202301090930 METAR VEPT 090930Z 32003KT 1000 R25/1...\n",
      "[WARNING] [Line 405] Invalid METAR format: Missing required METAR/SPECI identifier or station code\n",
      "          METAR: 202301091000 METAR VEPT 091000Z 25003KT 1000 R25/1100 MIFG NSC 13/11 Q1018 NOSIG...\n",
      "[WARNING] No station code found in METAR: 202301091000 METAR VEPT 091000Z 25003KT 1000 R25/1...\n",
      "[WARNING] [Line 406] Invalid METAR format: Missing required METAR/SPECI identifier or station code\n",
      "          METAR: 202301091030 METAR VEPT 091030Z 25003KT 1000 R25/1200 MIFG NSC 13/10 Q1018 NOSIG...\n",
      "[WARNING] No station code found in METAR: 202301091030 METAR VEPT 091030Z 25003KT 1000 R25/1...\n",
      "[WARNING] [Line 407] Invalid METAR format: Missing required METAR/SPECI identifier or station code\n",
      "          METAR: 202301091100 METAR VEPT 091100Z 25003KT 1000 R25/1300 MIFG NSC 13/11 Q1018 NOSIG...\n",
      "[WARNING] No station code found in METAR: 202301091100 METAR VEPT 091100Z 25003KT 1000 R25/1...\n",
      "[WARNING] [Line 408] Invalid METAR format: Missing required METAR/SPECI identifier or station code\n",
      "          METAR: 202301091130 METAR VEPT 091130Z 27002KT 1100 R25/1600 MIFG NSC 12/11 Q1018 NOSIG...\n",
      "[WARNING] No station code found in METAR: 202301091130 METAR VEPT 091130Z 27002KT 1100 R25/1...\n",
      "[WARNING] [Line 409] Invalid METAR format: Missing required METAR/SPECI identifier or station code\n",
      "          METAR: 202301091200 METAR VEPT 091200Z 00000KT 1200 R25/1700 BR NSC 12/10 Q1018 NOSIG=...\n",
      "[WARNING] No station code found in METAR: 202301091200 METAR VEPT 091200Z 00000KT 1200 R25/1...\n",
      "[WARNING] [Line 410] Invalid METAR format: Missing required METAR/SPECI identifier or station code\n",
      "          METAR: 202301091230 METAR VEPT 091230Z 00000KT 1200 R25/1600 BR NSC 12/10 Q1018 NOSIG=...\n",
      "[WARNING] No station code found in METAR: 202301091230 METAR VEPT 091230Z 00000KT 1200 R25/1...\n",
      "[WARNING] [Line 411] Invalid METAR format: Missing required METAR/SPECI identifier or station code\n",
      "          METAR: 202301091300 METAR VEPT 091300Z 27003KT 1200 R25/1400 BR NSC 11/10 Q1019 NOSIG=...\n",
      "[WARNING] No station code found in METAR: 202301091300 METAR VEPT 091300Z 27003KT 1200 R25/1...\n",
      "[WARNING] [Line 412] Invalid METAR format: Missing required METAR/SPECI identifier or station code\n",
      "          METAR: 202301091330 METAR VEPT 091330Z 28005KT 0300 R25/0475 FG VV/// 11/10 Q1019 NOSIG...\n",
      "[WARNING] No station code found in METAR: 202301091330 METAR VEPT 091330Z 28005KT 0300 R25/0...\n",
      "[WARNING] [Line 413] Invalid METAR format: Missing required METAR/SPECI identifier or station code\n",
      "          METAR: 202301091400 METAR VEPT 091400Z 31002KT 0700 R25/1200 FG VV/// 11/10 Q1019 BECMG...\n",
      "[WARNING] No station code found in METAR: 202301091400 METAR VEPT 091400Z 31002KT 0700 R25/1...\n",
      "[WARNING] [Line 414] Invalid METAR format: Missing required METAR/SPECI identifier or station code\n",
      "          METAR: 202301091430 METAR VEPT 091430Z 30002KT 0700 R25/1200 FG VV/// 11/10 Q1019 BECMG...\n",
      "[WARNING] No station code found in METAR: 202301091430 METAR VEPT 091430Z 30002KT 0700 R25/1...\n",
      "[WARNING] [Line 415] Invalid METAR format: Missing required METAR/SPECI identifier or station code\n",
      "          METAR: 202301091500 METAR VEPT 091500Z 33004KT 0700 R25/1400 FG VV/// 11/10 Q1020 NOSIG...\n",
      "[WARNING] No station code found in METAR: 202301091500 METAR VEPT 091500Z 33004KT 0700 R25/1...\n",
      "[WARNING] [Line 416] Invalid METAR format: Missing required METAR/SPECI identifier or station code\n",
      "          METAR: 202301091530 METAR VEPT 091530Z 32002KT 0700 R25/1500 FG VV/// 11/10 Q1019 BECMG...\n",
      "[WARNING] No station code found in METAR: 202301091530 METAR VEPT 091530Z 32002KT 0700 R25/1...\n",
      "[WARNING] [Line 417] Invalid METAR format: Missing required METAR/SPECI identifier or station code\n",
      "          METAR: 202301091600 METAR VEPT 091600Z 30003KT 0800 R25/1400 FG VV/// 11/10 Q1019 NOSIG...\n",
      "[WARNING] No station code found in METAR: 202301091600 METAR VEPT 091600Z 30003KT 0800 R25/1...\n",
      "[WARNING] [Line 418] Invalid METAR format: Missing required METAR/SPECI identifier or station code\n",
      "          METAR: 202301091630 METAR VEPT 091630Z 30003KT 0700 R25/1500 FG VV/// 11/10 Q1020 BECMG...\n",
      "[WARNING] No station code found in METAR: 202301091630 METAR VEPT 091630Z 30003KT 0700 R25/1...\n",
      "[WARNING] [Line 419] Invalid METAR format: Missing required METAR/SPECI identifier or station code\n",
      "          METAR: 202301091700 METAR VEPT 091700Z 29002KT 0700 R25/1400 FG VV/// 11/10 Q1019 BECMG...\n",
      "[WARNING] No station code found in METAR: 202301091700 METAR VEPT 091700Z 29002KT 0700 R25/1...\n",
      "[WARNING] [Line 420] Invalid METAR format: Missing required METAR/SPECI identifier or station code\n",
      "          METAR: 202301091730 METAR VEPT 091730Z 32002KT 0700 R25/1400 FG VV/// 10/09 Q1019 NOSIG...\n",
      "[WARNING] No station code found in METAR: 202301091730 METAR VEPT 091730Z 32002KT 0700 R25/1...\n",
      "[WARNING] [Line 421] Invalid METAR format: Missing required METAR/SPECI identifier or station code\n",
      "          METAR: 202301091800 METAR VEPT 091800Z 29004KT 0700 R25/1500 FG VV/// 10/09 Q1019 NOSIG...\n",
      "[WARNING] No station code found in METAR: 202301091800 METAR VEPT 091800Z 29004KT 0700 R25/1...\n",
      "[WARNING] [Line 422] Invalid METAR format: Missing required METAR/SPECI identifier or station code\n",
      "          METAR: 202301091830 METAR VEPT 091830Z 27004KT 0700 R25/1500 FG VV/// 10/09 Q1019 BECMG...\n",
      "[WARNING] No station code found in METAR: 202301091830 METAR VEPT 091830Z 27004KT 0700 R25/1...\n",
      "[WARNING] [Line 423] Invalid METAR format: Missing required METAR/SPECI identifier or station code\n",
      "          METAR: 202301091900 METAR VEPT 091900Z 31004KT 0600 R25/1500 FG VV/// 10/09 Q1019 NOSIG...\n",
      "[WARNING] No station code found in METAR: 202301091900 METAR VEPT 091900Z 31004KT 0600 R25/1...\n",
      "[WARNING] [Line 424] Invalid METAR format: Missing required METAR/SPECI identifier or station code\n",
      "          METAR: 202301091930 METAR VEPT 091930Z 33003KT 0600 R25/1600 FG VV/// 10/09 Q1018 NOSIG...\n",
      "[WARNING] No station code found in METAR: 202301091930 METAR VEPT 091930Z 33003KT 0600 R25/1...\n",
      "[WARNING] [Line 425] Invalid METAR format: Missing required METAR/SPECI identifier or station code\n",
      "          METAR: 202301092000 METAR VEPT 092000Z 34003KT 0600 R25/1600 FG VV/// 10/09 Q1018 NOSIG...\n",
      "[WARNING] No station code found in METAR: 202301092000 METAR VEPT 092000Z 34003KT 0600 R25/1...\n",
      "[WARNING] [Line 426] Invalid METAR format: Missing required METAR/SPECI identifier or station code\n",
      "          METAR: 202301092030 METAR VEPT 092030Z 27002KT 0600 R25/1600 FG VV/// 10/09 Q1018 NOSIG...\n",
      "[WARNING] No station code found in METAR: 202301092030 METAR VEPT 092030Z 27002KT 0600 R25/1...\n",
      "[WARNING] [Line 427] Invalid METAR format: Missing required METAR/SPECI identifier or station code\n",
      "          METAR: 202301092100 METAR VEPT 092100Z 28002KT 0600 R25/1700 FG VV/// 10/09 Q1018 NOSIG...\n",
      "[WARNING] No station code found in METAR: 202301092100 METAR VEPT 092100Z 28002KT 0600 R25/1...\n",
      "[WARNING] [Line 428] Invalid METAR format: Missing required METAR/SPECI identifier or station code\n",
      "          METAR: 202301092130 METAR VEPT 092130Z 30002KT 0600 R25/1700 FG VV/// 09/08 Q1018 NOSIG...\n",
      "[WARNING] No station code found in METAR: 202301092130 METAR VEPT 092130Z 30002KT 0600 R25/1...\n",
      "[WARNING] [Line 429] Invalid METAR format: Missing required METAR/SPECI identifier or station code\n",
      "          METAR: 202301092200 METAR VEPT 092200Z 28002KT 0600 R25/1600 FG VV/// 09/08 Q1017 NOSIG...\n",
      "[WARNING] No station code found in METAR: 202301092200 METAR VEPT 092200Z 28002KT 0600 R25/1...\n",
      "[WARNING] [Line 430] Invalid METAR format: Missing required METAR/SPECI identifier or station code\n",
      "          METAR: 202301092230 METAR VEPT 092230Z 29002KT 0600 R25/1600 FG VV/// 09/08 Q1018 NOSIG...\n",
      "[WARNING] No station code found in METAR: 202301092230 METAR VEPT 092230Z 29002KT 0600 R25/1...\n",
      "[WARNING] [Line 431] Invalid METAR format: Missing required METAR/SPECI identifier or station code\n",
      "          METAR: 202301092300 METAR VEPT 092300Z 26002KT 0600 R25/1600 FG VV/// 09/08 Q1018 NOSIG...\n",
      "[WARNING] No station code found in METAR: 202301092300 METAR VEPT 092300Z 26002KT 0600 R25/1...\n",
      "[WARNING] [Line 432] Invalid METAR format: Missing required METAR/SPECI identifier or station code\n",
      "          METAR: 202301092330 METAR VEPT 092330Z 28002KT 0600 R25/1600 FG VV/// 09/08 Q1018 NOSIG...\n",
      "[WARNING] No station code found in METAR: 202301092330 METAR VEPT 092330Z 28002KT 0600 R25/1...\n",
      "[WARNING] [Line 433] Invalid METAR format: Missing required METAR/SPECI identifier or station code\n",
      "          METAR: 202301100000 METAR VEPT 100000Z 27004KT 0600 R25/1700 FG VV/// 09/08 Q1018 NOSIG...\n",
      "[WARNING] No station code found in METAR: 202301100000 METAR VEPT 100000Z 27004KT 0600 R25/1...\n",
      "[WARNING] [Line 434] Invalid METAR format: Missing required METAR/SPECI identifier or station code\n",
      "          METAR: 202301100030 METAR VEPT 100030Z 29002KT 0600 R25/1700 FG VV/// 09/08 Q1019 NOSIG...\n",
      "[WARNING] No station code found in METAR: 202301100030 METAR VEPT 100030Z 29002KT 0600 R25/1...\n",
      "[WARNING] [Line 435] Invalid METAR format: Missing required METAR/SPECI identifier or station code\n",
      "          METAR: 202301100100 METAR VEPT 100100Z 30004KT 0600 R25/1700 FG VV/// 09/08 Q1019 NOSIG...\n",
      "[WARNING] No station code found in METAR: 202301100100 METAR VEPT 100100Z 30004KT 0600 R25/1...\n",
      "[WARNING] [Line 436] Invalid METAR format: Missing required METAR/SPECI identifier or station code\n",
      "          METAR: 202301100130 METAR VEPT 100130Z 31002KT 0600 R25/1600 FG VV/// 09/08 Q1019 NOSIG...\n",
      "[WARNING] No station code found in METAR: 202301100130 METAR VEPT 100130Z 31002KT 0600 R25/1...\n",
      "[WARNING] [Line 437] Invalid METAR format: Missing required METAR/SPECI identifier or station code\n",
      "          METAR: 202301100200 METAR VEPT 100200Z 28003KT 0600 R25/1300 FG VV/// 09/08 Q1019 NOSIG...\n",
      "[WARNING] No station code found in METAR: 202301100200 METAR VEPT 100200Z 28003KT 0600 R25/1...\n",
      "[WARNING] [Line 438] Invalid METAR format: Missing required METAR/SPECI identifier or station code\n",
      "          METAR: 202301100230 METAR VEPT 100230Z 25003KT 0600 R25/1200 FG VV/// 09/07 Q1020 NOSIG...\n",
      "[WARNING] No station code found in METAR: 202301100230 METAR VEPT 100230Z 25003KT 0600 R25/1...\n",
      "[WARNING] [Line 439] Invalid METAR format: Missing required METAR/SPECI identifier or station code\n",
      "          METAR: 202301100300 METAR VEPT 100300Z 27004KT 0700 R25/1200 FG VV/// 09/07 Q1020 NOSIG...\n",
      "[WARNING] No station code found in METAR: 202301100300 METAR VEPT 100300Z 27004KT 0700 R25/1...\n",
      "[WARNING] [Line 440] Invalid METAR format: Missing required METAR/SPECI identifier or station code\n",
      "          METAR: 202301100330 METAR VEPT 100330Z 29003KT 0700 R25/1100 FG VV/// 09/07 Q1021 BECMG...\n",
      "[WARNING] No station code found in METAR: 202301100330 METAR VEPT 100330Z 29003KT 0700 R25/1...\n",
      "[WARNING] [Line 441] Invalid METAR format: Missing required METAR/SPECI identifier or station code\n",
      "          METAR: 202301100400 METAR VEPT 100400Z 28002KT 0800 R25/1100 FG VV/// 09/08 Q1021 NOSIG...\n",
      "[WARNING] No station code found in METAR: 202301100400 METAR VEPT 100400Z 28002KT 0800 R25/1...\n",
      "[WARNING] [Line 442] Invalid METAR format: Missing required METAR/SPECI identifier or station code\n",
      "          METAR: 202301100430 METAR VEPT 100430Z 27004KT 0900 R25/1050 FG FEW010 SCT020 09/08 Q10...\n",
      "[WARNING] No station code found in METAR: 202301100430 METAR VEPT 100430Z 27004KT 0900 R25/1...\n",
      "[WARNING] [Line 443] Invalid METAR format: Missing required METAR/SPECI identifier or station code\n",
      "          METAR: 202301100500 METAR VEPT 100500Z 00000KT 1000 R25/1000 MIFG FEW010 SCT020 10/08 Q...\n",
      "[WARNING] No station code found in METAR: 202301100500 METAR VEPT 100500Z 00000KT 1000 R25/1...\n",
      "[WARNING] [Line 444] Invalid METAR format: Missing required METAR/SPECI identifier or station code\n",
      "          METAR: 202301100530 METAR VEPT 100530Z 32004KT 1000 R25/1000 FG FEW010 SCT020 11/09 Q10...\n",
      "[WARNING] No station code found in METAR: 202301100530 METAR VEPT 100530Z 32004KT 1000 R25/1...\n",
      "[WARNING] [Line 445] Invalid METAR format: Missing required METAR/SPECI identifier or station code\n",
      "          METAR: 202301100600 METAR VEPT 100600Z 30004KT 1000 R25/1050 MIFG FEW018 SCT100 11/09 Q...\n",
      "[WARNING] No station code found in METAR: 202301100600 METAR VEPT 100600Z 30004KT 1000 R25/1...\n",
      "[WARNING] [Line 446] Invalid METAR format: Missing required METAR/SPECI identifier or station code\n",
      "          METAR: 202301100630 METAR VEPT 100630Z 26003KT 1000 R25/1050 MIFG NSC 12/09 Q1019 NOSIG...\n",
      "[WARNING] No station code found in METAR: 202301100630 METAR VEPT 100630Z 26003KT 1000 R25/1...\n",
      "[WARNING] [Line 447] Invalid METAR format: Missing required METAR/SPECI identifier or station code\n",
      "          METAR: 202301100700 METAR VEPT 100700Z 29003KT 1100 R25/1100 BR NSC 13/09 Q1018 NOSIG=...\n",
      "[WARNING] No station code found in METAR: 202301100700 METAR VEPT 100700Z 29003KT 1100 R25/1...\n",
      "[WARNING] [Line 448] Invalid METAR format: Missing required METAR/SPECI identifier or station code\n",
      "          METAR: 202301100730 METAR VEPT 100730Z 29002KT 1100 R25/1150 BR NSC 14/10 Q1017 NOSIG=...\n",
      "[WARNING] No station code found in METAR: 202301100730 METAR VEPT 100730Z 29002KT 1100 R25/1...\n",
      "[WARNING] [Line 449] Invalid METAR format: Missing required METAR/SPECI identifier or station code\n",
      "          METAR: 202301100800 METAR VEPT 100800Z 31003KT 1200 R25/1200 BR NSC 15/11 Q1017 NOSIG=...\n",
      "[WARNING] No station code found in METAR: 202301100800 METAR VEPT 100800Z 31003KT 1200 R25/1...\n",
      "[WARNING] [Line 450] Invalid METAR format: Missing required METAR/SPECI identifier or station code\n",
      "          METAR: 202301100830 METAR VEPT 100830Z 31003KT 1200 R25/1200 HZ NSC 16/11 Q1016 NOSIG=...\n",
      "[WARNING] No station code found in METAR: 202301100830 METAR VEPT 100830Z 31003KT 1200 R25/1...\n",
      "[WARNING] [Line 451] Invalid METAR format: Missing required METAR/SPECI identifier or station code\n",
      "          METAR: 202301100900 METAR VEPT 100900Z 30003KT 1200 R25/1200 HZ NSC 17/11 Q1016 NOSIG=...\n",
      "[WARNING] No station code found in METAR: 202301100900 METAR VEPT 100900Z 30003KT 1200 R25/1...\n",
      "[WARNING] [Line 452] Invalid METAR format: Missing required METAR/SPECI identifier or station code\n",
      "          METAR: 202301100930 METAR VEPT 100930Z 30003KT 1200 R25/1300 HZ NSC 17/11 Q1016 NOSIG=...\n",
      "[WARNING] No station code found in METAR: 202301100930 METAR VEPT 100930Z 30003KT 1200 R25/1...\n",
      "[WARNING] [Line 453] Invalid METAR format: Missing required METAR/SPECI identifier or station code\n",
      "          METAR: 202301101000 METAR VEPT 101000Z 32003KT 1200 R25/1300 HZ NSC 17/11 Q1015 NOSIG=...\n",
      "[WARNING] No station code found in METAR: 202301101000 METAR VEPT 101000Z 32003KT 1200 R25/1...\n",
      "[WARNING] [Line 454] Invalid METAR format: Missing required METAR/SPECI identifier or station code\n",
      "          METAR: 202301101030 METAR VEPT 101030Z 33003KT 1300 R25/1400 HZ NSC 17/11 Q1015 NOSIG=...\n",
      "[WARNING] No station code found in METAR: 202301101030 METAR VEPT 101030Z 33003KT 1300 R25/1...\n",
      "[WARNING] [Line 455] Invalid METAR format: Missing required METAR/SPECI identifier or station code\n",
      "          METAR: 202301101100 METAR VEPT 101100Z 33003KT 1300 R25/1600 HZ NSC 17/11 Q1015 BECMG 1...\n",
      "[WARNING] No station code found in METAR: 202301101100 METAR VEPT 101100Z 33003KT 1300 R25/1...\n",
      "[WARNING] [Line 456] Invalid METAR format: Missing required METAR/SPECI identifier or station code\n",
      "          METAR: 202301101130 METAR VEPT 101130Z 29003KT 1500 R25/2000 HZ NSC 16/11 Q1015 NOSIG=...\n",
      "[WARNING] No station code found in METAR: 202301101130 METAR VEPT 101130Z 29003KT 1500 R25/2...\n",
      "[WARNING] [Line 457] Invalid METAR format: Missing required METAR/SPECI identifier or station code\n",
      "          METAR: 202301101200 METAR VEPT 101200Z 31003KT 1500 R25/2000 BR NSC 15/11 Q1015 NOSIG=...\n",
      "[WARNING] No station code found in METAR: 202301101200 METAR VEPT 101200Z 31003KT 1500 R25/2...\n",
      "[WARNING] [Line 458] Invalid METAR format: Missing required METAR/SPECI identifier or station code\n",
      "          METAR: 202301101230 METAR VEPT 101230Z 31003KT 1500 R25/2000 BR NSC 14/11 Q1016 NOSIG=...\n",
      "[WARNING] No station code found in METAR: 202301101230 METAR VEPT 101230Z 31003KT 1500 R25/2...\n",
      "[WARNING] [Line 459] Invalid METAR format: Missing required METAR/SPECI identifier or station code\n",
      "          METAR: 202301101300 METAR VEPT 101300Z 33004KT 1500 R25/2000 BR NSC 13/10 Q1016 NOSIG=...\n",
      "[WARNING] No station code found in METAR: 202301101300 METAR VEPT 101300Z 33004KT 1500 R25/2...\n",
      "[WARNING] [Line 460] Invalid METAR format: Missing required METAR/SPECI identifier or station code\n",
      "          METAR: 202301101330 METAR VEPT 101330Z 35003KT 1500 R25/2000 BR NSC 13/10 Q1016 NOSIG=...\n",
      "[WARNING] No station code found in METAR: 202301101330 METAR VEPT 101330Z 35003KT 1500 R25/2...\n",
      "[WARNING] [Line 461] Invalid METAR format: Missing required METAR/SPECI identifier or station code\n",
      "          METAR: 202301101400 METAR VEPT 101400Z 34005KT 1500 R25/2000 BR NSC 12/10 Q1016 NOSIG=...\n",
      "[WARNING] No station code found in METAR: 202301101400 METAR VEPT 101400Z 34005KT 1500 R25/2...\n",
      "[WARNING] [Line 462] Invalid METAR format: Missing required METAR/SPECI identifier or station code\n",
      "          METAR: 202301101430 METAR VEPT 101430Z 34005KT 1300 R25/2000 BR NSC 12/10 Q1017 NOSIG=...\n",
      "[WARNING] No station code found in METAR: 202301101430 METAR VEPT 101430Z 34005KT 1300 R25/2...\n",
      "[WARNING] [Line 463] Invalid METAR format: Missing required METAR/SPECI identifier or station code\n",
      "          METAR: 202301101500 METAR VEPT 101500Z 32006KT 1200 R25/2000 BR NSC 11/09 Q1017 NOSIG=...\n",
      "[WARNING] No station code found in METAR: 202301101500 METAR VEPT 101500Z 32006KT 1200 R25/2...\n",
      "[WARNING] [Line 464] Invalid METAR format: Missing required METAR/SPECI identifier or station code\n",
      "          METAR: 202301101530 METAR VEPT 101530Z 34004KT 0400 R25/1000 FG VV/// 10/09 Q1017 NOSIG...\n",
      "[WARNING] No station code found in METAR: 202301101530 METAR VEPT 101530Z 34004KT 0400 R25/1...\n",
      "[WARNING] [Line 465] Invalid METAR format: Missing required METAR/SPECI identifier or station code\n",
      "          METAR: 202301101600 METAR VEPT 101600Z 25003KT 0500 R25/1300 FG VV/// 10/09 Q1017 NOSIG...\n",
      "[WARNING] No station code found in METAR: 202301101600 METAR VEPT 101600Z 25003KT 0500 R25/1...\n",
      "[WARNING] [Line 466] Invalid METAR format: Missing required METAR/SPECI identifier or station code\n",
      "          METAR: 202301101630 METAR VEPT 101630Z 33003KT 0700 R25/1500 FG VV/// 10/09 Q1017 BECMG...\n",
      "[WARNING] No station code found in METAR: 202301101630 METAR VEPT 101630Z 33003KT 0700 R25/1...\n",
      "[WARNING] [Line 467] Invalid METAR format: Missing required METAR/SPECI identifier or station code\n",
      "          METAR: 202301101700 METAR VEPT 101700Z 27002KT 0800 R25/1700 FG VV/// 10/09 Q1017 NOSIG...\n",
      "[WARNING] No station code found in METAR: 202301101700 METAR VEPT 101700Z 27002KT 0800 R25/1...\n",
      "[WARNING] [Line 468] Invalid METAR format: Missing required METAR/SPECI identifier or station code\n",
      "          METAR: 202301101730 METAR VEPT 101730Z 27005KT 0800 R25/1800 FG VV/// 10/09 Q1017 NOSIG...\n",
      "[WARNING] No station code found in METAR: 202301101730 METAR VEPT 101730Z 27005KT 0800 R25/1...\n",
      "[WARNING] [Line 469] Invalid METAR format: Missing required METAR/SPECI identifier or station code\n",
      "          METAR: 202301101800 METAR VEPT 101800Z 27005KT 0800 R25/1800 FG VV/// 10/08 Q1017 NOSIG...\n",
      "[WARNING] No station code found in METAR: 202301101800 METAR VEPT 101800Z 27005KT 0800 R25/1...\n",
      "[WARNING] [Line 470] Invalid METAR format: Missing required METAR/SPECI identifier or station code\n",
      "          METAR: 202301101830 METAR VEPT 101830Z 34003KT 0800 R25/1800 FG VV/// 10/09 Q1016 NOSIG...\n",
      "[WARNING] No station code found in METAR: 202301101830 METAR VEPT 101830Z 34003KT 0800 R25/1...\n",
      "[WARNING] [Line 471] Invalid METAR format: Missing required METAR/SPECI identifier or station code\n",
      "          METAR: 202301101900 METAR VEPT 101900Z 30005KT 0800 R25/1800 FG VV/// 10/08 Q1016 NOSIG...\n",
      "[WARNING] No station code found in METAR: 202301101900 METAR VEPT 101900Z 30005KT 0800 R25/1...\n",
      "[WARNING] [Line 472] Invalid METAR format: Missing required METAR/SPECI identifier or station code\n",
      "          METAR: 202301101930 METAR VEPT 101930Z 30003KT 0800 R25/1800 FG VV/// 10/09 Q1016 NOSIG...\n",
      "[WARNING] No station code found in METAR: 202301101930 METAR VEPT 101930Z 30003KT 0800 R25/1...\n",
      "[WARNING] [Line 473] Invalid METAR format: Missing required METAR/SPECI identifier or station code\n",
      "          METAR: 202301102000 METAR VEPT 102000Z 34004KT 0800 R25/1800 FG VV/// 10/09 Q1016 NOSIG...\n",
      "[WARNING] No station code found in METAR: 202301102000 METAR VEPT 102000Z 34004KT 0800 R25/1...\n",
      "[WARNING] [Line 474] Invalid METAR format: Missing required METAR/SPECI identifier or station code\n",
      "          METAR: 202301102030 METAR VEPT 102030Z 33003KT 0800 R25/2000 FG VV/// 10/09 Q1016 NOSIG...\n",
      "[WARNING] No station code found in METAR: 202301102030 METAR VEPT 102030Z 33003KT 0800 R25/2...\n",
      "[WARNING] [Line 475] Invalid METAR format: Missing required METAR/SPECI identifier or station code\n",
      "          METAR: 202301102034 METAR VEPT 102034Z 33003KT 0800 R25/2000 FG VV/// 10/09 Q1016 NOSIG...\n",
      "[WARNING] No station code found in METAR: 202301102034 METAR VEPT 102034Z 33003KT 0800 R25/2...\n",
      "[WARNING] [Line 476] Invalid METAR format: Missing required METAR/SPECI identifier or station code\n",
      "          METAR: 202301102100 METAR VEPT 102100Z 00000KT 0800 R25/2000 FG VV/// 10/08 Q1015 NOSIG...\n",
      "[WARNING] No station code found in METAR: 202301102100 METAR VEPT 102100Z 00000KT 0800 R25/2...\n",
      "[WARNING] [Line 477] Invalid METAR format: Missing required METAR/SPECI identifier or station code\n",
      "          METAR: 202301102130 METAR VEPT 102130Z 00000KT 0800 R25/2000 FG VV/// 10/09 Q1015 NOSIG...\n",
      "[WARNING] No station code found in METAR: 202301102130 METAR VEPT 102130Z 00000KT 0800 R25/2...\n",
      "[WARNING] [Line 478] Invalid METAR format: Missing required METAR/SPECI identifier or station code\n",
      "          METAR: 202301102200 METAR VEPT 102200Z 00000KT 0800 R25/2000 FG VV/// 10/08 Q1015 NOSIG...\n",
      "[WARNING] No station code found in METAR: 202301102200 METAR VEPT 102200Z 00000KT 0800 R25/2...\n",
      "[WARNING] [Line 479] Invalid METAR format: Missing required METAR/SPECI identifier or station code\n",
      "          METAR: 202301102230 METAR VEPT 102230Z 00000KT 0800 R25/2000 FG VV/// 10/08 Q1015 NOSIG...\n",
      "[WARNING] No station code found in METAR: 202301102230 METAR VEPT 102230Z 00000KT 0800 R25/2...\n",
      "[WARNING] [Line 480] Invalid METAR format: Missing required METAR/SPECI identifier or station code\n",
      "          METAR: 202301102300 METAR VEPT 102300Z 27003KT 0800 R25/2000 FG VV/// 09/08 Q1015 NOSIG...\n",
      "[WARNING] No station code found in METAR: 202301102300 METAR VEPT 102300Z 27003KT 0800 R25/2...\n",
      "[WARNING] [Line 481] Invalid METAR format: Missing required METAR/SPECI identifier or station code\n",
      "          METAR: 202301102330 METAR VEPT 102330Z 30003KT 0800 R25/2000 FG VV/// 09/08 Q1015 NOSIG...\n",
      "[WARNING] No station code found in METAR: 202301102330 METAR VEPT 102330Z 30003KT 0800 R25/2...\n",
      "[WARNING] [Line 482] Invalid METAR format: Missing required METAR/SPECI identifier or station code\n",
      "          METAR: 202301110000 METAR VEPT 110000Z 29004KT 0800 R25/2000 FG VV/// 09/08 Q1016 NOSIG...\n",
      "[WARNING] No station code found in METAR: 202301110000 METAR VEPT 110000Z 29004KT 0800 R25/2...\n",
      "[WARNING] [Line 483] Invalid METAR format: Missing required METAR/SPECI identifier or station code\n",
      "          METAR: 202301110030 METAR VEPT 110030Z 29003KT 0800 R25/2000 FG VV/// 09/08 Q1016 NOSIG...\n",
      "[WARNING] No station code found in METAR: 202301110030 METAR VEPT 110030Z 29003KT 0800 R25/2...\n",
      "[WARNING] [Line 484] Invalid METAR format: Missing required METAR/SPECI identifier or station code\n",
      "          METAR: 202301110100 METAR VEPT 110100Z 26003KT 0800 R25/2000 FG VV/// 09/08 Q1016 NOSIG...\n",
      "[WARNING] No station code found in METAR: 202301110100 METAR VEPT 110100Z 26003KT 0800 R25/2...\n",
      "[WARNING] [Line 485] Invalid METAR format: Missing required METAR/SPECI identifier or station code\n",
      "          METAR: 202301110130 METAR COR VEPT 110130Z 30003KT 0900 R25/2000 FG NSC 09/08 Q1017 NOS...\n",
      "[WARNING] No station code found in METAR: 202301110130 METAR COR VEPT 110130Z 30003KT 0900 R...\n",
      "[WARNING] [Line 486] Invalid METAR format: Missing required METAR/SPECI identifier or station code\n",
      "          METAR: 202301110200 METAR VEPT 110200Z 00000KT 0900 R25/1400 FG NSC 09/08 Q1017 NOSIG=...\n",
      "[WARNING] No station code found in METAR: 202301110200 METAR VEPT 110200Z 00000KT 0900 R25/1...\n",
      "[WARNING] [Line 487] Invalid METAR format: Missing required METAR/SPECI identifier or station code\n",
      "          METAR: 202301110230 METAR VEPT 110230Z 28002KT 0900 R25/1300 FG VV/// 09/08 Q1017 NOSIG...\n",
      "[WARNING] No station code found in METAR: 202301110230 METAR VEPT 110230Z 28002KT 0900 R25/1...\n",
      "[WARNING] [Line 488] Invalid METAR format: Missing required METAR/SPECI identifier or station code\n",
      "          METAR: 202301110300 METAR VEPT 110300Z 10002KT 1000 R25/1200 FG VV/// 09/08 Q1018 NOSIG...\n",
      "[WARNING] No station code found in METAR: 202301110300 METAR VEPT 110300Z 10002KT 1000 R25/1...\n",
      "[WARNING] [Line 489] Invalid METAR format: Missing required METAR/SPECI identifier or station code\n",
      "          METAR: 202301110330 METAR VEPT 110330Z 25003KT 1000 R25/1100 MIFG FEW018 SCT100 10/08 Q...\n",
      "[WARNING] No station code found in METAR: 202301110330 METAR VEPT 110330Z 25003KT 1000 R25/1...\n",
      "[WARNING] [Line 490] Invalid METAR format: Missing required METAR/SPECI identifier or station code\n",
      "          METAR: 202301110400 METAR VEPT 110400Z 28003KT 1000 R25/1100 MIFG FEW018 SCT100 10/09 Q...\n",
      "[WARNING] No station code found in METAR: 202301110400 METAR VEPT 110400Z 28003KT 1000 R25/1...\n",
      "[WARNING] [Line 491] Invalid METAR format: Missing required METAR/SPECI identifier or station code\n",
      "          METAR: 202301110430 METAR VEPT 110430Z 31003KT 1000 R25/1000 MIFG FEW018 SCT100 11/09 Q...\n",
      "[WARNING] No station code found in METAR: 202301110430 METAR VEPT 110430Z 31003KT 1000 R25/1...\n",
      "[WARNING] [Line 492] Invalid METAR format: Missing required METAR/SPECI identifier or station code\n",
      "          METAR: 202301110500 METAR VEPT 110500Z 34003KT 1000 R25/1000 MIFG FEW018 SCT100 11/09 Q...\n",
      "[WARNING] No station code found in METAR: 202301110500 METAR VEPT 110500Z 34003KT 1000 R25/1...\n",
      "[WARNING] [Line 493] Invalid METAR format: Missing required METAR/SPECI identifier or station code\n",
      "          METAR: 202301110530 METAR VEPT 110530Z 00000KT 1100 R25/1100 BR NSC 12/09 Q1018 NOSIG=...\n",
      "[WARNING] No station code found in METAR: 202301110530 METAR VEPT 110530Z 00000KT 1100 R25/1...\n",
      "[WARNING] [Line 494] Invalid METAR format: Missing required METAR/SPECI identifier or station code\n",
      "          METAR: 202301110600 METAR VEPT 110600Z 28003KT 1100 R25/1100 BR NSC 13/10 Q1017 NOSIG=...\n",
      "[WARNING] No station code found in METAR: 202301110600 METAR VEPT 110600Z 28003KT 1100 R25/1...\n",
      "[WARNING] [Line 495] Invalid METAR format: Missing required METAR/SPECI identifier or station code\n",
      "          METAR: 202301110630 METAR VEPT 110630Z 25002KT 1200 R25/1200 BR NSC 15/11 Q1017 NOSIG=...\n",
      "[WARNING] No station code found in METAR: 202301110630 METAR VEPT 110630Z 25002KT 1200 R25/1...\n",
      "[WARNING] [Line 496] Invalid METAR format: Missing required METAR/SPECI identifier or station code\n",
      "          METAR: 202301110700 METAR VEPT 110700Z 28003KT 1300 R25/1100 BR NSC 16/11 Q1016 NOSIG=...\n",
      "[WARNING] No station code found in METAR: 202301110700 METAR VEPT 110700Z 28003KT 1300 R25/1...\n",
      "[WARNING] [Line 497] Invalid METAR format: Missing required METAR/SPECI identifier or station code\n",
      "          METAR: 202301110730 METAR VEPT 110730Z 29004KT 1300 R25/1200 BR NSC 17/12 Q1015 NOSIG=...\n",
      "[WARNING] No station code found in METAR: 202301110730 METAR VEPT 110730Z 29004KT 1300 R25/1...\n",
      "[WARNING] [Line 498] Invalid METAR format: Missing required METAR/SPECI identifier or station code\n",
      "          METAR: 202301110800 METAR VEPT 110800Z 31003KT 1300 R25/1200 FU NSC 17/12 Q1015 NOSIG=...\n",
      "[WARNING] No station code found in METAR: 202301110800 METAR VEPT 110800Z 31003KT 1300 R25/1...\n",
      "[WARNING] [Line 499] Invalid METAR format: Missing required METAR/SPECI identifier or station code\n",
      "          METAR: 202301110830 METAR VEPT 110830Z 33004KT 1300 R25/1200 FU NSC 17/12 Q1014 NOSIG=...\n",
      "[WARNING] No station code found in METAR: 202301110830 METAR VEPT 110830Z 33004KT 1300 R25/1...\n",
      "[PROGRESS] Processed 500/1489 METARs...\n",
      "[WARNING] [Line 500] Invalid METAR format: Missing required METAR/SPECI identifier or station code\n",
      "          METAR: 202301110900 METAR VEPT 110900Z 36004KT 1300 R25/1200 FU NSC 17/12 Q1014 NOSIG=...\n",
      "[WARNING] No station code found in METAR: 202301110900 METAR VEPT 110900Z 36004KT 1300 R25/1...\n",
      "[WARNING] [Line 501] Invalid METAR format: Missing required METAR/SPECI identifier or station code\n",
      "          METAR: 202301110930 METAR VEPT 110930Z 02003KT 1300 R25/1200 FU NSC 17/12 Q1014 NOSIG=...\n",
      "[WARNING] No station code found in METAR: 202301110930 METAR VEPT 110930Z 02003KT 1300 R25/1...\n",
      "[WARNING] [Line 502] Invalid METAR format: Missing required METAR/SPECI identifier or station code\n",
      "          METAR: 202301111000 METAR VEPT 111000Z 35003KT 1300 R25/1300 FU NSC 17/12 Q1014 NOSIG=...\n",
      "[WARNING] No station code found in METAR: 202301111000 METAR VEPT 111000Z 35003KT 1300 R25/1...\n",
      "[WARNING] [Line 503] Invalid METAR format: Missing required METAR/SPECI identifier or station code\n",
      "          METAR: 202301111030 METAR VEPT 111030Z 34005KT 1300 R25/1400 FU NSC 17/12 Q1014 NOSIG=...\n",
      "[WARNING] No station code found in METAR: 202301111030 METAR VEPT 111030Z 34005KT 1300 R25/1...\n",
      "[WARNING] [Line 504] Invalid METAR format: Missing required METAR/SPECI identifier or station code\n",
      "          METAR: 202301111100 METAR VEPT 111100Z 01003KT 1300 R25/1500 BR NSC 16/12 Q1013 NOSIG=...\n",
      "[WARNING] No station code found in METAR: 202301111100 METAR VEPT 111100Z 01003KT 1300 R25/1...\n",
      "[WARNING] [Line 505] Invalid METAR format: Missing required METAR/SPECI identifier or station code\n",
      "          METAR: 202301111128 METAR VEPT 111128Z 36002KT 1300 R25/1900 BR NSC 16/12 Q1013 NOSIG=...\n",
      "[WARNING] No station code found in METAR: 202301111128 METAR VEPT 111128Z 36002KT 1300 R25/1...\n",
      "[WARNING] [Line 506] Invalid METAR format: Missing required METAR/SPECI identifier or station code\n",
      "          METAR: 202301111130 METAR VEPT 111130Z 35002KT 1300 R25/1900 BR NSC 16/12 Q1013 NOSIG=...\n",
      "[WARNING] No station code found in METAR: 202301111130 METAR VEPT 111130Z 35002KT 1300 R25/1...\n",
      "[WARNING] [Line 507] Invalid METAR format: Missing required METAR/SPECI identifier or station code\n",
      "          METAR: 202301111200 METAR VEPT 111200Z 01003KT 1300 R25/2000 BR NSC 15/11 Q1014 NOSIG=...\n",
      "[WARNING] No station code found in METAR: 202301111200 METAR VEPT 111200Z 01003KT 1300 R25/2...\n",
      "[WARNING] [Line 508] Invalid METAR format: Missing required METAR/SPECI identifier or station code\n",
      "          METAR: 202301111230 METAR VEPT 111230Z 02002KT 1400 R25/2000 BR NSC 14/11 Q1014 BECMG 1...\n",
      "[WARNING] No station code found in METAR: 202301111230 METAR VEPT 111230Z 02002KT 1400 R25/2...\n",
      "[WARNING] [Line 509] Invalid METAR format: Missing required METAR/SPECI identifier or station code\n",
      "          METAR: 202301111300 METAR VEPT 111300Z 04001KT 1500 R25/2000 BR NSC 13/10 Q1014 NOSIG=...\n",
      "[WARNING] No station code found in METAR: 202301111300 METAR VEPT 111300Z 04001KT 1500 R25/2...\n",
      "[WARNING] [Line 510] Invalid METAR format: Missing required METAR/SPECI identifier or station code\n",
      "          METAR: 202301111330 METAR VEPT 111330Z 05002KT 1400 R25/1900 BR NSC 13/10 Q1014 NOSIG=...\n",
      "[WARNING] No station code found in METAR: 202301111330 METAR VEPT 111330Z 05002KT 1400 R25/1...\n",
      "[WARNING] [Line 511] Invalid METAR format: Missing required METAR/SPECI identifier or station code\n",
      "          METAR: 202301111400 METAR VEPT 111400Z 02002KT 1400 R25/1800 BR NSC 12/10 Q1014 NOSIG=...\n",
      "[WARNING] No station code found in METAR: 202301111400 METAR VEPT 111400Z 02002KT 1400 R25/1...\n",
      "[WARNING] [Line 512] Invalid METAR format: Missing required METAR/SPECI identifier or station code\n",
      "          METAR: 202301111430 METAR VEPT 111430Z 00000KT 1400 R25/1800 BR NSC 12/10 Q1015 NOSIG=...\n",
      "[WARNING] No station code found in METAR: 202301111430 METAR VEPT 111430Z 00000KT 1400 R25/1...\n",
      "[WARNING] [Line 513] Invalid METAR format: Missing required METAR/SPECI identifier or station code\n",
      "          METAR: 202301111500 METAR VEPT 111500Z 00000KT 1400 R25/1800 BR NSC 11/09 Q1015 NOSIG=...\n",
      "[WARNING] No station code found in METAR: 202301111500 METAR VEPT 111500Z 00000KT 1400 R25/1...\n",
      "[WARNING] [Line 514] Invalid METAR format: Missing required METAR/SPECI identifier or station code\n",
      "          METAR: 202301111530 METAR VEPT 111530Z 00000KT 1400 R25/1800 BR NSC 10/09 Q1015 NOSIG=...\n",
      "[WARNING] No station code found in METAR: 202301111530 METAR VEPT 111530Z 00000KT 1400 R25/1...\n",
      "[WARNING] [Line 515] Invalid METAR format: Missing required METAR/SPECI identifier or station code\n",
      "          METAR: 202301111600 METAR VEPT 111600Z 00000KT 1400 R25/1800 BR NSC 10/09 Q1015 NOSIG=...\n",
      "[WARNING] No station code found in METAR: 202301111600 METAR VEPT 111600Z 00000KT 1400 R25/1...\n",
      "[WARNING] [Line 516] Invalid METAR format: Missing required METAR/SPECI identifier or station code\n",
      "          METAR: 202301111630 METAR VEPT 111630Z 00000KT 1400 R25/1800 BR NSC 10/09 Q1015 NOSIG=...\n",
      "[WARNING] No station code found in METAR: 202301111630 METAR VEPT 111630Z 00000KT 1400 R25/1...\n",
      "[WARNING] [Line 517] Invalid METAR format: Missing required METAR/SPECI identifier or station code\n",
      "          METAR: 202301111700 METAR VEPT 111700Z 00000KT 1200 R25/1400 BR NSC 09/08 Q1015 NOSIG=...\n",
      "[WARNING] No station code found in METAR: 202301111700 METAR VEPT 111700Z 00000KT 1200 R25/1...\n",
      "[WARNING] [Line 518] Invalid METAR format: Missing required METAR/SPECI identifier or station code\n",
      "          METAR: 202301111730 METAR VEPT 111730Z 00000KT 1000 R25/1200 MIFG NSC 09/08 Q1015 NOSIG...\n",
      "[WARNING] No station code found in METAR: 202301111730 METAR VEPT 111730Z 00000KT 1000 R25/1...\n",
      "[WARNING] [Line 519] Invalid METAR format: Missing required METAR/SPECI identifier or station code\n",
      "          METAR: 202301111800 METAR VEPT 111800Z 00000KT 1000 R25/1200 MIFG NSC 09/07 Q1015 NOSIG...\n",
      "[WARNING] No station code found in METAR: 202301111800 METAR VEPT 111800Z 00000KT 1000 R25/1...\n",
      "[WARNING] [Line 520] Invalid METAR format: Missing required METAR/SPECI identifier or station code\n",
      "          METAR: 202301111830 METAR VEPT 111830Z 00000KT 1000 R25/1000 MIFG NSC 09/08 Q1015 BECMG...\n",
      "[WARNING] No station code found in METAR: 202301111830 METAR VEPT 111830Z 00000KT 1000 R25/1...\n",
      "[WARNING] [Line 521] Invalid METAR format: Missing required METAR/SPECI identifier or station code\n",
      "          METAR: 202301111900 METAR VEPT 111900Z 00000KT 0800 R25/0900 FG NSC 09/08 Q1014 NOSIG=...\n",
      "[WARNING] No station code found in METAR: 202301111900 METAR VEPT 111900Z 00000KT 0800 R25/0...\n",
      "[WARNING] [Line 522] Invalid METAR format: Missing required METAR/SPECI identifier or station code\n",
      "          METAR: 202301111930 METAR VEPT 111930Z 00000KT 0600 R25/0800 FG VV/// 10/09 Q1014 NOSIG...\n",
      "[WARNING] No station code found in METAR: 202301111930 METAR VEPT 111930Z 00000KT 0600 R25/0...\n",
      "[WARNING] [Line 523] Invalid METAR format: Missing required METAR/SPECI identifier or station code\n",
      "          METAR: 202301112000 METAR VEPT 112000Z 00000KT 0400 R25/0500 FG VV/// 10/09 Q1014 NOSIG...\n",
      "[WARNING] No station code found in METAR: 202301112000 METAR VEPT 112000Z 00000KT 0400 R25/0...\n",
      "[WARNING] [Line 524] Invalid METAR format: Missing required METAR/SPECI identifier or station code\n",
      "          METAR: 202301112030 METAR VEPT 112030Z 00000KT 0400 R25/0500 FG VV/// 10/09 Q1014 BECMG...\n",
      "[WARNING] No station code found in METAR: 202301112030 METAR VEPT 112030Z 00000KT 0400 R25/0...\n",
      "[WARNING] [Line 525] Invalid METAR format: Missing required METAR/SPECI identifier or station code\n",
      "          METAR: 202301112100 METAR VEPT 112100Z 00000KT 0150 R25/0275 FG VV/// 09/08 Q1014 NOSIG...\n",
      "[WARNING] No station code found in METAR: 202301112100 METAR VEPT 112100Z 00000KT 0150 R25/0...\n",
      "[WARNING] [Line 526] Invalid METAR format: Missing required METAR/SPECI identifier or station code\n",
      "          METAR: 202301112130 METAR VEPT 112130Z 00000KT 0100 R25/0250 FG VV/// 09/08 Q1013 NOSIG...\n",
      "[WARNING] No station code found in METAR: 202301112130 METAR VEPT 112130Z 00000KT 0100 R25/0...\n",
      "[WARNING] [Line 527] Invalid METAR format: Missing required METAR/SPECI identifier or station code\n",
      "          METAR: 202301112200 METAR VEPT 112200Z 00000KT 0100 R25/0250 FG VV/// 09/08 Q1013 NOSIG...\n",
      "[WARNING] No station code found in METAR: 202301112200 METAR VEPT 112200Z 00000KT 0100 R25/0...\n",
      "[WARNING] [Line 528] Invalid METAR format: Missing required METAR/SPECI identifier or station code\n",
      "          METAR: 202301112230 METAR VEPT 112230Z 00000KT 0100 R25/0200 FG VV/// 09/08 Q1013 NOSIG...\n",
      "[WARNING] No station code found in METAR: 202301112230 METAR VEPT 112230Z 00000KT 0100 R25/0...\n",
      "[WARNING] [Line 529] Invalid METAR format: Missing required METAR/SPECI identifier or station code\n",
      "          METAR: 202301112300 METAR VEPT 112300Z 00000KT 0100 R25/0175 FG VV/// 08/08 Q1013 BECMG...\n",
      "[WARNING] No station code found in METAR: 202301112300 METAR VEPT 112300Z 00000KT 0100 R25/0...\n",
      "[WARNING] [Line 530] Invalid METAR format: Missing required METAR/SPECI identifier or station code\n",
      "          METAR: 202301112330 METAR VEPT 112330Z 00000KT 0050 R25/0175 FG VV/// 08/08 Q1013 NOSIG...\n",
      "[WARNING] No station code found in METAR: 202301112330 METAR VEPT 112330Z 00000KT 0050 R25/0...\n",
      "[WARNING] [Line 531] Invalid METAR format: Missing required METAR/SPECI identifier or station code\n",
      "          METAR: 202301120000 METAR VEPT 120000Z 00000KT 0050 R25/0250 FG VV/// 08/07 Q1013 NOSIG...\n",
      "[WARNING] No station code found in METAR: 202301120000 METAR VEPT 120000Z 00000KT 0050 R25/0...\n",
      "[WARNING] [Line 532] Invalid METAR format: Missing required METAR/SPECI identifier or station code\n",
      "          METAR: 202301120030 METAR VEPT 120030Z 00000KT 0050 R25/0225 FG VV/// 08/07 Q1013 NOSIG...\n",
      "[WARNING] No station code found in METAR: 202301120030 METAR VEPT 120030Z 00000KT 0050 R25/0...\n",
      "[WARNING] [Line 533] Invalid METAR format: Missing required METAR/SPECI identifier or station code\n",
      "          METAR: 202301120100 METAR VEPT 120100Z 00000KT 0050 R25/0225 FG VV/// 08/07 Q1014 NOSIG...\n",
      "[WARNING] No station code found in METAR: 202301120100 METAR VEPT 120100Z 00000KT 0050 R25/0...\n",
      "[WARNING] [Line 534] Invalid METAR format: Missing required METAR/SPECI identifier or station code\n",
      "          METAR: 202301120130 METAR VEPT 120130Z 00000KT 0100 R25/0225 FG VV/// 08/07 Q1014 NOSIG...\n",
      "[WARNING] No station code found in METAR: 202301120130 METAR VEPT 120130Z 00000KT 0100 R25/0...\n",
      "[WARNING] [Line 535] Invalid METAR format: Missing required METAR/SPECI identifier or station code\n",
      "          METAR: 202301120200 METAR VEPT 120200Z 33002KT 0100 R25/0250 FG VV/// 09/08 Q1014 NOSIG...\n",
      "[WARNING] No station code found in METAR: 202301120200 METAR VEPT 120200Z 33002KT 0100 R25/0...\n",
      "[WARNING] [Line 536] Invalid METAR format: Missing required METAR/SPECI identifier or station code\n",
      "          METAR: 202301120230 METAR VEPT 120230Z 28002KT 0100 R25/0250 FG VV/// 09/08 Q1015 NOSIG...\n",
      "[WARNING] No station code found in METAR: 202301120230 METAR VEPT 120230Z 28002KT 0100 R25/0...\n",
      "[WARNING] [Line 537] Invalid METAR format: Missing required METAR/SPECI identifier or station code\n",
      "          METAR: 202301120300 METAR VEPT 120300Z 23001KT 0100 R25/0250 FG VV/// 09/08 Q1015 NOSIG...\n",
      "[WARNING] No station code found in METAR: 202301120300 METAR VEPT 120300Z 23001KT 0100 R25/0...\n",
      "[WARNING] [Line 538] Invalid METAR format: Missing required METAR/SPECI identifier or station code\n",
      "          METAR: 202301120330 METAR VEPT 120330Z 26002KT 0200 R25/0400 FG VV/// 09/08 Q1015 NOSIG...\n",
      "[WARNING] No station code found in METAR: 202301120330 METAR VEPT 120330Z 26002KT 0200 R25/0...\n",
      "[WARNING] [Line 539] Invalid METAR format: Missing required METAR/SPECI identifier or station code\n",
      "          METAR: 202301120400 METAR VEPT 120400Z 24002KT 0300 R25/0475 FG VV/// 09/09 Q1015 BECMG...\n",
      "[WARNING] No station code found in METAR: 202301120400 METAR VEPT 120400Z 24002KT 0300 R25/0...\n",
      "[WARNING] [Line 540] Invalid METAR format: Missing required METAR/SPECI identifier or station code\n",
      "          METAR: 202301120430 METAR VEPT 120430Z 26001KT 0400 R25/0775 FG VV/// 10/09 Q1015 NOSIG...\n",
      "[WARNING] No station code found in METAR: 202301120430 METAR VEPT 120430Z 26001KT 0400 R25/0...\n",
      "[WARNING] [Line 541] Invalid METAR format: Missing required METAR/SPECI identifier or station code\n",
      "          METAR: 202301120500 METAR VEPT 120500Z 00000KT 0400 R25/0800 FG VV/// 10/10 Q1015 NOSIG...\n",
      "[WARNING] No station code found in METAR: 202301120500 METAR VEPT 120500Z 00000KT 0400 R25/0...\n",
      "[WARNING] [Line 542] Invalid METAR format: Missing required METAR/SPECI identifier or station code\n",
      "          METAR: 202301120530 METAR VEPT 120530Z 28002KT 0500 R25/0800 FG VV/// 10/09 Q1015 BECMG...\n",
      "[WARNING] No station code found in METAR: 202301120530 METAR VEPT 120530Z 28002KT 0500 R25/0...\n",
      "[WARNING] [Line 543] Invalid METAR format: Missing required METAR/SPECI identifier or station code\n",
      "          METAR: 202301120600 METAR VEPT 120600Z 27003KT 0700 R25/0900 FG VV/// 11/10 Q1014 NOSIG...\n",
      "[WARNING] No station code found in METAR: 202301120600 METAR VEPT 120600Z 27003KT 0700 R25/0...\n",
      "[WARNING] [Line 544] Invalid METAR format: Missing required METAR/SPECI identifier or station code\n",
      "          METAR: 202301120630 METAR VEPT 120630Z 25004KT 0700 R25/0900 FG FEW010 SCT020 12/11 Q10...\n",
      "[WARNING] No station code found in METAR: 202301120630 METAR VEPT 120630Z 25004KT 0700 R25/0...\n",
      "[WARNING] [Line 545] Invalid METAR format: Missing required METAR/SPECI identifier or station code\n",
      "          METAR: 202301120700 METAR VEPT 120700Z 26003KT 0800 R25/1150 FG FEW015 13/11 Q1013 NOSI...\n",
      "[WARNING] No station code found in METAR: 202301120700 METAR VEPT 120700Z 26003KT 0800 R25/1...\n",
      "[WARNING] [Line 546] Invalid METAR format: Missing required METAR/SPECI identifier or station code\n",
      "          METAR: 202301120730 METAR VEPT 120730Z 31003KT 0900 R25/1200 FG FEW015 15/11 Q1012 NOSI...\n",
      "[WARNING] No station code found in METAR: 202301120730 METAR VEPT 120730Z 31003KT 0900 R25/1...\n",
      "[WARNING] [Line 547] Invalid METAR format: Missing required METAR/SPECI identifier or station code\n",
      "          METAR: 202301120800 METAR VEPT 120800Z 33004KT 1000 R25/1200 BR NSC 15/11 Q1012 NOSIG=...\n",
      "[WARNING] No station code found in METAR: 202301120800 METAR VEPT 120800Z 33004KT 1000 R25/1...\n",
      "[WARNING] [Line 548] Invalid METAR format: Missing required METAR/SPECI identifier or station code\n",
      "          METAR: 202301120830 METAR VEPT 120830Z 01003KT 1000 R25/1200 BR NSC 14/11 Q1012 NOSIG=...\n",
      "[WARNING] No station code found in METAR: 202301120830 METAR VEPT 120830Z 01003KT 1000 R25/1...\n",
      "[WARNING] [Line 549] Invalid METAR format: Missing required METAR/SPECI identifier or station code\n",
      "          METAR: 202301120900 METAR VEPT 120900Z 34004KT 1100 R25/1200 BR NSC 15/11 Q1011 NOSIG=...\n",
      "[WARNING] No station code found in METAR: 202301120900 METAR VEPT 120900Z 34004KT 1100 R25/1...\n",
      "[WARNING] [Line 550] Invalid METAR format: Missing required METAR/SPECI identifier or station code\n",
      "          METAR: 202301120930 METAR VEPT 120930Z 34004KT 1100 R25/1300 BR NSC 15/11 Q1011 NOSIG=...\n",
      "[WARNING] No station code found in METAR: 202301120930 METAR VEPT 120930Z 34004KT 1100 R25/1...\n",
      "[WARNING] [Line 551] Invalid METAR format: Missing required METAR/SPECI identifier or station code\n",
      "          METAR: 202301121000 METAR VEPT 121000Z 33005KT 1200 R25/1300 BR NSC 15/12 Q1011 NOSIG=...\n",
      "[WARNING] No station code found in METAR: 202301121000 METAR VEPT 121000Z 33005KT 1200 R25/1...\n",
      "[WARNING] [Line 552] Invalid METAR format: Missing required METAR/SPECI identifier or station code\n",
      "          METAR: 202301121030 METAR VEPT 121030Z 32003KT 1200 R25/1500 BR NSC 15/11 Q1011 NOSIG=...\n",
      "[WARNING] No station code found in METAR: 202301121030 METAR VEPT 121030Z 32003KT 1200 R25/1...\n",
      "[WARNING] [Line 553] Invalid METAR format: Missing required METAR/SPECI identifier or station code\n",
      "          METAR: 202301121100 METAR VEPT 121100Z 33003KT 1200 R25/1500 BR NSC 15/12 Q1011 NOSIG=...\n",
      "[WARNING] No station code found in METAR: 202301121100 METAR VEPT 121100Z 33003KT 1200 R25/1...\n",
      "[WARNING] [Line 554] Invalid METAR format: Missing required METAR/SPECI identifier or station code\n",
      "          METAR: 202301121130 METAR VEPT 121130Z 33001KT 1200 R25/1800 BR NSC 15/11 Q1011 NOSIG=...\n",
      "[WARNING] No station code found in METAR: 202301121130 METAR VEPT 121130Z 33001KT 1200 R25/1...\n",
      "[WARNING] [Line 555] Invalid METAR format: Missing required METAR/SPECI identifier or station code\n",
      "          METAR: 202301121200 METAR VEPT 121200Z 00000KT 1000 R25/1800 BR NSC 14/11 Q1011 NOSIG=...\n",
      "[WARNING] No station code found in METAR: 202301121200 METAR VEPT 121200Z 00000KT 1000 R25/1...\n",
      "[WARNING] [Line 556] Invalid METAR format: Missing required METAR/SPECI identifier or station code\n",
      "          METAR: 202301121230 METAR VEPT 121230Z 00000KT 1000 R25/2000 BR NSC 13/11 Q1011 NOSIG=...\n",
      "[WARNING] No station code found in METAR: 202301121230 METAR VEPT 121230Z 00000KT 1000 R25/2...\n",
      "[WARNING] [Line 557] Invalid METAR format: Missing required METAR/SPECI identifier or station code\n",
      "          METAR: 202301121300 METAR VEPT 121300Z 00000KT 1000 R25/2000 BR NSC 13/11 Q1011 BECMG 0...\n",
      "[WARNING] No station code found in METAR: 202301121300 METAR VEPT 121300Z 00000KT 1000 R25/2...\n",
      "[WARNING] [Line 558] Invalid METAR format: Missing required METAR/SPECI identifier or station code\n",
      "          METAR: 202301121330 METAR VEPT 121330Z 00000KT 0900 R25/2000 MIFG NSC 13/11 Q1012 BECMG...\n",
      "[WARNING] No station code found in METAR: 202301121330 METAR VEPT 121330Z 00000KT 0900 R25/2...\n",
      "[WARNING] [Line 559] Invalid METAR format: Missing required METAR/SPECI identifier or station code\n",
      "          METAR: 202301121400 METAR VEPT 121400Z 00000KT 1000 R25/1800 MIFG NSC 12/11 Q1012 NOSIG...\n",
      "[WARNING] No station code found in METAR: 202301121400 METAR VEPT 121400Z 00000KT 1000 R25/1...\n",
      "[WARNING] [Line 560] Invalid METAR format: Missing required METAR/SPECI identifier or station code\n",
      "          METAR: 202301121430 METAR VEPT 121430Z 00000KT 1000 R25/1800 MIFG NSC 12/10 Q1013 NOSIG...\n",
      "[WARNING] No station code found in METAR: 202301121430 METAR VEPT 121430Z 00000KT 1000 R25/1...\n",
      "[WARNING] [Line 561] Invalid METAR format: Missing required METAR/SPECI identifier or station code\n",
      "          METAR: 202301121500 METAR VEPT 121500Z 00000KT 1000 R25/1400 MIFG NSC 12/10 Q1013 BECMG...\n",
      "[WARNING] No station code found in METAR: 202301121500 METAR VEPT 121500Z 00000KT 1000 R25/1...\n",
      "[WARNING] [Line 562] Invalid METAR format: Missing required METAR/SPECI identifier or station code\n",
      "          METAR: 202301121530 METAR VEPT 121530Z 00000KT 0800 R25/1400 FG NSC 11/10 Q1013 NOSIG=...\n",
      "[WARNING] No station code found in METAR: 202301121530 METAR VEPT 121530Z 00000KT 0800 R25/1...\n",
      "[WARNING] [Line 563] Invalid METAR format: Missing required METAR/SPECI identifier or station code\n",
      "          METAR: 202301121600 METAR VEPT 121600Z 01003KT 0800 R25/1300 FG FEW010 SCT015 11/10 Q10...\n",
      "[WARNING] No station code found in METAR: 202301121600 METAR VEPT 121600Z 01003KT 0800 R25/1...\n",
      "[WARNING] [Line 564] Invalid METAR format: Missing required METAR/SPECI identifier or station code\n",
      "          METAR: 202301121630 METAR VEPT 121630Z 00000KT 0800 R25/1300 FG FEW010 SCT015 11/10 Q10...\n",
      "[WARNING] No station code found in METAR: 202301121630 METAR VEPT 121630Z 00000KT 0800 R25/1...\n",
      "[WARNING] [Line 565] Invalid METAR format: Missing required METAR/SPECI identifier or station code\n",
      "          METAR: 202301121700 METAR VEPT 121700Z 00000KT 0800 R25/1300 FG FEW010 SCT015 11/10 Q10...\n",
      "[WARNING] No station code found in METAR: 202301121700 METAR VEPT 121700Z 00000KT 0800 R25/1...\n",
      "[WARNING] [Line 566] Invalid METAR format: Missing required METAR/SPECI identifier or station code\n",
      "          METAR: 202301121730 METAR VEPT 121730Z 00000KT 0800 R25/1100 FG FEW010 SCT015 10/09 Q10...\n",
      "[WARNING] No station code found in METAR: 202301121730 METAR VEPT 121730Z 00000KT 0800 R25/1...\n",
      "[WARNING] [Line 567] Invalid METAR format: Missing required METAR/SPECI identifier or station code\n",
      "          METAR: 202301121800 METAR VEPT 121800Z 00000KT 0600 R25/0900 FG VV/// 10/09 Q1013 NOSIG...\n",
      "[WARNING] No station code found in METAR: 202301121800 METAR VEPT 121800Z 00000KT 0600 R25/0...\n",
      "[WARNING] [Line 568] Invalid METAR format: Missing required METAR/SPECI identifier or station code\n",
      "          METAR: 202301121830 METAR VEPT 121830Z 00000KT 0400 R25/0500 FG VV/// 10/09 Q1013 NOSIG...\n",
      "[WARNING] No station code found in METAR: 202301121830 METAR VEPT 121830Z 00000KT 0400 R25/0...\n",
      "[WARNING] [Line 569] Invalid METAR format: Missing required METAR/SPECI identifier or station code\n",
      "          METAR: 202301121900 METAR VEPT 121900Z 00000KT 0150 R25/0175 FG VV/// 10/09 Q1013 NOSIG...\n",
      "[WARNING] No station code found in METAR: 202301121900 METAR VEPT 121900Z 00000KT 0150 R25/0...\n",
      "[WARNING] [Line 570] Invalid METAR format: Missing required METAR/SPECI identifier or station code\n",
      "          METAR: 202301121930 METAR VEPT 121930Z 00000KT 0150 R25/0175 FG VV/// 10/09 Q1013 NOSIG...\n",
      "[WARNING] No station code found in METAR: 202301121930 METAR VEPT 121930Z 00000KT 0150 R25/0...\n",
      "[WARNING] [Line 571] Invalid METAR format: Missing required METAR/SPECI identifier or station code\n",
      "          METAR: 202301122000 METAR VEPT 122000Z 00000KT 0150 R25/0200 FG VV/// 10/10 Q1013 NOSIG...\n",
      "[WARNING] No station code found in METAR: 202301122000 METAR VEPT 122000Z 00000KT 0150 R25/0...\n",
      "[WARNING] [Line 572] Invalid METAR format: Missing required METAR/SPECI identifier or station code\n",
      "          METAR: 202301122030 METAR VEPT 122030Z 00000KT 0150 R25/0200 FG VV/// 10/09 Q1013 NOSIG...\n",
      "[WARNING] No station code found in METAR: 202301122030 METAR VEPT 122030Z 00000KT 0150 R25/0...\n",
      "[WARNING] [Line 573] Invalid METAR format: Missing required METAR/SPECI identifier or station code\n",
      "          METAR: 202301122100 METAR VEPT 122100Z 00000KT 0150 R25/0225 FG VV/// 10/10 Q1012 NOSIG...\n",
      "[WARNING] No station code found in METAR: 202301122100 METAR VEPT 122100Z 00000KT 0150 R25/0...\n",
      "[WARNING] [Line 574] Invalid METAR format: Missing required METAR/SPECI identifier or station code\n",
      "          METAR: 202301122130 METAR VEPT 122130Z 00000KT 0150 R25/0200 FG VV/// 10/10 Q1012 NOSIG...\n",
      "[WARNING] No station code found in METAR: 202301122130 METAR VEPT 122130Z 00000KT 0150 R25/0...\n",
      "[WARNING] [Line 575] Invalid METAR format: Missing required METAR/SPECI identifier or station code\n",
      "          METAR: 202301122200 METAR VEPT 122200Z 00000KT 0150 R25/0200 FG VV/// 10/10 Q1012 NOSIG...\n",
      "[WARNING] No station code found in METAR: 202301122200 METAR VEPT 122200Z 00000KT 0150 R25/0...\n",
      "[WARNING] [Line 576] Invalid METAR format: Missing required METAR/SPECI identifier or station code\n",
      "          METAR: 202301122230 METAR VEPT 122230Z 00000KT 0150 R25/0200 FG VV/// 10/09 Q1012 NOSIG...\n",
      "[WARNING] No station code found in METAR: 202301122230 METAR VEPT 122230Z 00000KT 0150 R25/0...\n",
      "[WARNING] [Line 577] Invalid METAR format: Missing required METAR/SPECI identifier or station code\n",
      "          METAR: 202301122300 METAR VEPT 122300Z 00000KT 0150 R25/0200 FG VV/// 10/09 Q1012 NOSIG...\n",
      "[WARNING] No station code found in METAR: 202301122300 METAR VEPT 122300Z 00000KT 0150 R25/0...\n",
      "[WARNING] [Line 578] Invalid METAR format: Missing required METAR/SPECI identifier or station code\n",
      "          METAR: 202301122330 METAR VEPT 122330Z 00000KT 0150 R25/0225 FG VV/// 10/09 Q1012 NOSIG...\n",
      "[WARNING] No station code found in METAR: 202301122330 METAR VEPT 122330Z 00000KT 0150 R25/0...\n",
      "[WARNING] [Line 579] Invalid METAR format: Missing required METAR/SPECI identifier or station code\n",
      "          METAR: 202301130000 METAR VEPT 130000Z 00000KT 0150 R25/0275 FG VV/// 10/09 Q1012 NOSIG...\n",
      "[WARNING] No station code found in METAR: 202301130000 METAR VEPT 130000Z 00000KT 0150 R25/0...\n",
      "[WARNING] [Line 580] Invalid METAR format: Missing required METAR/SPECI identifier or station code\n",
      "          METAR: 202301130030 METAR VEPT 130030Z 00000KT 0150 R25/0200 FG VV/// 10/09 Q1013 NOSIG...\n",
      "[WARNING] No station code found in METAR: 202301130030 METAR VEPT 130030Z 00000KT 0150 R25/0...\n",
      "[WARNING] [Line 581] Invalid METAR format: Missing required METAR/SPECI identifier or station code\n",
      "          METAR: 202301130100 METAR VEPT 130100Z 00000KT 0150 R25/0250 FG VV/// 10/09 Q1013 NOSIG...\n",
      "[WARNING] No station code found in METAR: 202301130100 METAR VEPT 130100Z 00000KT 0150 R25/0...\n",
      "[WARNING] [Line 582] Invalid METAR format: Missing required METAR/SPECI identifier or station code\n",
      "          METAR: 202301130130 METAR VEPT 130130Z 00000KT 0200 R25/0400 FG VV/// 10/09 Q1014 NOSIG...\n",
      "[WARNING] No station code found in METAR: 202301130130 METAR VEPT 130130Z 00000KT 0200 R25/0...\n",
      "[WARNING] [Line 583] Invalid METAR format: Missing required METAR/SPECI identifier or station code\n",
      "          METAR: 202301130200 METAR VEPT 130200Z 00000KT 0100 R25/0300 FG VV/// 10/09 Q1014 NOSIG...\n",
      "[WARNING] No station code found in METAR: 202301130200 METAR VEPT 130200Z 00000KT 0100 R25/0...\n",
      "[WARNING] [Line 584] Invalid METAR format: Missing required METAR/SPECI identifier or station code\n",
      "          METAR: 202301130230 METAR VEPT 130230Z 00000KT 0050 R25/0300 FG VV/// 10/09 Q1015 NOSIG...\n",
      "[WARNING] No station code found in METAR: 202301130230 METAR VEPT 130230Z 00000KT 0050 R25/0...\n",
      "[WARNING] [Line 585] Invalid METAR format: Missing required METAR/SPECI identifier or station code\n",
      "          METAR: 202301130300 METAR VEPT 130300Z 00000KT 0050 R25/0300 FG VV/// 10/09 Q1015 NOSIG...\n",
      "[WARNING] No station code found in METAR: 202301130300 METAR VEPT 130300Z 00000KT 0050 R25/0...\n",
      "[WARNING] [Line 586] Invalid METAR format: Missing required METAR/SPECI identifier or station code\n",
      "          METAR: 202301130330 METAR VEPT 130330Z 00000KT 0100 R25/0400 FG VV/// 11/10 Q1015 NOSIG...\n",
      "[WARNING] No station code found in METAR: 202301130330 METAR VEPT 130330Z 00000KT 0100 R25/0...\n",
      "[WARNING] [Line 587] Invalid METAR format: Missing required METAR/SPECI identifier or station code\n",
      "          METAR: 202301130400 METAR VEPT 130400Z 00000KT 0200 R25/0600 FG VV/// 11/10 Q1016 NOSIG...\n",
      "[WARNING] No station code found in METAR: 202301130400 METAR VEPT 130400Z 00000KT 0200 R25/0...\n",
      "[WARNING] [Line 588] Invalid METAR format: Missing required METAR/SPECI identifier or station code\n",
      "          METAR: 202301130430 METAR VEPT 130430Z 00000KT 0200 R25/0600 FG VV/// 11/10 Q1016 NOSIG...\n",
      "[WARNING] No station code found in METAR: 202301130430 METAR VEPT 130430Z 00000KT 0200 R25/0...\n",
      "[WARNING] [Line 589] Invalid METAR format: Missing required METAR/SPECI identifier or station code\n",
      "          METAR: 202301130500 METAR VEPT 130500Z 00000KT 0400 R25/0800 FG VV/// 12/11 Q1016 NOSIG...\n",
      "[WARNING] No station code found in METAR: 202301130500 METAR VEPT 130500Z 00000KT 0400 R25/0...\n",
      "[WARNING] [Line 590] Invalid METAR format: Missing required METAR/SPECI identifier or station code\n",
      "          METAR: 202301130530 METAR VEPT 130530Z 00000KT 0600 R25/0900 FG NSC 13/12 Q1016 BECMG 0...\n",
      "[WARNING] No station code found in METAR: 202301130530 METAR VEPT 130530Z 00000KT 0600 R25/0...\n",
      "[WARNING] [Line 591] Invalid METAR format: Missing required METAR/SPECI identifier or station code\n",
      "          METAR: 202301130600 METAR VEPT 130600Z 00000KT 0800 R25/1000 FG NSC 14/12 Q1015 NOSIG=...\n",
      "[WARNING] No station code found in METAR: 202301130600 METAR VEPT 130600Z 00000KT 0800 R25/1...\n",
      "[WARNING] [Line 592] Invalid METAR format: Missing required METAR/SPECI identifier or station code\n",
      "          METAR: 202301130630 METAR VEPT 130630Z 33003KT 0900 R25/1100 MIFG NSC 15/13 Q1015 NOSIG...\n",
      "[WARNING] No station code found in METAR: 202301130630 METAR VEPT 130630Z 33003KT 0900 R25/1...\n",
      "[WARNING] [Line 593] Invalid METAR format: Missing required METAR/SPECI identifier or station code\n",
      "          METAR: 202301130700 METAR VEPT 130700Z 33004KT 1000 R25/1200 BR NSC 16/13 Q1014 NOSIG=...\n",
      "[WARNING] No station code found in METAR: 202301130700 METAR VEPT 130700Z 33004KT 1000 R25/1...\n",
      "[WARNING] [Line 594] Invalid METAR format: Missing required METAR/SPECI identifier or station code\n",
      "          METAR: 202301130730 METAR VEPT 130730Z 34003KT 1200 R25/1300 BR NSC 17/13 Q1014 BECMG 1...\n",
      "[WARNING] No station code found in METAR: 202301130730 METAR VEPT 130730Z 34003KT 1200 R25/1...\n",
      "[WARNING] [Line 595] Invalid METAR format: Missing required METAR/SPECI identifier or station code\n",
      "          METAR: 202301130800 METAR VEPT 130800Z 32003KT 1200 R25/1400 BR NSC 18/13 Q1013 BECMG 1...\n",
      "[WARNING] No station code found in METAR: 202301130800 METAR VEPT 130800Z 32003KT 1200 R25/1...\n",
      "[WARNING] [Line 596] Invalid METAR format: Missing required METAR/SPECI identifier or station code\n",
      "          METAR: 202301130830 METAR VEPT 130830Z 31004KT 1200 R25/1600 BR NSC 19/14 Q1013 BECMG 1...\n",
      "[WARNING] No station code found in METAR: 202301130830 METAR VEPT 130830Z 31004KT 1200 R25/1...\n",
      "[WARNING] [Line 597] Invalid METAR format: Missing required METAR/SPECI identifier or station code\n",
      "          METAR: 202301130900 METAR VEPT 130900Z 34003KT 1500 R25/1500 BR NSC 20/14 Q1012 NOSIG=...\n",
      "[WARNING] No station code found in METAR: 202301130900 METAR VEPT 130900Z 34003KT 1500 R25/1...\n",
      "[WARNING] [Line 598] Invalid METAR format: Missing required METAR/SPECI identifier or station code\n",
      "          METAR: 202301130930 METAR VEPT 130930Z 33003KT 1600 BR NSC 20/13 Q1012 NOSIG=...\n",
      "[WARNING] No station code found in METAR: 202301130930 METAR VEPT 130930Z 33003KT 1600 BR NS...\n",
      "[WARNING] [Line 599] Invalid METAR format: Missing required METAR/SPECI identifier or station code\n",
      "          METAR: 202301131000 METAR VEPT 131000Z 32004KT 1600 BR NSC 20/13 Q1012 NOSIG=...\n",
      "[WARNING] No station code found in METAR: 202301131000 METAR VEPT 131000Z 32004KT 1600 BR NS...\n",
      "[PROGRESS] Processed 600/1489 METARs...\n",
      "[WARNING] [Line 600] Invalid METAR format: Missing required METAR/SPECI identifier or station code\n",
      "          METAR: 202301131030 METAR VEPT 131030Z 34002KT 1800 BR NSC 20/13 Q1012 NOSIG=...\n",
      "[WARNING] No station code found in METAR: 202301131030 METAR VEPT 131030Z 34002KT 1800 BR NS...\n",
      "[WARNING] [Line 601] Invalid METAR format: Missing required METAR/SPECI identifier or station code\n",
      "          METAR: 202301131100 METAR VEPT 131100Z 00000KT 2000 HZ NSC 20/13 Q1012 NOSIG=...\n",
      "[WARNING] No station code found in METAR: 202301131100 METAR VEPT 131100Z 00000KT 2000 HZ NS...\n",
      "[WARNING] [Line 602] Invalid METAR format: Missing required METAR/SPECI identifier or station code\n",
      "          METAR: 202301131130 METAR VEPT 131130Z 32002KT 2000 HZ NSC 19/14 Q1012 NOSIG=...\n",
      "[WARNING] No station code found in METAR: 202301131130 METAR VEPT 131130Z 32002KT 2000 HZ NS...\n",
      "[WARNING] [Line 603] Invalid METAR format: Missing required METAR/SPECI identifier or station code\n",
      "          METAR: 202301131200 METAR VEPT 131200Z 02003KT 1800 BR NSC 18/13 Q1012 NOSIG=...\n",
      "[WARNING] No station code found in METAR: 202301131200 METAR VEPT 131200Z 02003KT 1800 BR NS...\n",
      "[WARNING] [Line 604] Invalid METAR format: Missing required METAR/SPECI identifier or station code\n",
      "          METAR: 202301131230 METAR VEPT 131230Z 00000KT 1800 BR NSC 17/13 Q1012 NOSIG=...\n",
      "[WARNING] No station code found in METAR: 202301131230 METAR VEPT 131230Z 00000KT 1800 BR NS...\n",
      "[WARNING] [Line 605] Invalid METAR format: Missing required METAR/SPECI identifier or station code\n",
      "          METAR: 202301131300 METAR VEPT 131300Z 00000KT 1800 BR NSC 16/12 Q1012 NOSIG=...\n",
      "[WARNING] No station code found in METAR: 202301131300 METAR VEPT 131300Z 00000KT 1800 BR NS...\n",
      "[WARNING] [Line 606] Invalid METAR format: Missing required METAR/SPECI identifier or station code\n",
      "          METAR: 202301131330 METAR VEPT 131330Z 00000KT 1800 BR NSC 15/12 Q1013 NOSIG=...\n",
      "[WARNING] No station code found in METAR: 202301131330 METAR VEPT 131330Z 00000KT 1800 BR NS...\n",
      "[WARNING] [Line 607] Invalid METAR format: Missing required METAR/SPECI identifier or station code\n",
      "          METAR: 202301131400 METAR VEPT 131400Z 00000KT 1600 BR NSC 15/12 Q1013 BECMG 1500 BR=...\n",
      "[WARNING] No station code found in METAR: 202301131400 METAR VEPT 131400Z 00000KT 1600 BR NS...\n",
      "[WARNING] [Line 608] Invalid METAR format: Missing required METAR/SPECI identifier or station code\n",
      "          METAR: 202301131430 METAR VEPT 131430Z 00000KT 1500 R25/2000 BR NSC 14/12 Q1013 NOSIG=...\n",
      "[WARNING] No station code found in METAR: 202301131430 METAR VEPT 131430Z 00000KT 1500 R25/2...\n",
      "[WARNING] [Line 609] Invalid METAR format: Missing required METAR/SPECI identifier or station code\n",
      "          METAR: 202301131500 METAR VEPT 131500Z 00000KT 1500 R25/2000 BR NSC 14/12 Q1013 NOSIG=...\n",
      "[WARNING] No station code found in METAR: 202301131500 METAR VEPT 131500Z 00000KT 1500 R25/2...\n",
      "[WARNING] [Line 610] Invalid METAR format: Missing required METAR/SPECI identifier or station code\n",
      "          METAR: 202301131530 METAR VEPT 131530Z 00000KT 1200 R25/1600 BR NSC 14/12 Q1013 BECMG 0...\n",
      "[WARNING] No station code found in METAR: 202301131530 METAR VEPT 131530Z 00000KT 1200 R25/1...\n",
      "[WARNING] [Line 611] Invalid METAR format: Missing required METAR/SPECI identifier or station code\n",
      "          METAR: 202301131600 METAR VEPT 131600Z 00000KT 1200 R25/2000 BR NSC 13/12 Q1014 BECMG 0...\n",
      "[WARNING] No station code found in METAR: 202301131600 METAR VEPT 131600Z 00000KT 1200 R25/2...\n",
      "[WARNING] [Line 612] Invalid METAR format: Missing required METAR/SPECI identifier or station code\n",
      "          METAR: 202301131630 METAR VEPT 131630Z 00000KT 1200 R25/1700 BR NSC 13/11 Q1014 NOSIG=...\n",
      "[WARNING] No station code found in METAR: 202301131630 METAR VEPT 131630Z 00000KT 1200 R25/1...\n",
      "[WARNING] [Line 613] Invalid METAR format: Missing required METAR/SPECI identifier or station code\n",
      "          METAR: 202301131700 METAR VEPT 131700Z 00000KT 1000 R25/1500 BR NSC 13/11 Q1014 NOSIG=...\n",
      "[WARNING] No station code found in METAR: 202301131700 METAR VEPT 131700Z 00000KT 1000 R25/1...\n",
      "[WARNING] [Line 614] Invalid METAR format: Missing required METAR/SPECI identifier or station code\n",
      "          METAR: 202301131730 METAR VEPT 131730Z 00000KT 1000 R25/1600 BR NSC 12/11 Q1013 NOSIG=...\n",
      "[WARNING] No station code found in METAR: 202301131730 METAR VEPT 131730Z 00000KT 1000 R25/1...\n",
      "[WARNING] [Line 615] Invalid METAR format: Missing required METAR/SPECI identifier or station code\n",
      "          METAR: 202301131800 METAR VEPT 131800Z 00000KT 0800 R25/1300 FG NSC 12/11 Q1013 NOSIG=...\n",
      "[WARNING] No station code found in METAR: 202301131800 METAR VEPT 131800Z 00000KT 0800 R25/1...\n",
      "[WARNING] [Line 616] Invalid METAR format: Missing required METAR/SPECI identifier or station code\n",
      "          METAR: 202301131830 METAR VEPT 131830Z 00000KT 0800 R25/1200 FG NSC 11/10 Q1013 NOSIG=...\n",
      "[WARNING] No station code found in METAR: 202301131830 METAR VEPT 131830Z 00000KT 0800 R25/1...\n",
      "[WARNING] [Line 617] Invalid METAR format: Missing required METAR/SPECI identifier or station code\n",
      "          METAR: 202301131900 METAR VEPT 131900Z 00000KT 0800 R25/1200 FG NSC 11/11 Q1012 NOSIG=...\n",
      "[WARNING] No station code found in METAR: 202301131900 METAR VEPT 131900Z 00000KT 0800 R25/1...\n",
      "[WARNING] [Line 618] Invalid METAR format: Missing required METAR/SPECI identifier or station code\n",
      "          METAR: 202301131930 METAR VEPT 131930Z 00000KT 0800 R25/1700 FG NSC 12/11 Q1013 NOSIG=...\n",
      "[WARNING] No station code found in METAR: 202301131930 METAR VEPT 131930Z 00000KT 0800 R25/1...\n",
      "[WARNING] [Line 619] Invalid METAR format: Missing required METAR/SPECI identifier or station code\n",
      "          METAR: 202301132000 METAR VEPT 132000Z 00000KT 0800 R25/1500 FG NSC 12/11 Q1012 NOSIG=...\n",
      "[WARNING] No station code found in METAR: 202301132000 METAR VEPT 132000Z 00000KT 0800 R25/1...\n",
      "[WARNING] [Line 620] Invalid METAR format: Missing required METAR/SPECI identifier or station code\n",
      "          METAR: 202301132030 METAR VEPT 132030Z 00000KT 0800 R25/1200 FG NSC 12/10 Q1012 NOSIG=...\n",
      "[WARNING] No station code found in METAR: 202301132030 METAR VEPT 132030Z 00000KT 0800 R25/1...\n",
      "[WARNING] [Line 621] Invalid METAR format: Missing required METAR/SPECI identifier or station code\n",
      "          METAR: 202301132100 METAR VEPT 132100Z 00000KT 0800 R25/1300 FG NSC 11/10 Q1012 NOSIG=...\n",
      "[WARNING] No station code found in METAR: 202301132100 METAR VEPT 132100Z 00000KT 0800 R25/1...\n",
      "[WARNING] [Line 622] Invalid METAR format: Missing required METAR/SPECI identifier or station code\n",
      "          METAR: 202301132130 METAR VEPT 132130Z 00000KT 0800 R25/1100 FG NSC 11/10 Q1012 NOSIG=...\n",
      "[WARNING] No station code found in METAR: 202301132130 METAR VEPT 132130Z 00000KT 0800 R25/1...\n",
      "[WARNING] [Line 623] Invalid METAR format: Missing required METAR/SPECI identifier or station code\n",
      "          METAR: 202301132200 METAR VEPT 132200Z 00000KT 0800 R25/1100 FG NSC 11/10 Q1012 BECMG 0...\n",
      "[WARNING] No station code found in METAR: 202301132200 METAR VEPT 132200Z 00000KT 0800 R25/1...\n",
      "[WARNING] [Line 624] Invalid METAR format: Missing required METAR/SPECI identifier or station code\n",
      "          METAR: 202301132230 METAR VEPT 132230Z 00000KT 0600 R25/1200 FG NSC 11/10 Q1012 NOSIG=...\n",
      "[WARNING] No station code found in METAR: 202301132230 METAR VEPT 132230Z 00000KT 0600 R25/1...\n",
      "[WARNING] [Line 625] Invalid METAR format: Missing required METAR/SPECI identifier or station code\n",
      "          METAR: 202301132300 METAR VEPT 132300Z 00000KT 0500 R25/0900 FG NSC 11/10 Q1012 BECMG 0...\n",
      "[WARNING] No station code found in METAR: 202301132300 METAR VEPT 132300Z 00000KT 0500 R25/0...\n",
      "[WARNING] [Line 626] Invalid METAR format: Missing required METAR/SPECI identifier or station code\n",
      "          METAR: 202301132330 METAR VEPT 132330Z 00000KT 0350 R25/0600 FG NSC 11/10 Q1012 NOSIG=...\n",
      "[WARNING] No station code found in METAR: 202301132330 METAR VEPT 132330Z 00000KT 0350 R25/0...\n",
      "[WARNING] [Line 627] Invalid METAR format: Missing required METAR/SPECI identifier or station code\n",
      "          METAR: 202301140000 METAR VEPT 140000Z 00000KT 0350 R25/0900 FG NSC 11/10 Q1012 NOSIG=...\n",
      "[WARNING] No station code found in METAR: 202301140000 METAR VEPT 140000Z 00000KT 0350 R25/0...\n",
      "[WARNING] [Line 628] Invalid METAR format: Missing required METAR/SPECI identifier or station code\n",
      "          METAR: 202301140030 METAR VEPT 140030Z 00000KT 0350 R25/0700 FG NSC 10/09 Q1012 NOSIG=...\n",
      "[WARNING] No station code found in METAR: 202301140030 METAR VEPT 140030Z 00000KT 0350 R25/0...\n",
      "[WARNING] [Line 629] Invalid METAR format: Missing required METAR/SPECI identifier or station code\n",
      "          METAR: 202301140100 METAR VEPT 140100Z 00000KT 0200 R25/0900 FG NSC 10/09 Q1013 NOSIG=...\n",
      "[WARNING] No station code found in METAR: 202301140100 METAR VEPT 140100Z 00000KT 0200 R25/0...\n",
      "[WARNING] [Line 630] Invalid METAR format: Missing required METAR/SPECI identifier or station code\n",
      "          METAR: 202301140130 METAR VEPT 140130Z 00000KT 0200 R25/0700 FG SCT018 10/09 Q1013 NOSI...\n",
      "[WARNING] No station code found in METAR: 202301140130 METAR VEPT 140130Z 00000KT 0200 R25/0...\n",
      "[WARNING] [Line 631] Invalid METAR format: Missing required METAR/SPECI identifier or station code\n",
      "          METAR: 202301140200 METAR VEPT 140200Z 00000KT 0400 R25/0700 FG SCT018 11/10 Q1013 NOSI...\n",
      "[WARNING] No station code found in METAR: 202301140200 METAR VEPT 140200Z 00000KT 0400 R25/0...\n",
      "[WARNING] [Line 632] Invalid METAR format: Missing required METAR/SPECI identifier or station code\n",
      "          METAR: 202301140230 METAR VEPT 140230Z 00000KT 0400 R25/0700 FG SCT100 12/11 Q1014 NOSI...\n",
      "[WARNING] No station code found in METAR: 202301140230 METAR VEPT 140230Z 00000KT 0400 R25/0...\n",
      "[WARNING] [Line 633] Invalid METAR format: Missing required METAR/SPECI identifier or station code\n",
      "          METAR: 202301140300 METAR VEPT 140300Z 00000KT 0400 R25/0800 FG SCT018 14/13 Q1014 NOSI...\n",
      "[WARNING] No station code found in METAR: 202301140300 METAR VEPT 140300Z 00000KT 0400 R25/0...\n",
      "[WARNING] [Line 634] Invalid METAR format: Missing required METAR/SPECI identifier or station code\n",
      "          METAR: 202301140330 METAR VEPT 140330Z 24003KT 0600 R25/0950 FG FEW100 16/14 Q1015 BECM...\n",
      "[WARNING] No station code found in METAR: 202301140330 METAR VEPT 140330Z 24003KT 0600 R25/0...\n",
      "[WARNING] [Line 635] Invalid METAR format: Missing required METAR/SPECI identifier or station code\n",
      "          METAR: 202301140400 METAR VEPT 140400Z 24004KT 0800 R25/1150 FG NSC 17/14 Q1015 NOSIG=...\n",
      "[WARNING] No station code found in METAR: 202301140400 METAR VEPT 140400Z 24004KT 0800 R25/1...\n",
      "[WARNING] [Line 636] Invalid METAR format: Missing required METAR/SPECI identifier or station code\n",
      "          METAR: 202301140430 METAR VEPT 140430Z 23003KT 1000 R25/1300 MIFG NSC 19/13 Q1015 NOSIG...\n",
      "[WARNING] No station code found in METAR: 202301140430 METAR VEPT 140430Z 23003KT 1000 R25/1...\n",
      "[WARNING] [Line 637] Invalid METAR format: Missing required METAR/SPECI identifier or station code\n",
      "          METAR: 202301140500 METAR VEPT 140500Z 00000KT 1000 R25/1300 MIFG FEW100 20/15 Q1015 NO...\n",
      "[WARNING] No station code found in METAR: 202301140500 METAR VEPT 140500Z 00000KT 1000 R25/1...\n",
      "[WARNING] [Line 638] Invalid METAR format: Missing required METAR/SPECI identifier or station code\n",
      "          METAR: 202301140530 METAR VEPT 140530Z 30003KT 1200 R25/1500 BR FEW100 22/14 Q1014 BECM...\n",
      "[WARNING] No station code found in METAR: 202301140530 METAR VEPT 140530Z 30003KT 1200 R25/1...\n",
      "[WARNING] [Line 639] Invalid METAR format: Missing required METAR/SPECI identifier or station code\n",
      "          METAR: 202301140600 METAR VEPT 140600Z 29006KT 1200 R25/1500 BR NSC 23/15 Q1014 BECMG 1...\n",
      "[WARNING] No station code found in METAR: 202301140600 METAR VEPT 140600Z 29006KT 1200 R25/1...\n",
      "[WARNING] [Line 640] Invalid METAR format: Missing required METAR/SPECI identifier or station code\n",
      "          METAR: 202301140630 METAR VEPT 140630Z 26004KT 1500 R25/1600 BR NSC 24/14 Q1013 NOSIG=...\n",
      "[WARNING] No station code found in METAR: 202301140630 METAR VEPT 140630Z 26004KT 1500 R25/1...\n",
      "[WARNING] [Line 641] Invalid METAR format: Missing required METAR/SPECI identifier or station code\n",
      "          METAR: 202301140700 METAR VEPT 140700Z 27006KT 1800 BR NSC 25/15 Q1012 NOSIG=...\n",
      "[WARNING] No station code found in METAR: 202301140700 METAR VEPT 140700Z 27006KT 1800 BR NS...\n",
      "[WARNING] [Line 642] Invalid METAR format: Missing required METAR/SPECI identifier or station code\n",
      "          METAR: 202301140730 METAR VEPT 140730Z 29004KT 2000 HZ NSC 25/14 Q1012 NOSIG=...\n",
      "[WARNING] No station code found in METAR: 202301140730 METAR VEPT 140730Z 29004KT 2000 HZ NS...\n",
      "[WARNING] [Line 643] Invalid METAR format: Missing required METAR/SPECI identifier or station code\n",
      "          METAR: 202301140800 METAR VEPT 140800Z 29006KT 2500 HZ NSC 26/12 Q1011 BECMG 3000 HZ=...\n",
      "[WARNING] No station code found in METAR: 202301140800 METAR VEPT 140800Z 29006KT 2500 HZ NS...\n",
      "[WARNING] [Line 644] Invalid METAR format: Missing required METAR/SPECI identifier or station code\n",
      "          METAR: 202301140830 METAR VEPT 140830Z 32005KT 3000 HZ NSC 26/12 Q1011 NOSIG=...\n",
      "[WARNING] No station code found in METAR: 202301140830 METAR VEPT 140830Z 32005KT 3000 HZ NS...\n",
      "[WARNING] [Line 645] Invalid METAR format: Missing required METAR/SPECI identifier or station code\n",
      "          METAR: 202301140900 METAR VEPT 140900Z 32006KT 3500 HZ NSC 26/12 Q1011 NOSIG=...\n",
      "[WARNING] No station code found in METAR: 202301140900 METAR VEPT 140900Z 32006KT 3500 HZ NS...\n",
      "[WARNING] [Line 646] Invalid METAR format: Missing required METAR/SPECI identifier or station code\n",
      "          METAR: 202301140930 METAR VEPT 140930Z 30005KT 4000 HZ NSC 25/13 Q1011 NOSIG=...\n",
      "[WARNING] No station code found in METAR: 202301140930 METAR VEPT 140930Z 30005KT 4000 HZ NS...\n",
      "[WARNING] [Line 647] Invalid METAR format: Missing required METAR/SPECI identifier or station code\n",
      "          METAR: 202301141000 METAR VEPT 141000Z 31005KT 3500 HZ NSC 25/15 Q1011 BECMG 3000 HZ=...\n",
      "[WARNING] No station code found in METAR: 202301141000 METAR VEPT 141000Z 31005KT 3500 HZ NS...\n",
      "[WARNING] [Line 648] Invalid METAR format: Missing required METAR/SPECI identifier or station code\n",
      "          METAR: 202301141030 METAR VEPT 141030Z 31004KT 3000 HZ NSC 25/15 Q1011 NOSIG=...\n",
      "[WARNING] No station code found in METAR: 202301141030 METAR VEPT 141030Z 31004KT 3000 HZ NS...\n",
      "[WARNING] [Line 649] Invalid METAR format: Missing required METAR/SPECI identifier or station code\n",
      "          METAR: 202301141100 METAR VEPT 141100Z 32003KT 2500 HZ NSC 24/15 Q1011 NOSIG=...\n",
      "[WARNING] No station code found in METAR: 202301141100 METAR VEPT 141100Z 32003KT 2500 HZ NS...\n",
      "[WARNING] [Line 650] Invalid METAR format: Missing required METAR/SPECI identifier or station code\n",
      "          METAR: 202301141130 METAR VEPT 141130Z 30002KT 2500 HZ NSC 24/16 Q1011 NOSIG=...\n",
      "[WARNING] No station code found in METAR: 202301141130 METAR VEPT 141130Z 30002KT 2500 HZ NS...\n",
      "[WARNING] [Line 651] Invalid METAR format: Missing required METAR/SPECI identifier or station code\n",
      "          METAR: 202301141200 METAR VEPT 141200Z 31002KT 2000 HZ NSC 23/16 Q1011 NOSIG=...\n",
      "[WARNING] No station code found in METAR: 202301141200 METAR VEPT 141200Z 31002KT 2000 HZ NS...\n",
      "[WARNING] [Line 652] Invalid METAR format: Missing required METAR/SPECI identifier or station code\n",
      "          METAR: 202301141230 METAR VEPT 141230Z 31003KT 2000 HZ NSC 22/17 Q1011 NOSIG=...\n",
      "[WARNING] No station code found in METAR: 202301141230 METAR VEPT 141230Z 31003KT 2000 HZ NS...\n",
      "[WARNING] [Line 653] Invalid METAR format: Missing required METAR/SPECI identifier or station code\n",
      "          METAR: 202301141300 METAR VEPT 141300Z 28002KT 2000 HZ NSC 21/16 Q1012 NOSIG=...\n",
      "[WARNING] No station code found in METAR: 202301141300 METAR VEPT 141300Z 28002KT 2000 HZ NS...\n",
      "[WARNING] [Line 654] Invalid METAR format: Missing required METAR/SPECI identifier or station code\n",
      "          METAR: 202301141330 METAR VEPT 141330Z 00000KT 1800 BR NSC 20/15 Q1012 NOSIG=...\n",
      "[WARNING] No station code found in METAR: 202301141330 METAR VEPT 141330Z 00000KT 1800 BR NS...\n",
      "[WARNING] [Line 655] Invalid METAR format: Missing required METAR/SPECI identifier or station code\n",
      "          METAR: 202301141400 METAR VEPT 141400Z 00000KT 1800 BR NSC 18/15 Q1012 NOSIG=...\n",
      "[WARNING] No station code found in METAR: 202301141400 METAR VEPT 141400Z 00000KT 1800 BR NS...\n",
      "[WARNING] [Line 656] Invalid METAR format: Missing required METAR/SPECI identifier or station code\n",
      "          METAR: 202301141430 METAR VEPT 141430Z 00000KT 1800 BR NSC 18/15 Q1013 NOSIG=...\n",
      "[WARNING] No station code found in METAR: 202301141430 METAR VEPT 141430Z 00000KT 1800 BR NS...\n",
      "[WARNING] [Line 657] Invalid METAR format: Missing required METAR/SPECI identifier or station code\n",
      "          METAR: 202301141500 METAR VEPT 141500Z 00000KT 1600 BR NSC 17/14 Q1013 NOSIG=...\n",
      "[WARNING] No station code found in METAR: 202301141500 METAR VEPT 141500Z 00000KT 1600 BR NS...\n",
      "[WARNING] [Line 658] Invalid METAR format: Missing required METAR/SPECI identifier or station code\n",
      "          METAR: 202301141530 METAR VEPT 141530Z 00000KT 1600 BR NSC 16/14 Q1013 BECMG 1500 BR=...\n",
      "[WARNING] No station code found in METAR: 202301141530 METAR VEPT 141530Z 00000KT 1600 BR NS...\n",
      "[WARNING] [Line 659] Invalid METAR format: Missing required METAR/SPECI identifier or station code\n",
      "          METAR: 202301141600 METAR VEPT 141600Z 00000KT 1500 R25/1800 BR NSC 17/14 Q1013 NOSIG=...\n",
      "[WARNING] No station code found in METAR: 202301141600 METAR VEPT 141600Z 00000KT 1500 R25/1...\n",
      "[WARNING] [Line 660] Invalid METAR format: Missing required METAR/SPECI identifier or station code\n",
      "          METAR: 202301141630 METAR VEPT 141630Z 00000KT 1500 R25/1700 BR NSC 16/14 Q1013 NOSIG=...\n",
      "[WARNING] No station code found in METAR: 202301141630 METAR VEPT 141630Z 00000KT 1500 R25/1...\n",
      "[WARNING] [Line 661] Invalid METAR format: Missing required METAR/SPECI identifier or station code\n",
      "          METAR: 202301141700 METAR VEPT 141700Z 00000KT 1500 R25/1300 BR NSC 16/14 Q1013 NOSIG=...\n",
      "[WARNING] No station code found in METAR: 202301141700 METAR VEPT 141700Z 00000KT 1500 R25/1...\n",
      "[WARNING] [Line 662] Invalid METAR format: Missing required METAR/SPECI identifier or station code\n",
      "          METAR: 202301141730 METAR VEPT 141730Z 00000KT 1200 R25/1150 MIFG NSC 15/13 Q1013 NOSIG...\n",
      "[WARNING] No station code found in METAR: 202301141730 METAR VEPT 141730Z 00000KT 1200 R25/1...\n",
      "[WARNING] [Line 663] Invalid METAR format: Missing required METAR/SPECI identifier or station code\n",
      "          METAR: 202301141800 METAR VEPT 141800Z 00000KT 1000 R25/1000 MIFG NSC 15/13 Q1013 BECMG...\n",
      "[WARNING] No station code found in METAR: 202301141800 METAR VEPT 141800Z 00000KT 1000 R25/1...\n",
      "[WARNING] [Line 664] Invalid METAR format: Missing required METAR/SPECI identifier or station code\n",
      "          METAR: 202301141830 METAR VEPT 141830Z 00000KT 1000 R25/1700 MIFG NSC 14/13 Q1012 NOSIG...\n",
      "[WARNING] No station code found in METAR: 202301141830 METAR VEPT 141830Z 00000KT 1000 R25/1...\n",
      "[WARNING] [Line 665] Invalid METAR format: Missing required METAR/SPECI identifier or station code\n",
      "          METAR: 202301141900 METAR VEPT 141900Z 00000KT 0500 R25/0700 FG NSC 14/12 Q1012 NOSIG=...\n",
      "[WARNING] No station code found in METAR: 202301141900 METAR VEPT 141900Z 00000KT 0500 R25/0...\n",
      "[WARNING] [Line 666] Invalid METAR format: Missing required METAR/SPECI identifier or station code\n",
      "          METAR: 202301141930 METAR VEPT 141930Z 00000KT 0500 R25/1400 MIFG NSC 14/12 Q1012 NOSIG...\n",
      "[WARNING] No station code found in METAR: 202301141930 METAR VEPT 141930Z 00000KT 0500 R25/1...\n",
      "[WARNING] [Line 667] Invalid METAR format: Missing required METAR/SPECI identifier or station code\n",
      "          METAR: 202301142000 METAR VEPT 142000Z 00000KT 0500 R25/1300 MIFG NSC 14/12 Q1012 NOSIG...\n",
      "[WARNING] No station code found in METAR: 202301142000 METAR VEPT 142000Z 00000KT 0500 R25/1...\n",
      "[WARNING] [Line 668] Invalid METAR format: Missing required METAR/SPECI identifier or station code\n",
      "          METAR: 202301142030 METAR VEPT 142030Z 00000KT 0500 R25/1600 MIFG NSC 15/13 Q1012 NOSIG...\n",
      "[WARNING] No station code found in METAR: 202301142030 METAR VEPT 142030Z 00000KT 0500 R25/1...\n",
      "[WARNING] [Line 669] Invalid METAR format: Missing required METAR/SPECI identifier or station code\n",
      "          METAR: 202301142100 METAR VEPT 142100Z 00000KT 0500 R25/1400 MIFG NSC 14/13 Q1012 NOSIG...\n",
      "[WARNING] No station code found in METAR: 202301142100 METAR VEPT 142100Z 00000KT 0500 R25/1...\n",
      "[WARNING] [Line 670] Invalid METAR format: Missing required METAR/SPECI identifier or station code\n",
      "          METAR: 202301142130 METAR VEPT 142130Z 00000KT 0500 R25/1500 MIFG NSC 14/12 Q1012 NOSIG...\n",
      "[WARNING] No station code found in METAR: 202301142130 METAR VEPT 142130Z 00000KT 0500 R25/1...\n",
      "[WARNING] [Line 671] Invalid METAR format: Missing required METAR/SPECI identifier or station code\n",
      "          METAR: 202301142200 METAR VEPT 142200Z 00000KT 0500 R25/1300 FG NSC 14/12 Q1012 NOSIG=...\n",
      "[WARNING] No station code found in METAR: 202301142200 METAR VEPT 142200Z 00000KT 0500 R25/1...\n",
      "[WARNING] [Line 672] Invalid METAR format: Missing required METAR/SPECI identifier or station code\n",
      "          METAR: 202301142230 METAR VEPT 142230Z 00000KT 0600 R25/1900 FG NSC 14/13 Q1012 NOSIG=...\n",
      "[WARNING] No station code found in METAR: 202301142230 METAR VEPT 142230Z 00000KT 0600 R25/1...\n",
      "[WARNING] [Line 673] Invalid METAR format: Missing required METAR/SPECI identifier or station code\n",
      "          METAR: 202301142300 METAR VEPT 142300Z 00000KT 0600 R25/2000 FG NSC 15/13 Q1012 NOSIG=...\n",
      "[WARNING] No station code found in METAR: 202301142300 METAR VEPT 142300Z 00000KT 0600 R25/2...\n",
      "[WARNING] [Line 674] Invalid METAR format: Missing required METAR/SPECI identifier or station code\n",
      "          METAR: 202301142330 METAR VEPT 142330Z 30004KT 0700 R25/2000 FG NSC 15/13 Q1012 NOSIG=...\n",
      "[WARNING] No station code found in METAR: 202301142330 METAR VEPT 142330Z 30004KT 0700 R25/2...\n",
      "[WARNING] [Line 675] Invalid METAR format: Missing required METAR/SPECI identifier or station code\n",
      "          METAR: 202301150000 METAR VEPT 150000Z 29004KT 0700 R25/1900 MIFG NSC 15/13 Q1012 BECMG...\n",
      "[WARNING] No station code found in METAR: 202301150000 METAR VEPT 150000Z 29004KT 0700 R25/1...\n",
      "[WARNING] [Line 676] Invalid METAR format: Missing required METAR/SPECI identifier or station code\n",
      "          METAR: 202301150030 METAR VEPT 150030Z 29004KT 0800 R25/1800 FG NSC 14/13 Q1013 NOSIG=...\n",
      "[WARNING] No station code found in METAR: 202301150030 METAR VEPT 150030Z 29004KT 0800 R25/1...\n",
      "[WARNING] [Line 677] Invalid METAR format: Missing required METAR/SPECI identifier or station code\n",
      "          METAR: 202301150100 METAR VEPT 150100Z 29006KT 0800 R25/1800 FG NSC 14/13 Q1013 NOSIG=...\n",
      "[WARNING] No station code found in METAR: 202301150100 METAR VEPT 150100Z 29006KT 0800 R25/1...\n",
      "[WARNING] [Line 678] Invalid METAR format: Missing required METAR/SPECI identifier or station code\n",
      "          METAR: 202301150130 METAR VEPT 150130Z 30007KT 0800 R25/1600 FG NSC 14/13 Q1014 NOSIG=...\n",
      "[WARNING] No station code found in METAR: 202301150130 METAR VEPT 150130Z 30007KT 0800 R25/1...\n",
      "[WARNING] [Line 679] Invalid METAR format: Missing required METAR/SPECI identifier or station code\n",
      "          METAR: 202301150200 METAR VEPT 150200Z 30007KT 0800 R25/1500 FG SCT010 SCT015 14/12 Q10...\n",
      "[WARNING] No station code found in METAR: 202301150200 METAR VEPT 150200Z 30007KT 0800 R25/1...\n",
      "[WARNING] [Line 680] Invalid METAR format: Missing required METAR/SPECI identifier or station code\n",
      "          METAR: 202301150230 METAR VEPT 150230Z 29005KT 1000 R25/1400 MIFG SCT010 SCT015 14/12 Q...\n",
      "[WARNING] No station code found in METAR: 202301150230 METAR VEPT 150230Z 29005KT 1000 R25/1...\n",
      "[WARNING] [Line 681] Invalid METAR format: Missing required METAR/SPECI identifier or station code\n",
      "          METAR: 202301150300 METAR VEPT 150300Z 28007KT 1000 R25/1400 MIFG SCT010 SCT015 14/12 Q...\n",
      "[WARNING] No station code found in METAR: 202301150300 METAR VEPT 150300Z 28007KT 1000 R25/1...\n",
      "[WARNING] [Line 682] Invalid METAR format: Missing required METAR/SPECI identifier or station code\n",
      "          METAR: 202301150330 METAR VEPT 150330Z 29004KT 1000 R25/1400 MIFG SCT010 SCT015 14/13 Q...\n",
      "[WARNING] No station code found in METAR: 202301150330 METAR VEPT 150330Z 29004KT 1000 R25/1...\n",
      "[WARNING] [Line 683] Invalid METAR format: Missing required METAR/SPECI identifier or station code\n",
      "          METAR: 202301150400 METAR VEPT 150400Z 30005KT 1000 R25/1400 MIFG FEW012 SCT015 14/12 Q...\n",
      "[WARNING] No station code found in METAR: 202301150400 METAR VEPT 150400Z 30005KT 1000 R25/1...\n",
      "[WARNING] [Line 684] Invalid METAR format: Missing required METAR/SPECI identifier or station code\n",
      "          METAR: 202301150430 METAR VEPT 150430Z 29005KT 1200 R25/1300 BR FEW012 SCT015 14/12 Q10...\n",
      "[WARNING] No station code found in METAR: 202301150430 METAR VEPT 150430Z 29005KT 1200 R25/1...\n",
      "[WARNING] [Line 685] Invalid METAR format: Missing required METAR/SPECI identifier or station code\n",
      "          METAR: 202301150500 METAR VEPT 150500Z 28006KT 1200 R25/1400 BR FEW012 SCT015 15/12 Q10...\n",
      "[WARNING] No station code found in METAR: 202301150500 METAR VEPT 150500Z 28006KT 1200 R25/1...\n",
      "[WARNING] [Line 686] Invalid METAR format: Missing required METAR/SPECI identifier or station code\n",
      "          METAR: 202301150530 METAR VEPT 150530Z 30005KT 1200 R25/1400 BR FEW012 SCT015 15/12 Q10...\n",
      "[WARNING] No station code found in METAR: 202301150530 METAR VEPT 150530Z 30005KT 1200 R25/1...\n",
      "[WARNING] [Line 687] Invalid METAR format: Missing required METAR/SPECI identifier or station code\n",
      "          METAR: 202301150600 METAR VEPT 150600Z 27007KT 1400 R25/1400 BR FEW012 SCT015 15/12 Q10...\n",
      "[WARNING] No station code found in METAR: 202301150600 METAR VEPT 150600Z 27007KT 1400 R25/1...\n",
      "[WARNING] [Line 688] Invalid METAR format: Missing required METAR/SPECI identifier or station code\n",
      "          METAR: 202301150630 METAR VEPT 150630Z 29004KT 1400 R25/1400 BR FEW012 SCT015 16/12 Q10...\n",
      "[WARNING] No station code found in METAR: 202301150630 METAR VEPT 150630Z 29004KT 1400 R25/1...\n",
      "[WARNING] [Line 689] Invalid METAR format: Missing required METAR/SPECI identifier or station code\n",
      "          METAR: 202301150700 METAR VEPT 150700Z 28006KT 1400 R25/1400 BR SCT015 16/12 Q1014 NOSI...\n",
      "[WARNING] No station code found in METAR: 202301150700 METAR VEPT 150700Z 28006KT 1400 R25/1...\n",
      "[WARNING] [Line 690] Invalid METAR format: Missing required METAR/SPECI identifier or station code\n",
      "          METAR: 202301150730 METAR VEPT 150730Z 31005KT 1400 R25/1400 BR SCT015 17/12 Q1014 BECM...\n",
      "[WARNING] No station code found in METAR: 202301150730 METAR VEPT 150730Z 31005KT 1400 R25/1...\n",
      "[WARNING] [Line 691] Invalid METAR format: Missing required METAR/SPECI identifier or station code\n",
      "          METAR: 202301150800 METAR VEPT 150800Z 29005KT 1400 R25/1400 BR SCT015 18/13 Q1013 BECM...\n",
      "[WARNING] No station code found in METAR: 202301150800 METAR VEPT 150800Z 29005KT 1400 R25/1...\n",
      "[WARNING] [Line 692] Invalid METAR format: Missing required METAR/SPECI identifier or station code\n",
      "          METAR: 202301150830 METAR VEPT 150830Z 26006KT 1500 R25/1500 BR SCT015 18/13 Q1013 NOSI...\n",
      "[WARNING] No station code found in METAR: 202301150830 METAR VEPT 150830Z 26006KT 1500 R25/1...\n",
      "[WARNING] [Line 693] Invalid METAR format: Missing required METAR/SPECI identifier or station code\n",
      "          METAR: 202301150900 METAR VEPT 150900Z 27005KT 1800 BR SCT016 18/13 Q1013 NOSIG=...\n",
      "[WARNING] No station code found in METAR: 202301150900 METAR VEPT 150900Z 27005KT 1800 BR SC...\n",
      "[WARNING] [Line 694] Invalid METAR format: Missing required METAR/SPECI identifier or station code\n",
      "          METAR: 202301150930 METAR VEPT 150930Z 32004KT 2000 BR SCT016 18/13 Q1012 NOSIG=...\n",
      "[WARNING] No station code found in METAR: 202301150930 METAR VEPT 150930Z 32004KT 2000 BR SC...\n",
      "[WARNING] [Line 695] Invalid METAR format: Missing required METAR/SPECI identifier or station code\n",
      "          METAR: 202301151000 METAR VEPT 151000Z 30005KT 2000 HZ SCT016 19/13 Q1012 NOSIG=...\n",
      "[WARNING] No station code found in METAR: 202301151000 METAR VEPT 151000Z 30005KT 2000 HZ SC...\n",
      "[WARNING] [Line 696] Invalid METAR format: Missing required METAR/SPECI identifier or station code\n",
      "          METAR: 202301151030 METAR VEPT 151030Z 29006KT 2000 HZ FEW016 19/12 Q1012 NOSIG=...\n",
      "[WARNING] No station code found in METAR: 202301151030 METAR VEPT 151030Z 29006KT 2000 HZ FE...\n",
      "[WARNING] [Line 697] Invalid METAR format: Missing required METAR/SPECI identifier or station code\n",
      "          METAR: 202301151100 METAR VEPT 151100Z 30004KT 2000 HZ FEW016 18/13 Q1012 NOSIG=...\n",
      "[WARNING] No station code found in METAR: 202301151100 METAR VEPT 151100Z 30004KT 2000 HZ FE...\n",
      "[WARNING] [Line 698] Invalid METAR format: Missing required METAR/SPECI identifier or station code\n",
      "          METAR: 202301151130 METAR VEPT 151130Z 300042KT 2000 HZ FEW016 18/13 Q1012 NOSIG=...\n",
      "[WARNING] No station code found in METAR: 202301151130 METAR VEPT 151130Z 300042KT 2000 HZ F...\n",
      "[WARNING] [Line 699] Invalid METAR format: Missing required METAR/SPECI identifier or station code\n",
      "          METAR: 202301151200 METAR VEPT 151200Z 32002KT 1800 BR FEW010 17/13 Q1012 NOSIG=...\n",
      "[WARNING] No station code found in METAR: 202301151200 METAR VEPT 151200Z 32002KT 1800 BR FE...\n",
      "[PROGRESS] Processed 700/1489 METARs...\n",
      "[WARNING] [Line 700] Invalid METAR format: Missing required METAR/SPECI identifier or station code\n",
      "          METAR: 202301151230 METAR VEPT 151230Z 32003KT 1800 BR SCT010 17/12 Q1013 NOSIG=...\n",
      "[WARNING] No station code found in METAR: 202301151230 METAR VEPT 151230Z 32003KT 1800 BR SC...\n",
      "[WARNING] [Line 701] Invalid METAR format: Missing required METAR/SPECI identifier or station code\n",
      "          METAR: 202301151300 METAR VEPT 151300Z 00000KT 1800 BR SCT100 16/12 Q1013 NOSIG=...\n",
      "[WARNING] No station code found in METAR: 202301151300 METAR VEPT 151300Z 00000KT 1800 BR SC...\n",
      "[WARNING] [Line 702] Invalid METAR format: Missing required METAR/SPECI identifier or station code\n",
      "          METAR: 202301151330 METAR VEPT 151330Z 00000KT 1800 BR SCT100 16/13 Q1013 NOSIG=...\n",
      "[WARNING] No station code found in METAR: 202301151330 METAR VEPT 151330Z 00000KT 1800 BR SC...\n",
      "[WARNING] [Line 703] Invalid METAR format: Missing required METAR/SPECI identifier or station code\n",
      "          METAR: 202301151400 METAR VEPT 151400Z 00000KT 1800 BR FEW100 15/12 Q1014 NOSIG=...\n",
      "[WARNING] No station code found in METAR: 202301151400 METAR VEPT 151400Z 00000KT 1800 BR FE...\n",
      "[WARNING] [Line 704] Invalid METAR format: Missing required METAR/SPECI identifier or station code\n",
      "          METAR: 202301151430 METAR VEPT 151430Z 32003KT 1600 BR FEW100 14/11 Q1014 NOSIG=...\n",
      "[WARNING] No station code found in METAR: 202301151430 METAR VEPT 151430Z 32003KT 1600 BR FE...\n",
      "[WARNING] [Line 705] Invalid METAR format: Missing required METAR/SPECI identifier or station code\n",
      "          METAR: 202301151500 METAR VEPT 151500Z 32003KT 1600 BR NSC 14/11 Q1014 NOSIG=...\n",
      "[WARNING] No station code found in METAR: 202301151500 METAR VEPT 151500Z 32003KT 1600 BR NS...\n",
      "[WARNING] [Line 706] Invalid METAR format: Missing required METAR/SPECI identifier or station code\n",
      "          METAR: 202301151530 METAR VEPT 151530Z 00000KT 1600 BR NSC 13/11 Q1015 BECMG 1500 BR=...\n",
      "[WARNING] No station code found in METAR: 202301151530 METAR VEPT 151530Z 00000KT 1600 BR NS...\n",
      "[WARNING] [Line 707] Invalid METAR format: Missing required METAR/SPECI identifier or station code\n",
      "          METAR: 202301151600 METAR VEPT 151600Z 00000KT 1500 R25/2000 BR NSC 13/11 Q1015 NOSIG=...\n",
      "[WARNING] No station code found in METAR: 202301151600 METAR VEPT 151600Z 00000KT 1500 R25/2...\n",
      "[WARNING] [Line 708] Invalid METAR format: Missing required METAR/SPECI identifier or station code\n",
      "          METAR: 202301151630 METAR VEPT 151630Z 00000KT 1500 R25/2000 BR NSC 13/11 Q1015 NOSIG=...\n",
      "[WARNING] No station code found in METAR: 202301151630 METAR VEPT 151630Z 00000KT 1500 R25/2...\n",
      "[WARNING] [Line 709] Invalid METAR format: Missing required METAR/SPECI identifier or station code\n",
      "          METAR: 202301151700 METAR VEPT 151700Z 00000KT 1400 R25/1800 BR NSC 12/11 Q1015 NOSIG=...\n",
      "[WARNING] No station code found in METAR: 202301151700 METAR VEPT 151700Z 00000KT 1400 R25/1...\n",
      "[WARNING] [Line 710] Invalid METAR format: Missing required METAR/SPECI identifier or station code\n",
      "          METAR: 202301151730 METAR VEPT 151730Z 00000KT 1200 R25/1600 BR NSC 12/11 Q1015 NOSIG=...\n",
      "[WARNING] No station code found in METAR: 202301151730 METAR VEPT 151730Z 00000KT 1200 R25/1...\n",
      "[WARNING] [Line 711] Invalid METAR format: Missing required METAR/SPECI identifier or station code\n",
      "          METAR: 202301151800 METAR VEPT 151800Z 00000KT 1200 R25/1600 BR NSC 12/11 Q1015 NOSIG=...\n",
      "[WARNING] No station code found in METAR: 202301151800 METAR VEPT 151800Z 00000KT 1200 R25/1...\n",
      "[WARNING] [Line 712] Invalid METAR format: Missing required METAR/SPECI identifier or station code\n",
      "          METAR: 202301151830 METAR VEPT 151830Z 00000KT 1000 R25/1500 BR NSC 12/11 Q1015 NOSIG=...\n",
      "[WARNING] No station code found in METAR: 202301151830 METAR VEPT 151830Z 00000KT 1000 R25/1...\n",
      "[WARNING] [Line 713] Invalid METAR format: Missing required METAR/SPECI identifier or station code\n",
      "          METAR: 202301151900 METAR VEPT 151900Z 00000KT 1000 R25/1400 BR NSC 12/11 Q1014 BECMG 0...\n",
      "[WARNING] No station code found in METAR: 202301151900 METAR VEPT 151900Z 00000KT 1000 R25/1...\n",
      "[WARNING] [Line 714] Invalid METAR format: Missing required METAR/SPECI identifier or station code\n",
      "          METAR: 202301151930 METAR VEPT 151930Z 00000KT 0800 R25/1200 FG NSC 11/10 Q1014 NOSIG=...\n",
      "[WARNING] No station code found in METAR: 202301151930 METAR VEPT 151930Z 00000KT 0800 R25/1...\n",
      "[WARNING] [Line 715] Invalid METAR format: Missing required METAR/SPECI identifier or station code\n",
      "          METAR: 202301152000 METAR VEPT 152000Z 00000KT 0800 R25/1200 FG NSC 11/10 Q1014 NOSIG=...\n",
      "[WARNING] No station code found in METAR: 202301152000 METAR VEPT 152000Z 00000KT 0800 R25/1...\n",
      "[WARNING] [Line 716] Invalid METAR format: Missing required METAR/SPECI identifier or station code\n",
      "          METAR: 202301152030 METAR VEPT 152030Z 00000KT 0800 R25/1200 FG NSC 11/10 Q1014 NOSIG=...\n",
      "[WARNING] No station code found in METAR: 202301152030 METAR VEPT 152030Z 00000KT 0800 R25/1...\n",
      "[WARNING] [Line 717] Invalid METAR format: Missing required METAR/SPECI identifier or station code\n",
      "          METAR: 202301152100 METAR VEPT 152100Z 00000KT 0800 R25/1200 FG NSC 10/10 Q1014 NOSIG=...\n",
      "[WARNING] No station code found in METAR: 202301152100 METAR VEPT 152100Z 00000KT 0800 R25/1...\n",
      "[WARNING] [Line 718] Invalid METAR format: Missing required METAR/SPECI identifier or station code\n",
      "          METAR: 202301152130 METAR VEPT 152130Z 00000KT 0800 R25/1200 FG NSC 10/10 Q1014 NOSIG=...\n",
      "[WARNING] No station code found in METAR: 202301152130 METAR VEPT 152130Z 00000KT 0800 R25/1...\n",
      "[WARNING] [Line 719] Invalid METAR format: Missing required METAR/SPECI identifier or station code\n",
      "          METAR: 202301152200 METAR VEPT 152200Z 00000KT 0800 R25/1200 FG NSC 10/10 Q1014 NOSIG=...\n",
      "[WARNING] No station code found in METAR: 202301152200 METAR VEPT 152200Z 00000KT 0800 R25/1...\n",
      "[WARNING] [Line 720] Invalid METAR format: Missing required METAR/SPECI identifier or station code\n",
      "          METAR: 202301152230 METAR VEPT 152230Z 00000KT 0800 R25/1200 FG NSC 10/09 Q1014 NOSIG=...\n",
      "[WARNING] No station code found in METAR: 202301152230 METAR VEPT 152230Z 00000KT 0800 R25/1...\n",
      "[WARNING] [Line 721] Invalid METAR format: Missing required METAR/SPECI identifier or station code\n",
      "          METAR: 202301152300 METAR VEPT 152300Z 00000KT 0800 R25/1200 FG NSC 09/08 Q1014 NOSIG=...\n",
      "[WARNING] No station code found in METAR: 202301152300 METAR VEPT 152300Z 00000KT 0800 R25/1...\n",
      "[WARNING] [Line 722] Invalid METAR format: Missing required METAR/SPECI identifier or station code\n",
      "          METAR: 202301152330 METAR VEPT 152330Z 00000KT 0800 R25/1200 FG NSC 09/08 Q1014 NOSIG=...\n",
      "[WARNING] No station code found in METAR: 202301152330 METAR VEPT 152330Z 00000KT 0800 R25/1...\n",
      "[WARNING] [Line 723] Invalid METAR format: Missing required METAR/SPECI identifier or station code\n",
      "          METAR: 202301160000 METAR VEPT 160000Z 00000KT 0800 R25/1200 FG NSC 10/09 Q1015 NOSIG=...\n",
      "[WARNING] No station code found in METAR: 202301160000 METAR VEPT 160000Z 00000KT 0800 R25/1...\n",
      "[WARNING] [Line 724] Invalid METAR format: Missing required METAR/SPECI identifier or station code\n",
      "          METAR: 202301160030 METAR VEPT 160030Z 00000KT 0800 R25/1200 BR NSC 10/09 Q1015 NOSIG=...\n",
      "[WARNING] No station code found in METAR: 202301160030 METAR VEPT 160030Z 00000KT 0800 R25/1...\n",
      "[WARNING] [Line 725] Invalid METAR format: Missing required METAR/SPECI identifier or station code\n",
      "          METAR: 202301160034 METAR VEPT 160034Z 00000KT 0800 R25/1200 FG NSC 10/09 Q1015 NOSIG=...\n",
      "[WARNING] No station code found in METAR: 202301160034 METAR VEPT 160034Z 00000KT 0800 R25/1...\n",
      "[WARNING] [Line 726] Invalid METAR format: Missing required METAR/SPECI identifier or station code\n",
      "          METAR: 202301160100 METAR VEPT 160100Z 00000KT 0800 R25/1200 BR NSC 10/09 Q1016 NOSIG=...\n",
      "[WARNING] No station code found in METAR: 202301160100 METAR VEPT 160100Z 00000KT 0800 R25/1...\n",
      "[WARNING] [Line 727] Invalid METAR format: Missing required METAR/SPECI identifier or station code\n",
      "          METAR: 202301160109 METAR VEPT 160109Z 00000KT 0800 R25/1200 FG NSC 10/09 Q1016 NOSIG=...\n",
      "[WARNING] No station code found in METAR: 202301160109 METAR VEPT 160109Z 00000KT 0800 R25/1...\n",
      "[WARNING] [Line 728] Invalid METAR format: Missing required METAR/SPECI identifier or station code\n",
      "          METAR: 202301160130 METAR VEPT 160130Z 25003KT 0500 R25/1000 FG NSC 10/09 Q1016 NOSIG=...\n",
      "[WARNING] No station code found in METAR: 202301160130 METAR VEPT 160130Z 25003KT 0500 R25/1...\n",
      "[WARNING] [Line 729] Invalid METAR format: Missing required METAR/SPECI identifier or station code\n",
      "          METAR: 202301160200 METAR VEPT 160200Z 25002KT 0500 R25/1000 FG FEW015 10/09 Q1016 NOSI...\n",
      "[WARNING] No station code found in METAR: 202301160200 METAR VEPT 160200Z 25002KT 0500 R25/1...\n",
      "[WARNING] [Line 730] Invalid METAR format: Missing required METAR/SPECI identifier or station code\n",
      "          METAR: 202301160230 METAR VEPT 160230Z 26004KT 0700 R25/1100 FG FEW015 11/10 Q1017 BECM...\n",
      "[WARNING] No station code found in METAR: 202301160230 METAR VEPT 160230Z 26004KT 0700 R25/1...\n",
      "[WARNING] [Line 731] Invalid METAR format: Missing required METAR/SPECI identifier or station code\n",
      "          METAR: 202301160300 METAR VEPT 160300Z 27004KT 0800 R25/1100 FG FEW015 12/10 Q1017 N=...\n",
      "[WARNING] No station code found in METAR: 202301160300 METAR VEPT 160300Z 27004KT 0800 R25/1...\n",
      "[WARNING] [Line 732] Invalid METAR format: Missing required METAR/SPECI identifier or station code\n",
      "          METAR: 202301160330 METAR VEPT 160330Z 27005KT 1000 R25/1100 MIFG NSC 12/10 Q1018 NOSIG...\n",
      "[WARNING] No station code found in METAR: 202301160330 METAR VEPT 160330Z 27005KT 1000 R25/1...\n",
      "[WARNING] [Line 733] Invalid METAR format: Missing required METAR/SPECI identifier or station code\n",
      "          METAR: 202301160400 METAR VEPT 160400Z 27005KT 1000 R25/1200 MIFG NSC 14/10 Q1019 NOSIG...\n",
      "[WARNING] No station code found in METAR: 202301160400 METAR VEPT 160400Z 27005KT 1000 R25/1...\n",
      "[WARNING] [Line 734] Invalid METAR format: Missing required METAR/SPECI identifier or station code\n",
      "          METAR: 202301160430 METAR VEPT 160430Z 28003KT 1200 R25/1200 BR NSC 15/10 Q1019 BECMG 1...\n",
      "[WARNING] No station code found in METAR: 202301160430 METAR VEPT 160430Z 28003KT 1200 R25/1...\n",
      "[WARNING] [Line 735] Invalid METAR format: Missing required METAR/SPECI identifier or station code\n",
      "          METAR: 202301160500 METAR VEPT 160500Z 29006KT 1500 R25/1300 BR NSC 16/11 Q1018 NOSIG=...\n",
      "[WARNING] No station code found in METAR: 202301160500 METAR VEPT 160500Z 29006KT 1500 R25/1...\n",
      "[WARNING] [Line 736] Invalid METAR format: Missing required METAR/SPECI identifier or station code\n",
      "          METAR: 202301160530 METAR VEPT 160530Z 31005KT 1600 BR NSC 17/10 Q1018 NOSIG=...\n",
      "[WARNING] No station code found in METAR: 202301160530 METAR VEPT 160530Z 31005KT 1600 BR NS...\n",
      "[WARNING] [Line 737] Invalid METAR format: Missing required METAR/SPECI identifier or station code\n",
      "          METAR: 202301160600 METAR VEPT 160600Z 29006KT 1800 BR NSC 18/11 Q1017 NOSIG=...\n",
      "[WARNING] No station code found in METAR: 202301160600 METAR VEPT 160600Z 29006KT 1800 BR NS...\n",
      "[WARNING] [Line 738] Invalid METAR format: Missing required METAR/SPECI identifier or station code\n",
      "          METAR: 202301160630 METAR VEPT 160630Z 31006KT 1800 BR NSC 18/10 Q1017 NOSIG=...\n",
      "[WARNING] No station code found in METAR: 202301160630 METAR VEPT 160630Z 31006KT 1800 BR NS...\n",
      "[WARNING] [Line 739] Invalid METAR format: Missing required METAR/SPECI identifier or station code\n",
      "          METAR: 202301160700 METAR VEPT 160700Z 27008KT 2000 HZ NSC 19/09 Q1016 NOSIG=...\n",
      "[WARNING] No station code found in METAR: 202301160700 METAR VEPT 160700Z 27008KT 2000 HZ NS...\n",
      "[WARNING] [Line 740] Invalid METAR format: Missing required METAR/SPECI identifier or station code\n",
      "          METAR: 202301160730 METAR VEPT 160730Z 27006KT 2500 HZ NSC 19/10 Q1015 NOSIG=...\n",
      "[WARNING] No station code found in METAR: 202301160730 METAR VEPT 160730Z 27006KT 2500 HZ NS...\n",
      "[WARNING] [Line 741] Invalid METAR format: Missing required METAR/SPECI identifier or station code\n",
      "          METAR: 202301160800 METAR VEPT 160800Z 34004KT 2500 HZ NSC 19/10 Q1015 NOSIG=...\n",
      "[WARNING] No station code found in METAR: 202301160800 METAR VEPT 160800Z 34004KT 2500 HZ NS...\n",
      "[WARNING] [Line 742] Invalid METAR format: Missing required METAR/SPECI identifier or station code\n",
      "          METAR: 202301160830 METAR VEPT 160830Z 32007KT 2500 HZ NSC 20/10 Q1014 NOSIG=...\n",
      "[WARNING] No station code found in METAR: 202301160830 METAR VEPT 160830Z 32007KT 2500 HZ NS...\n",
      "[WARNING] [Line 743] Invalid METAR format: Missing required METAR/SPECI identifier or station code\n",
      "          METAR: 202301160900 METAR VEPT 160900Z 27006KT 2500 HZ NSC 20/09 Q1014 BECMG 3000 HZ=...\n",
      "[WARNING] No station code found in METAR: 202301160900 METAR VEPT 160900Z 27006KT 2500 HZ NS...\n",
      "[WARNING] [Line 744] Invalid METAR format: Missing required METAR/SPECI identifier or station code\n",
      "          METAR: 202301160930 METAR VEPT 160930Z 29005KT 3000 HZ NSC 19/09 Q1014 NOSIG=...\n",
      "[WARNING] No station code found in METAR: 202301160930 METAR VEPT 160930Z 29005KT 3000 HZ NS...\n",
      "[WARNING] [Line 745] Invalid METAR format: Missing required METAR/SPECI identifier or station code\n",
      "          METAR: 202301161000 METAR VEPT 161000Z 31006KT 3000 HZ NSC 19/09 Q1014 NOSIG=...\n",
      "[WARNING] No station code found in METAR: 202301161000 METAR VEPT 161000Z 31006KT 3000 HZ NS...\n",
      "[WARNING] [Line 746] Invalid METAR format: Missing required METAR/SPECI identifier or station code\n",
      "          METAR: 202301161030 METAR VEPT 161030Z 32008KT 3000 HZ NSC 19/09 Q1013 NOSIG=...\n",
      "[WARNING] No station code found in METAR: 202301161030 METAR VEPT 161030Z 32008KT 3000 HZ NS...\n",
      "[WARNING] [Line 747] Invalid METAR format: Missing required METAR/SPECI identifier or station code\n",
      "          METAR: 202301161100 METAR VEPT 161100Z 30006KT 3000 HZ NSC 19/09 Q1013 NOSIG=...\n",
      "[WARNING] No station code found in METAR: 202301161100 METAR VEPT 161100Z 30006KT 3000 HZ NS...\n",
      "[WARNING] [Line 748] Invalid METAR format: Missing required METAR/SPECI identifier or station code\n",
      "          METAR: 202301161130 METAR VEPT 161130Z 30006KT 3000 HZ NSC 19/09 Q1013 NOSIG=...\n",
      "[WARNING] No station code found in METAR: 202301161130 METAR VEPT 161130Z 30006KT 3000 HZ NS...\n",
      "[WARNING] [Line 749] Invalid METAR format: Missing required METAR/SPECI identifier or station code\n",
      "          METAR: 202301161200 METAR VEPT 161200Z 31003KT 2500 HZ NSC 17/10 Q1014 NOSIG=...\n",
      "[WARNING] No station code found in METAR: 202301161200 METAR VEPT 161200Z 31003KT 2500 HZ NS...\n",
      "[WARNING] [Line 750] Invalid METAR format: Missing required METAR/SPECI identifier or station code\n",
      "          METAR: 202301161230 METAR VEPT 161230Z 32003KT 2500 HZ NSC 16/10 Q1014 BECMG 3000 HZ=...\n",
      "[WARNING] No station code found in METAR: 202301161230 METAR VEPT 161230Z 32003KT 2500 HZ NS...\n",
      "[WARNING] [Line 751] Invalid METAR format: Missing required METAR/SPECI identifier or station code\n",
      "          METAR: 202301161300 METAR VEPT 161300Z 00000KT 3000 HZ NSC 15/09 Q1014 NOSIG=...\n",
      "[WARNING] No station code found in METAR: 202301161300 METAR VEPT 161300Z 00000KT 3000 HZ NS...\n",
      "[WARNING] [Line 752] Invalid METAR format: Missing required METAR/SPECI identifier or station code\n",
      "          METAR: 202301161330 METAR VEPT 161330Z 00000KT 3000 BR NSC 14/09 Q1015 NOSIG=...\n",
      "[WARNING] No station code found in METAR: 202301161330 METAR VEPT 161330Z 00000KT 3000 BR NS...\n",
      "[WARNING] [Line 753] Invalid METAR format: Missing required METAR/SPECI identifier or station code\n",
      "          METAR: 202301161400 METAR VEPT 161400Z 00000KT 2500 BR NSC 13/09 Q1015 NOSIG=...\n",
      "[WARNING] No station code found in METAR: 202301161400 METAR VEPT 161400Z 00000KT 2500 BR NS...\n",
      "[WARNING] [Line 754] Invalid METAR format: Missing required METAR/SPECI identifier or station code\n",
      "          METAR: 202301161430 METAR VEPT 161430Z 00000KT 2500 BR NSC 13/09 Q1015 NOSIG=...\n",
      "[WARNING] No station code found in METAR: 202301161430 METAR VEPT 161430Z 00000KT 2500 BR NS...\n",
      "[WARNING] [Line 755] Invalid METAR format: Missing required METAR/SPECI identifier or station code\n",
      "          METAR: 202301161500 METAR VEPT 161500Z 00000KT 2000 BR NSC 12/08 Q1016 NOSIG=...\n",
      "[WARNING] No station code found in METAR: 202301161500 METAR VEPT 161500Z 00000KT 2000 BR NS...\n",
      "[WARNING] [Line 756] Invalid METAR format: Missing required METAR/SPECI identifier or station code\n",
      "          METAR: 202301161530 METAR VEPT 161530Z 00000KT 2000 BR NSC 11/09 Q1016 NOSIG=...\n",
      "[WARNING] No station code found in METAR: 202301161530 METAR VEPT 161530Z 00000KT 2000 BR NS...\n",
      "[WARNING] [Line 757] Invalid METAR format: Missing required METAR/SPECI identifier or station code\n",
      "          METAR: 202301161600 METAR VEPT 161600Z 00000KT 2000 BR NSC 11/08 Q1016 NOSIG=...\n",
      "[WARNING] No station code found in METAR: 202301161600 METAR VEPT 161600Z 00000KT 2000 BR NS...\n",
      "[WARNING] [Line 758] Invalid METAR format: Missing required METAR/SPECI identifier or station code\n",
      "          METAR: 202301161630 METAR VEPT 161630Z 00000KT 2000 BR NSC 11/08 Q1016 NOSIG=...\n",
      "[WARNING] No station code found in METAR: 202301161630 METAR VEPT 161630Z 00000KT 2000 BR NS...\n",
      "[WARNING] [Line 759] Invalid METAR format: Missing required METAR/SPECI identifier or station code\n",
      "          METAR: 202301161700 METAR VEPT 161700Z 00000KT 2000 BR NSC 10/08 Q1016 NOSIG=...\n",
      "[WARNING] No station code found in METAR: 202301161700 METAR VEPT 161700Z 00000KT 2000 BR NS...\n",
      "[WARNING] [Line 760] Invalid METAR format: Missing required METAR/SPECI identifier or station code\n",
      "          METAR: 202301161730 METAR VEPT 161730Z 00000KT 1800 BR NSC 10/08 Q1016 NOSIG=...\n",
      "[WARNING] No station code found in METAR: 202301161730 METAR VEPT 161730Z 00000KT 1800 BR NS...\n",
      "[WARNING] [Line 761] Invalid METAR format: Missing required METAR/SPECI identifier or station code\n",
      "          METAR: 202301161800 METAR VEPT 161800Z 00000KT 1800 BR NSC 09/07 Q1016 NOSIG=...\n",
      "[WARNING] No station code found in METAR: 202301161800 METAR VEPT 161800Z 00000KT 1800 BR NS...\n",
      "[WARNING] [Line 762] Invalid METAR format: Missing required METAR/SPECI identifier or station code\n",
      "          METAR: 202301161830 METAR VEPT 161830Z 00000KT 1800 BR NSC 09/06 Q1016 NOSIG=...\n",
      "[WARNING] No station code found in METAR: 202301161830 METAR VEPT 161830Z 00000KT 1800 BR NS...\n",
      "[WARNING] [Line 763] Invalid METAR format: Missing required METAR/SPECI identifier or station code\n",
      "          METAR: 202301161900 METAR VEPT 161900Z 00000KT 1800 BR NSC 09/07 Q1016 NOSIG=...\n",
      "[WARNING] No station code found in METAR: 202301161900 METAR VEPT 161900Z 00000KT 1800 BR NS...\n",
      "[WARNING] [Line 764] Invalid METAR format: Missing required METAR/SPECI identifier or station code\n",
      "          METAR: 202301161930 METAR VEPT 161930Z 00000KT 1800 BR NSC 09/07 Q1016 NOSIG=...\n",
      "[WARNING] No station code found in METAR: 202301161930 METAR VEPT 161930Z 00000KT 1800 BR NS...\n",
      "[WARNING] [Line 765] Invalid METAR format: Missing required METAR/SPECI identifier or station code\n",
      "          METAR: 202301162000 METAR VEPT 162000Z 00000KT 1800 BR NSC 08/07 Q1015 NOSIG=...\n",
      "[WARNING] No station code found in METAR: 202301162000 METAR VEPT 162000Z 00000KT 1800 BR NS...\n",
      "[WARNING] [Line 766] Invalid METAR format: Missing required METAR/SPECI identifier or station code\n",
      "          METAR: 202301162030 METAR VEPT 162030Z 00000KT 1600 BR NSC 08/07 Q1015 NOSIG=...\n",
      "[WARNING] No station code found in METAR: 202301162030 METAR VEPT 162030Z 00000KT 1600 BR NS...\n",
      "[WARNING] [Line 767] Invalid METAR format: Missing required METAR/SPECI identifier or station code\n",
      "          METAR: 202301162100 METAR VEPT 162100Z 00000KT 1600 BR NSC 08/06 Q1015 NOSIG=...\n",
      "[WARNING] No station code found in METAR: 202301162100 METAR VEPT 162100Z 00000KT 1600 BR NS...\n",
      "[WARNING] [Line 768] Invalid METAR format: Missing required METAR/SPECI identifier or station code\n",
      "          METAR: 202301162130 METAR VEPT 162130Z 00000KT 1600 BR NSC 08/06 Q1015 NOSIG=...\n",
      "[WARNING] No station code found in METAR: 202301162130 METAR VEPT 162130Z 00000KT 1600 BR NS...\n",
      "[WARNING] [Line 769] Invalid METAR format: Missing required METAR/SPECI identifier or station code\n",
      "          METAR: 202301162200 METAR VEPT 162200Z 00000KT 1600 BR NSC 08/06 Q1015 NOSIG=...\n",
      "[WARNING] No station code found in METAR: 202301162200 METAR VEPT 162200Z 00000KT 1600 BR NS...\n",
      "[WARNING] [Line 770] Invalid METAR format: Missing required METAR/SPECI identifier or station code\n",
      "          METAR: 202301162230 METAR VEPT 162230Z 00000KT 1600 BR NSC 07/06 Q1015 NOSIG=...\n",
      "[WARNING] No station code found in METAR: 202301162230 METAR VEPT 162230Z 00000KT 1600 BR NS...\n",
      "[WARNING] [Line 771] Invalid METAR format: Missing required METAR/SPECI identifier or station code\n",
      "          METAR: 202301162300 METAR VEPT 162300Z 00000KT 1600 BR NSC 07/06 Q1015 NOSIG=...\n",
      "[WARNING] No station code found in METAR: 202301162300 METAR VEPT 162300Z 00000KT 1600 BR NS...\n",
      "[WARNING] [Line 772] Invalid METAR format: Missing required METAR/SPECI identifier or station code\n",
      "          METAR: 202301162330 METAR VEPT 162330Z 00000KT 1600 BR NSC 07/06 Q1015 NOSIG=...\n",
      "[WARNING] No station code found in METAR: 202301162330 METAR VEPT 162330Z 00000KT 1600 BR NS...\n",
      "[WARNING] [Line 773] Invalid METAR format: Missing required METAR/SPECI identifier or station code\n",
      "          METAR: 202301170000 METAR VEPT 170000Z 00000KT 1200 R25/1800 BR NSC 07/05 Q1015 NOSIG=...\n",
      "[WARNING] No station code found in METAR: 202301170000 METAR VEPT 170000Z 00000KT 1200 R25/1...\n",
      "[WARNING] [Line 774] Invalid METAR format: Missing required METAR/SPECI identifier or station code\n",
      "          METAR: 202301170030 METAR VEPT 170030Z 27002KT 1200 R25/1800 BR NSC 07/06 Q1015 NOSIG=...\n",
      "[WARNING] No station code found in METAR: 202301170030 METAR VEPT 170030Z 27002KT 1200 R25/1...\n",
      "[WARNING] [Line 775] Invalid METAR format: Missing required METAR/SPECI identifier or station code\n",
      "          METAR: 202301170100 METAR VEPT 170100Z 27002KT 1200 R25/1800 BR NSC 08/07 Q1016 NOSIG=...\n",
      "[WARNING] No station code found in METAR: 202301170100 METAR VEPT 170100Z 27002KT 1200 R25/1...\n",
      "[WARNING] [Line 776] Invalid METAR format: Missing required METAR/SPECI identifier or station code\n",
      "          METAR: 202301170130 METAR VEPT 170130Z 00000KT 1000 R25/1300 MIFG NSC 08/06 Q1016 NOSIG...\n",
      "[WARNING] No station code found in METAR: 202301170130 METAR VEPT 170130Z 00000KT 1000 R25/1...\n",
      "[WARNING] [Line 777] Invalid METAR format: Missing required METAR/SPECI identifier or station code\n",
      "          METAR: 202301170200 METAR VEPT 170200Z 00000KT 1100 R25/1100 MIFG NSC 08/06 Q1017 NOSIG...\n",
      "[WARNING] No station code found in METAR: 202301170200 METAR VEPT 170200Z 00000KT 1100 R25/1...\n",
      "[WARNING] [Line 778] Invalid METAR format: Missing required METAR/SPECI identifier or station code\n",
      "          METAR: 202301170230 METAR VEPT 170230Z 00000KT 1100 R25/1150 MIFG NSC 10/08 Q1017 NOSIG...\n",
      "[WARNING] No station code found in METAR: 202301170230 METAR VEPT 170230Z 00000KT 1100 R25/1...\n",
      "[WARNING] [Line 779] Invalid METAR format: Missing required METAR/SPECI identifier or station code\n",
      "          METAR: 202301170300 METAR VEPT 170300Z 27004KT 1200 R25/1200 MIFG NSC 11/08 Q1018 NOSIG...\n",
      "[WARNING] No station code found in METAR: 202301170300 METAR VEPT 170300Z 27004KT 1200 R25/1...\n",
      "[WARNING] [Line 780] Invalid METAR format: Missing required METAR/SPECI identifier or station code\n",
      "          METAR: 202301170330 METAR VEPT 170330Z 28004KT 1300 R25/1200 BR NSC 13/09 Q1018 NOSIG=...\n",
      "[WARNING] No station code found in METAR: 202301170330 METAR VEPT 170330Z 28004KT 1300 R25/1...\n",
      "[WARNING] [Line 781] Invalid METAR format: Missing required METAR/SPECI identifier or station code\n",
      "          METAR: 202301170400 METAR VEPT 170400Z 29004KT 1400 R25/1200 BR NSC 14/10 Q1018 BECMG 1...\n",
      "[WARNING] No station code found in METAR: 202301170400 METAR VEPT 170400Z 29004KT 1400 R25/1...\n",
      "[WARNING] [Line 782] Invalid METAR format: Missing required METAR/SPECI identifier or station code\n",
      "          METAR: 202301170430 METAR VEPT 170430Z 28003KT 1500 R25/1200 HZ NSC 15/10 Q1018 NOSIG=...\n",
      "[WARNING] No station code found in METAR: 202301170430 METAR VEPT 170430Z 28003KT 1500 R25/1...\n",
      "[WARNING] [Line 783] Invalid METAR format: Missing required METAR/SPECI identifier or station code\n",
      "          METAR: 202301170500 METAR VEPT 170500Z 29003KT 1500 R25/1200 HZ NSC 16/10 Q1018 NOSIG=...\n",
      "[WARNING] No station code found in METAR: 202301170500 METAR VEPT 170500Z 29003KT 1500 R25/1...\n",
      "[WARNING] [Line 784] Invalid METAR format: Missing required METAR/SPECI identifier or station code\n",
      "          METAR: 202301170530 METAR VEPT 170530Z 29006KT 1700 HZ NSC 17/10 Q1018 NOSIG=...\n",
      "[WARNING] No station code found in METAR: 202301170530 METAR VEPT 170530Z 29006KT 1700 HZ NS...\n",
      "[WARNING] [Line 785] Invalid METAR format: Missing required METAR/SPECI identifier or station code\n",
      "          METAR: 202301170600 METAR VEPT 170600Z 30005KT 1800 HZ NSC 18/10 Q1017 NOSIG=...\n",
      "[WARNING] No station code found in METAR: 202301170600 METAR VEPT 170600Z 30005KT 1800 HZ NS...\n",
      "[WARNING] [Line 786] Invalid METAR format: Missing required METAR/SPECI identifier or station code\n",
      "          METAR: 202301170630 METAR VEPT 170630Z 30005KT 2000 HZ NSC 18/09 Q1017 NOSIG=...\n",
      "[WARNING] No station code found in METAR: 202301170630 METAR VEPT 170630Z 30005KT 2000 HZ NS...\n",
      "[WARNING] [Line 787] Invalid METAR format: Missing required METAR/SPECI identifier or station code\n",
      "          METAR: 202301170700 METAR VEPT 170700Z 24004KT 2200 HZ NSC 19/10 Q1016 NOSIG=...\n",
      "[WARNING] No station code found in METAR: 202301170700 METAR VEPT 170700Z 24004KT 2200 HZ NS...\n",
      "[WARNING] [Line 788] Invalid METAR format: Missing required METAR/SPECI identifier or station code\n",
      "          METAR: 202301170730 METAR VEPT 170730Z 33005KT 2200 HZ NSC 19/10 Q1015 NOSIG=...\n",
      "[WARNING] No station code found in METAR: 202301170730 METAR VEPT 170730Z 33005KT 2200 HZ NS...\n",
      "[WARNING] [Line 789] Invalid METAR format: Missing required METAR/SPECI identifier or station code\n",
      "          METAR: 202301170800 METAR VEPT 170800Z 32003KT 2500 HZ NSC 19/10 Q1015 NOSIG=...\n",
      "[WARNING] No station code found in METAR: 202301170800 METAR VEPT 170800Z 32003KT 2500 HZ NS...\n",
      "[WARNING] [Line 790] Invalid METAR format: Missing required METAR/SPECI identifier or station code\n",
      "          METAR: 202301170830 METAR VEPT 170830Z 02003KT 2500 HZ NSC 20/10 Q1014 NOSIG=...\n",
      "[WARNING] No station code found in METAR: 202301170830 METAR VEPT 170830Z 02003KT 2500 HZ NS...\n",
      "[WARNING] [Line 791] Invalid METAR format: Missing required METAR/SPECI identifier or station code\n",
      "          METAR: 202301170900 METAR VEPT 170900Z 02005KT 2500 HZ NSC 20/09 Q1014 BECMG 3000 HZ=...\n",
      "[WARNING] No station code found in METAR: 202301170900 METAR VEPT 170900Z 02005KT 2500 HZ NS...\n",
      "[WARNING] [Line 792] Invalid METAR format: Missing required METAR/SPECI identifier or station code\n",
      "          METAR: 202301170930 METAR VEPT 170930Z 32005KT 3000 HZ NSC 20/10 Q1014 NOSIG=...\n",
      "[WARNING] No station code found in METAR: 202301170930 METAR VEPT 170930Z 32005KT 3000 HZ NS...\n",
      "[WARNING] [Line 793] Invalid METAR format: Missing required METAR/SPECI identifier or station code\n",
      "          METAR: 202301171000 METAR VEPT 171000Z 27005KT 3000 HZ NSC 20/09 Q1014 NOSIG=...\n",
      "[WARNING] No station code found in METAR: 202301171000 METAR VEPT 171000Z 27005KT 3000 HZ NS...\n",
      "[WARNING] [Line 794] Invalid METAR format: Missing required METAR/SPECI identifier or station code\n",
      "          METAR: 202301171030 METAR VEPT 171030Z 27005KT 3500 HZ NSC 20/09 Q1014 NOSIG=...\n",
      "[WARNING] No station code found in METAR: 202301171030 METAR VEPT 171030Z 27005KT 3500 HZ NS...\n",
      "[WARNING] [Line 795] Invalid METAR format: Missing required METAR/SPECI identifier or station code\n",
      "          METAR: 202301171100 METAR VEPT 171100Z 26005KT 3500 HZ NSC 19/09 Q1014 NOSIG=...\n",
      "[WARNING] No station code found in METAR: 202301171100 METAR VEPT 171100Z 26005KT 3500 HZ NS...\n",
      "[WARNING] [Line 796] Invalid METAR format: Missing required METAR/SPECI identifier or station code\n",
      "          METAR: 202301171130 METAR VEPT 171130Z 31003KT 3500 HZ NSC 18/09 Q1014 BECMG 3000 HZ=...\n",
      "[WARNING] No station code found in METAR: 202301171130 METAR VEPT 171130Z 31003KT 3500 HZ NS...\n",
      "[WARNING] [Line 797] Invalid METAR format: Missing required METAR/SPECI identifier or station code\n",
      "          METAR: 202301171200 METAR VEPT 171200Z 28003KT 3000 HZ NSC 18/09 Q1015 NOSIG=...\n",
      "[WARNING] No station code found in METAR: 202301171200 METAR VEPT 171200Z 28003KT 3000 HZ NS...\n",
      "[WARNING] [Line 798] Invalid METAR format: Missing required METAR/SPECI identifier or station code\n",
      "          METAR: 202301171230 METAR VEPT 171230Z 28003KT 3000 HZ NSC 17/10 Q1015 NOSIG=...\n",
      "[WARNING] No station code found in METAR: 202301171230 METAR VEPT 171230Z 28003KT 3000 HZ NS...\n",
      "[WARNING] [Line 799] Invalid METAR format: Missing required METAR/SPECI identifier or station code\n",
      "          METAR: 202301171300 METAR VEPT 171300Z 28003KT 2500 BR NSC 15/11 Q1015 NOSIG=...\n",
      "[WARNING] No station code found in METAR: 202301171300 METAR VEPT 171300Z 28003KT 2500 BR NS...\n",
      "[PROGRESS] Processed 800/1489 METARs...\n",
      "[WARNING] [Line 800] Invalid METAR format: Missing required METAR/SPECI identifier or station code\n",
      "          METAR: 202301171330 METAR VEPT 171330Z 30003KT 2500 BR NSC 15/11 Q1016 NOSIG=...\n",
      "[WARNING] No station code found in METAR: 202301171330 METAR VEPT 171330Z 30003KT 2500 BR NS...\n",
      "[WARNING] [Line 801] Invalid METAR format: Missing required METAR/SPECI identifier or station code\n",
      "          METAR: 202301171400 METAR VEPT 171400Z 30002KT 2500 BR NSC 14/11 Q1016 NOSIG=...\n",
      "[WARNING] No station code found in METAR: 202301171400 METAR VEPT 171400Z 30002KT 2500 BR NS...\n",
      "[WARNING] [Line 802] Invalid METAR format: Missing required METAR/SPECI identifier or station code\n",
      "          METAR: 202301171430 METAR VEPT 171430Z 00000KT 2000 BR NSC 13/11 Q1016 NOSIG=...\n",
      "[WARNING] No station code found in METAR: 202301171430 METAR VEPT 171430Z 00000KT 2000 BR NS...\n",
      "[WARNING] [Line 803] Invalid METAR format: Missing required METAR/SPECI identifier or station code\n",
      "          METAR: 202301171500 METAR VEPT 171500Z 00000KT 2000 BR NSC 12/11 Q1017 NOSIG=...\n",
      "[WARNING] No station code found in METAR: 202301171500 METAR VEPT 171500Z 00000KT 2000 BR NS...\n",
      "[WARNING] [Line 804] Invalid METAR format: Missing required METAR/SPECI identifier or station code\n",
      "          METAR: 202301171530 METAR VEPT 171530Z 00000KT 2000 BR NSC 11/11 Q1017 NOSIG=...\n",
      "[WARNING] No station code found in METAR: 202301171530 METAR VEPT 171530Z 00000KT 2000 BR NS...\n",
      "[WARNING] [Line 805] Invalid METAR format: Missing required METAR/SPECI identifier or station code\n",
      "          METAR: 202301171600 METAR VEPT 171600Z 00000KT 1800 BR NSC 11/11 Q1018 NOSIG=...\n",
      "[WARNING] No station code found in METAR: 202301171600 METAR VEPT 171600Z 00000KT 1800 BR NS...\n",
      "[WARNING] [Line 806] Invalid METAR format: Missing required METAR/SPECI identifier or station code\n",
      "          METAR: 202301171630 METAR VEPT 171630Z 00000KT 1800 BR NSC 11/11 Q1018 NOSIG=...\n",
      "[WARNING] No station code found in METAR: 202301171630 METAR VEPT 171630Z 00000KT 1800 BR NS...\n",
      "[WARNING] [Line 807] Invalid METAR format: Missing required METAR/SPECI identifier or station code\n",
      "          METAR: 202301171700 METAR VEPT 171700Z 00000KT 1600 BR NSC 10/10 Q1018 NOSIG=...\n",
      "[WARNING] No station code found in METAR: 202301171700 METAR VEPT 171700Z 00000KT 1600 BR NS...\n",
      "[WARNING] [Line 808] Invalid METAR format: Missing required METAR/SPECI identifier or station code\n",
      "          METAR: 202301171730 METAR VEPT 171730Z 00000KT 1600 BR NSC 10/09 Q1018 NOSIG=...\n",
      "[WARNING] No station code found in METAR: 202301171730 METAR VEPT 171730Z 00000KT 1600 BR NS...\n",
      "[WARNING] [Line 809] Invalid METAR format: Missing required METAR/SPECI identifier or station code\n",
      "          METAR: 202301171800 METAR VEPT 171800Z 00000KT 1600 BR NSC 10/10 Q1018 NOSIG=...\n",
      "[WARNING] No station code found in METAR: 202301171800 METAR VEPT 171800Z 00000KT 1600 BR NS...\n",
      "[WARNING] [Line 810] Invalid METAR format: Missing required METAR/SPECI identifier or station code\n",
      "          METAR: 202301171830 METAR VEPT 171830Z 00000KT 1600 BR NSC 09/09 Q1018 NOSIG=...\n",
      "[WARNING] No station code found in METAR: 202301171830 METAR VEPT 171830Z 00000KT 1600 BR NS...\n",
      "[WARNING] [Line 811] Invalid METAR format: Missing required METAR/SPECI identifier or station code\n",
      "          METAR: 202301171900 METAR VEPT 171900Z 00000KT 1600 BR NSC 09/09 Q1017 NOSIG=...\n",
      "[WARNING] No station code found in METAR: 202301171900 METAR VEPT 171900Z 00000KT 1600 BR NS...\n",
      "[WARNING] [Line 812] Invalid METAR format: Missing required METAR/SPECI identifier or station code\n",
      "          METAR: 202301171930 METAR VEPT 171930Z 00000KT 1600 BR NSC 09/09 Q1017 NOSIG=...\n",
      "[WARNING] No station code found in METAR: 202301171930 METAR VEPT 171930Z 00000KT 1600 BR NS...\n",
      "[WARNING] [Line 813] Invalid METAR format: Missing required METAR/SPECI identifier or station code\n",
      "          METAR: 202301172000 METAR VEPT 172000Z 00000KT 1600 BR NSC 09/09 Q1017 NOSIG=...\n",
      "[WARNING] No station code found in METAR: 202301172000 METAR VEPT 172000Z 00000KT 1600 BR NS...\n",
      "[WARNING] [Line 814] Invalid METAR format: Missing required METAR/SPECI identifier or station code\n",
      "          METAR: 202301172030 METAR VEPT 172030Z 00000KT 1600 BR NSC 09/09 Q1017 NOSIG=...\n",
      "[WARNING] No station code found in METAR: 202301172030 METAR VEPT 172030Z 00000KT 1600 BR NS...\n",
      "[WARNING] [Line 815] Invalid METAR format: Missing required METAR/SPECI identifier or station code\n",
      "          METAR: 202301172100 METAR VEPT 172100Z 00000KT 1600 BR NSC 09/08 Q1017 NOSIG=...\n",
      "[WARNING] No station code found in METAR: 202301172100 METAR VEPT 172100Z 00000KT 1600 BR NS...\n",
      "[WARNING] [Line 816] Invalid METAR format: Missing required METAR/SPECI identifier or station code\n",
      "          METAR: 202301172130 METAR VEPT 172130Z 00000KT 1600 BR NSC 08/08 Q1017 NOSIG=...\n",
      "[WARNING] No station code found in METAR: 202301172130 METAR VEPT 172130Z 00000KT 1600 BR NS...\n",
      "[WARNING] [Line 817] Invalid METAR format: Missing required METAR/SPECI identifier or station code\n",
      "          METAR: 202301172200 METAR VEPT 172200Z 00000KT 1400 R25/2000 BR NSC 08/08 Q1017 NOSIG=...\n",
      "[WARNING] No station code found in METAR: 202301172200 METAR VEPT 172200Z 00000KT 1400 R25/2...\n",
      "[WARNING] [Line 818] Invalid METAR format: Missing required METAR/SPECI identifier or station code\n",
      "          METAR: 202301172230 METAR VEPT 172230Z 00000KT 1200 R25/2000 BR NSC 08/08 Q1017 NOSIG=...\n",
      "[WARNING] No station code found in METAR: 202301172230 METAR VEPT 172230Z 00000KT 1200 R25/2...\n",
      "[WARNING] [Line 819] Invalid METAR format: Missing required METAR/SPECI identifier or station code\n",
      "          METAR: 202301172300 METAR VEPT 172300Z 00000KT 1200 R25/2000 BR NSC 08/08 Q1017 NOSIG=...\n",
      "[WARNING] No station code found in METAR: 202301172300 METAR VEPT 172300Z 00000KT 1200 R25/2...\n",
      "[WARNING] [Line 820] Invalid METAR format: Missing required METAR/SPECI identifier or station code\n",
      "          METAR: 202301172330 METAR VEPT 172330Z 00000KT 1000 R25/2000 MIFG NSC 08/08 Q1017 BECMG...\n",
      "[WARNING] No station code found in METAR: 202301172330 METAR VEPT 172330Z 00000KT 1000 R25/2...\n",
      "[WARNING] [Line 821] Invalid METAR format: Missing required METAR/SPECI identifier or station code\n",
      "          METAR: 202301180000 METAR VEPT 180000Z 00000KT 1000 R25/2000 MIFG NSC 08/08 Q1017 BECMG...\n",
      "[WARNING] No station code found in METAR: 202301180000 METAR VEPT 180000Z 00000KT 1000 R25/2...\n",
      "[WARNING] [Line 822] Invalid METAR format: Missing required METAR/SPECI identifier or station code\n",
      "          METAR: 202301180030 METAR VEPT 180030Z 23002KT 1000 R25/2000 MIFG NSC 09/09 Q1018 BECMG...\n",
      "[WARNING] No station code found in METAR: 202301180030 METAR VEPT 180030Z 23002KT 1000 R25/2...\n",
      "[WARNING] [Line 823] Invalid METAR format: Missing required METAR/SPECI identifier or station code\n",
      "          METAR: 202301180100 METAR VEPT 180100Z 23003KT 0800 R25/2000 FG NSC 09/09 Q1018 NOSIG=...\n",
      "[WARNING] No station code found in METAR: 202301180100 METAR VEPT 180100Z 23003KT 0800 R25/2...\n",
      "[WARNING] [Line 824] Invalid METAR format: Missing required METAR/SPECI identifier or station code\n",
      "          METAR: 202301180130 METAR VEPT 180130Z 25003KT 0600 R25/1300 FG NSC 08/08 Q1019 NOSIG=...\n",
      "[WARNING] No station code found in METAR: 202301180130 METAR VEPT 180130Z 25003KT 0600 R25/1...\n",
      "[WARNING] [Line 825] Invalid METAR format: Missing required METAR/SPECI identifier or station code\n",
      "          METAR: 202301180200 METAR VEPT 180200Z 00000KT 0600 R25/1300 FG NSC 09/08 Q1019 NOSIG=...\n",
      "[WARNING] No station code found in METAR: 202301180200 METAR VEPT 180200Z 00000KT 0600 R25/1...\n",
      "[WARNING] [Line 826] Invalid METAR format: Missing required METAR/SPECI identifier or station code\n",
      "          METAR: 202301180230 METAR VEPT 180230Z 00000KT 0700 R25/1300 FG NSC 10/09 Q1020 BECMG 0...\n",
      "[WARNING] No station code found in METAR: 202301180230 METAR VEPT 180230Z 00000KT 0700 R25/1...\n",
      "[WARNING] [Line 827] Invalid METAR format: Missing required METAR/SPECI identifier or station code\n",
      "          METAR: 202301180300 METAR VEPT 180300Z 23003KT 0800 R25/1400 FG NSC 11/10 Q1020 NOSIG=...\n",
      "[WARNING] No station code found in METAR: 202301180300 METAR VEPT 180300Z 23003KT 0800 R25/1...\n",
      "[WARNING] [Line 828] Invalid METAR format: Missing required METAR/SPECI identifier or station code\n",
      "          METAR: 202301180330 METAR VEPT 180330Z 32003KT 1000 R25/1400 MIFG NSC 13/11 Q1020 NOSIG...\n",
      "[WARNING] No station code found in METAR: 202301180330 METAR VEPT 180330Z 32003KT 1000 R25/1...\n",
      "[WARNING] [Line 829] Invalid METAR format: Missing required METAR/SPECI identifier or station code\n",
      "          METAR: 202301180400 METAR VEPT 180400Z 27003KT 1000 R25/1500 MIFG NSC 14/12 Q1021 NOSIG...\n",
      "[WARNING] No station code found in METAR: 202301180400 METAR VEPT 180400Z 27003KT 1000 R25/1...\n",
      "[WARNING] [Line 830] Invalid METAR format: Missing required METAR/SPECI identifier or station code\n",
      "          METAR: 202301180430 METAR VEPT 180430Z 30003KT 1200 R25/1800 BR NSC 15/11 Q1021 BECMG 1...\n",
      "[WARNING] No station code found in METAR: 202301180430 METAR VEPT 180430Z 30003KT 1200 R25/1...\n",
      "[WARNING] [Line 831] Invalid METAR format: Missing required METAR/SPECI identifier or station code\n",
      "          METAR: 202301180500 METAR VEPT 180500Z 25003KT 1500 R25/2000 BR NSC 17/11 Q1021 NOSIG=...\n",
      "[WARNING] No station code found in METAR: 202301180500 METAR VEPT 180500Z 25003KT 1500 R25/2...\n",
      "[WARNING] [Line 832] Invalid METAR format: Missing required METAR/SPECI identifier or station code\n",
      "          METAR: 202301180530 METAR VEPT 180530Z 30005KT 1800 HZ NSC 18/11 Q1020 NOSIG=...\n",
      "[WARNING] No station code found in METAR: 202301180530 METAR VEPT 180530Z 30005KT 1800 HZ NS...\n",
      "[WARNING] [Line 833] Invalid METAR format: Missing required METAR/SPECI identifier or station code\n",
      "          METAR: 202301180600 METAR VEPT 180600Z 29005KT 2000 HZ NSC 19/11 Q1020 NOSIG=...\n",
      "[WARNING] No station code found in METAR: 202301180600 METAR VEPT 180600Z 29005KT 2000 HZ NS...\n",
      "[WARNING] [Line 834] Invalid METAR format: Missing required METAR/SPECI identifier or station code\n",
      "          METAR: 202301180630 METAR VEPT 180630Z 29005KT 2000 HZ NSC 19/11 Q1019 NOSIG=...\n",
      "[WARNING] No station code found in METAR: 202301180630 METAR VEPT 180630Z 29005KT 2000 HZ NS...\n",
      "[WARNING] [Line 835] Invalid METAR format: Missing required METAR/SPECI identifier or station code\n",
      "          METAR: 202301180700 METAR VEPT 180700Z 30008KT 2500 HZ NSC 19/10 Q1019 NOSIG=...\n",
      "[WARNING] No station code found in METAR: 202301180700 METAR VEPT 180700Z 30008KT 2500 HZ NS...\n",
      "[WARNING] [Line 836] Invalid METAR format: Missing required METAR/SPECI identifier or station code\n",
      "          METAR: 202301180730 METAR VEPT 180730Z 31005KT 2500 HZ NSC 20/10 Q1018 BECMG 3000 HZ=...\n",
      "[WARNING] No station code found in METAR: 202301180730 METAR VEPT 180730Z 31005KT 2500 HZ NS...\n",
      "[WARNING] [Line 837] Invalid METAR format: Missing required METAR/SPECI identifier or station code\n",
      "          METAR: 202301180800 METAR VEPT 180800Z 33005KT 2500 HZ NSC 20/10 Q1017 NOSIG=...\n",
      "[WARNING] No station code found in METAR: 202301180800 METAR VEPT 180800Z 33005KT 2500 HZ NS...\n",
      "[WARNING] [Line 838] Invalid METAR format: Missing required METAR/SPECI identifier or station code\n",
      "          METAR: 202301180830 METAR VEPT 180830Z 34004KT 2500 HZ NSC 20/11 Q1017 NOSIG=...\n",
      "[WARNING] No station code found in METAR: 202301180830 METAR VEPT 180830Z 34004KT 2500 HZ NS...\n",
      "[WARNING] [Line 839] Invalid METAR format: Missing required METAR/SPECI identifier or station code\n",
      "          METAR: 202301180900 METAR VEPT 180900Z 32003KT 2500 HZ NSC 20/10 Q1017 NOSIG=...\n",
      "[WARNING] No station code found in METAR: 202301180900 METAR VEPT 180900Z 32003KT 2500 HZ NS...\n",
      "[WARNING] [Line 840] Invalid METAR format: Missing required METAR/SPECI identifier or station code\n",
      "          METAR: 202301180930 METAR VEPT 180930Z 28007KT 2500 HZ NSC 20/10 Q1016 NOSIG=...\n",
      "[WARNING] No station code found in METAR: 202301180930 METAR VEPT 180930Z 28007KT 2500 HZ NS...\n",
      "[WARNING] [Line 841] Invalid METAR format: Missing required METAR/SPECI identifier or station code\n",
      "          METAR: 202301181000 METAR VEPT 181000Z 27005KT 2500 HZ NSC 20/10 Q1016 NOSIG=...\n",
      "[WARNING] No station code found in METAR: 202301181000 METAR VEPT 181000Z 27005KT 2500 HZ NS...\n",
      "[WARNING] [Line 842] Invalid METAR format: Missing required METAR/SPECI identifier or station code\n",
      "          METAR: 202301181030 METAR VEPT 181030Z 26004KT 2500 HZ NSC 20/10 Q1016 NOSIG=...\n",
      "[WARNING] No station code found in METAR: 202301181030 METAR VEPT 181030Z 26004KT 2500 HZ NS...\n",
      "[WARNING] [Line 843] Invalid METAR format: Missing required METAR/SPECI identifier or station code\n",
      "          METAR: 202301181100 METAR VEPT 181100Z 29006KT 2500 HZ NSC 20/10 Q1016 NOSIG=...\n",
      "[WARNING] No station code found in METAR: 202301181100 METAR VEPT 181100Z 29006KT 2500 HZ NS...\n",
      "[WARNING] [Line 844] Invalid METAR format: Missing required METAR/SPECI identifier or station code\n",
      "          METAR: 202301181130 METAR VEPT 181130Z 29004KT 2000 HZ NSC 19/10 Q1016 NOSIG=...\n",
      "[WARNING] No station code found in METAR: 202301181130 METAR VEPT 181130Z 29004KT 2000 HZ NS...\n",
      "[WARNING] [Line 845] Invalid METAR format: Missing required METAR/SPECI identifier or station code\n",
      "          METAR: 202301181200 METAR VEPT 181200Z 29004KT 2000 HZ NSC 18/10 Q1016 NOSIG=...\n",
      "[WARNING] No station code found in METAR: 202301181200 METAR VEPT 181200Z 29004KT 2000 HZ NS...\n",
      "[WARNING] [Line 846] Invalid METAR format: Missing required METAR/SPECI identifier or station code\n",
      "          METAR: 202301181230 METAR VEPT 181230Z 30004KT 2500 HZ NSC 18/10 Q1016 NOSIG=...\n",
      "[WARNING] No station code found in METAR: 202301181230 METAR VEPT 181230Z 30004KT 2500 HZ NS...\n",
      "[WARNING] [Line 847] Invalid METAR format: Missing required METAR/SPECI identifier or station code\n",
      "          METAR: 202301181300 METAR VEPT 181300Z 30003KT 2500 HZ NSC 17/10 Q1017 NOSIG=...\n",
      "[WARNING] No station code found in METAR: 202301181300 METAR VEPT 181300Z 30003KT 2500 HZ NS...\n",
      "[WARNING] [Line 848] Invalid METAR format: Missing required METAR/SPECI identifier or station code\n",
      "          METAR: 202301181330 METAR VEPT 181330Z 00000KT 2500 BR NSC 15/11 Q1017 NOSIG=...\n",
      "[WARNING] No station code found in METAR: 202301181330 METAR VEPT 181330Z 00000KT 2500 BR NS...\n",
      "[WARNING] [Line 849] Invalid METAR format: Missing required METAR/SPECI identifier or station code\n",
      "          METAR: 202301181400 METAR VEPT 181400Z 31005KT 2000 HZ NSC 13/10 Q1018 NO SIG=...\n",
      "[WARNING] No station code found in METAR: 202301181400 METAR VEPT 181400Z 31005KT 2000 HZ NS...\n",
      "[WARNING] [Line 850] Invalid METAR format: Missing required METAR/SPECI identifier or station code\n",
      "          METAR: 202301181404 METAR VEPT 181404Z 31005KT 2500 HZ NSC 20/10 Q1018 BECMG 3000 HZ=...\n",
      "[WARNING] No station code found in METAR: 202301181404 METAR VEPT 181404Z 31005KT 2500 HZ NS...\n",
      "[WARNING] [Line 851] Invalid METAR format: Missing required METAR/SPECI identifier or station code\n",
      "          METAR: 202301181430 METAR VEPT 181430Z 00000KT 2000 BR NSC 12/11 Q1018 NOSIG=...\n",
      "[WARNING] No station code found in METAR: 202301181430 METAR VEPT 181430Z 00000KT 2000 BR NS...\n",
      "[WARNING] [Line 852] Invalid METAR format: Missing required METAR/SPECI identifier or station code\n",
      "          METAR: 202301181500 METAR VEPT 181500Z 00000KT 2000 BR NSC 12/12 Q1018 NOSIG=...\n",
      "[WARNING] No station code found in METAR: 202301181500 METAR VEPT 181500Z 00000KT 2000 BR NS...\n",
      "[WARNING] [Line 853] Invalid METAR format: Missing required METAR/SPECI identifier or station code\n",
      "          METAR: 202301181530 METAR VEPT 181530Z 00000KT 1800 BR NSC 11/09 Q1019 NOSIG=...\n",
      "[WARNING] No station code found in METAR: 202301181530 METAR VEPT 181530Z 00000KT 1800 BR NS...\n",
      "[WARNING] [Line 854] Invalid METAR format: Missing required METAR/SPECI identifier or station code\n",
      "          METAR: 202301181600 METAR VEPT 181600Z 00000KT 1600 BR NSC 11/09 Q1019 BECMG 1500 BR=...\n",
      "[WARNING] No station code found in METAR: 202301181600 METAR VEPT 181600Z 00000KT 1600 BR NS...\n",
      "[WARNING] [Line 855] Invalid METAR format: Missing required METAR/SPECI identifier or station code\n",
      "          METAR: 202301181630 METAR VEPT 181630Z 00000KT 1400 R25/2000 BR NSC 10/09 Q1019 NOSIG=...\n",
      "[WARNING] No station code found in METAR: 202301181630 METAR VEPT 181630Z 00000KT 1400 R25/2...\n",
      "[WARNING] [Line 856] Invalid METAR format: Missing required METAR/SPECI identifier or station code\n",
      "          METAR: 202301181700 METAR VEPT 181700Z 00000KT 1400 R25/2000 BR NSC 10/09 Q1019 NOSIG=...\n",
      "[WARNING] No station code found in METAR: 202301181700 METAR VEPT 181700Z 00000KT 1400 R25/2...\n",
      "[WARNING] [Line 857] Invalid METAR format: Missing required METAR/SPECI identifier or station code\n",
      "          METAR: 202301181730 METAR VEPT 181730Z 00000KT 1300 R25/1800 BR NSC 09/08 Q1019 NOSIG=...\n",
      "[WARNING] No station code found in METAR: 202301181730 METAR VEPT 181730Z 00000KT 1300 R25/1...\n",
      "[WARNING] [Line 858] Invalid METAR format: Missing required METAR/SPECI identifier or station code\n",
      "          METAR: 202301181830 METAR VEPT 181830Z 00000KT 1200 R25/1600 MIFG NSC 08/08 Q1019 NOSIG...\n",
      "[WARNING] No station code found in METAR: 202301181830 METAR VEPT 181830Z 00000KT 1200 R25/1...\n",
      "[WARNING] [Line 859] Invalid METAR format: Missing required METAR/SPECI identifier or station code\n",
      "          METAR: 202301181930 METAR VEPT 181930Z 00000KT 1100 R25/1100 MIFG NSC 09/08 Q1019 NOSIG...\n",
      "[WARNING] No station code found in METAR: 202301181930 METAR VEPT 181930Z 00000KT 1100 R25/1...\n",
      "[WARNING] [Line 860] Invalid METAR format: Missing required METAR/SPECI identifier or station code\n",
      "          METAR: 202301182000 METAR VEPT 182000Z 00000KT 1100 R25/1600 MIFG NSC 08/08 Q1019 NOSIG...\n",
      "[WARNING] No station code found in METAR: 202301182000 METAR VEPT 182000Z 00000KT 1100 R25/1...\n",
      "[WARNING] [Line 861] Invalid METAR format: Missing required METAR/SPECI identifier or station code\n",
      "          METAR: 202301182030 METAR VEPT 182030Z 00000KT 1100 R25/1600 MIFG NSC 08/08 Q1018 NOSIG...\n",
      "[WARNING] No station code found in METAR: 202301182030 METAR VEPT 182030Z 00000KT 1100 R25/1...\n",
      "[WARNING] [Line 862] Invalid METAR format: Missing required METAR/SPECI identifier or station code\n",
      "          METAR: 202301182100 METAR VEPT 182100Z 00000KT 1100 R25/1200 MIFG NSC 08/08 Q1018 NOSIG...\n",
      "[WARNING] No station code found in METAR: 202301182100 METAR VEPT 182100Z 00000KT 1100 R25/1...\n",
      "[WARNING] [Line 863] Invalid METAR format: Missing required METAR/SPECI identifier or station code\n",
      "          METAR: 202301182130 METAR VEPT 182130Z 00000KT 1100 R25/1100 MIFG NSC 08/07 Q1018 NOSIG...\n",
      "[WARNING] No station code found in METAR: 202301182130 METAR VEPT 182130Z 00000KT 1100 R25/1...\n",
      "[WARNING] [Line 864] Invalid METAR format: Missing required METAR/SPECI identifier or station code\n",
      "          METAR: 202301182200 METAR VEPT 182200Z 00000KT 1000 R25/0800 MIFG NSC 07/07 Q1018 NOSIG...\n",
      "[WARNING] No station code found in METAR: 202301182200 METAR VEPT 182200Z 00000KT 1000 R25/0...\n",
      "[WARNING] [Line 865] Invalid METAR format: Missing required METAR/SPECI identifier or station code\n",
      "          METAR: 202301182230 METAR VEPT 182230Z 00000KT 1000 R25/1200 MIFG NSC 07/06 Q1018 NOSIG...\n",
      "[WARNING] No station code found in METAR: 202301182230 METAR VEPT 182230Z 00000KT 1000 R25/1...\n",
      "[WARNING] [Line 866] Invalid METAR format: Missing required METAR/SPECI identifier or station code\n",
      "          METAR: 202301182300 METAR VEPT 182300Z 00000KT 1000 R25/1200 MIFG NSC 07/06 Q1018 NOSIG...\n",
      "[WARNING] No station code found in METAR: 202301182300 METAR VEPT 182300Z 00000KT 1000 R25/1...\n",
      "[WARNING] [Line 867] Invalid METAR format: Missing required METAR/SPECI identifier or station code\n",
      "          METAR: 202301182330 METAR VEPT 182330Z 00000KT 1000 R25/1200 MIFG 07/06 Q1018 BECMG 080...\n",
      "[WARNING] No station code found in METAR: 202301182330 METAR VEPT 182330Z 00000KT 1000 R25/1...\n",
      "[WARNING] [Line 868] Invalid METAR format: Missing required METAR/SPECI identifier or station code\n",
      "          METAR: 202301190000 METAR VEPT 190000Z 00000KT 0800 R25/1200 MIFG 07/06 Q1019 N0SIG=...\n",
      "[WARNING] No station code found in METAR: 202301190000 METAR VEPT 190000Z 00000KT 0800 R25/1...\n",
      "[WARNING] [Line 869] Invalid METAR format: Missing required METAR/SPECI identifier or station code\n",
      "          METAR: 202301190030 METAR VEPT 190030Z 00000KT 0800 R25/1200 MIFG 07/06 Q1019 NOSIG=...\n",
      "[WARNING] No station code found in METAR: 202301190030 METAR VEPT 190030Z 00000KT 0800 R25/1...\n",
      "[WARNING] [Line 870] Invalid METAR format: Missing required METAR/SPECI identifier or station code\n",
      "          METAR: 202301190100 METAR VEPT 190100Z 00000KT 0700 R25/0950 FG 08/07 Q1020 NOSIG=...\n",
      "[WARNING] No station code found in METAR: 202301190100 METAR VEPT 190100Z 00000KT 0700 R25/0...\n",
      "[WARNING] [Line 871] Invalid METAR format: Missing required METAR/SPECI identifier or station code\n",
      "          METAR: 202301190130 METAR VEPT 190130Z 00000KT 0700 R25/1300 FG 09/08 Q1020 NOSIG=...\n",
      "[WARNING] No station code found in METAR: 202301190130 METAR VEPT 190130Z 00000KT 0700 R25/1...\n",
      "[WARNING] [Line 872] Invalid METAR format: Missing required METAR/SPECI identifier or station code\n",
      "          METAR: 202301190200 METAR VEPT 190200Z 00000KT 0500 R25/1000 FG VV/// 09/09 Q1020 BECMG...\n",
      "[WARNING] No station code found in METAR: 202301190200 METAR VEPT 190200Z 00000KT 0500 R25/1...\n",
      "[WARNING] [Line 873] Invalid METAR format: Missing required METAR/SPECI identifier or station code\n",
      "          METAR: 202301190230 METAR VEPT 190230Z 00000KT 0500 R25/1000 FG VV/// 10/10 Q1021 BECMG...\n",
      "[WARNING] No station code found in METAR: 202301190230 METAR VEPT 190230Z 00000KT 0500 R25/1...\n",
      "[WARNING] [Line 874] Invalid METAR format: Missing required METAR/SPECI identifier or station code\n",
      "          METAR: 202301190300 METAR VEPT 190300Z 27002KT 0600 R25/1200 FG NSC 12/11 Q1021 BECMG 0...\n",
      "[WARNING] No station code found in METAR: 202301190300 METAR VEPT 190300Z 27002KT 0600 R25/1...\n",
      "[WARNING] [Line 875] Invalid METAR format: Missing required METAR/SPECI identifier or station code\n",
      "          METAR: 202301190330 METAR VEPT 190330Z 27003KT 0800 R25/1200 FG NSC 13/12 Q1022 NOSIG=...\n",
      "[WARNING] No station code found in METAR: 202301190330 METAR VEPT 190330Z 27003KT 0800 R25/1...\n",
      "[WARNING] [Line 876] Invalid METAR format: Missing required METAR/SPECI identifier or station code\n",
      "          METAR: 202301190400 METAR VEPT 190400Z 28003KT 1000 R25/1400 MIFG NSC 14/12 Q1022 NOSIG...\n",
      "[WARNING] No station code found in METAR: 202301190400 METAR VEPT 190400Z 28003KT 1000 R25/1...\n",
      "[WARNING] [Line 877] Invalid METAR format: Missing required METAR/SPECI identifier or station code\n",
      "          METAR: 202301190430 METAR VEPT 190430Z 27002KT 1200 R25/1500 BR NSC 16/12 Q1022 NOSIG=...\n",
      "[WARNING] No station code found in METAR: 202301190430 METAR VEPT 190430Z 27002KT 1200 R25/1...\n",
      "[WARNING] [Line 878] Invalid METAR format: Missing required METAR/SPECI identifier or station code\n",
      "          METAR: 202301190500 METAR VEPT 190500Z 27002KT 1200 R25/1700 HZ NSC 17/11 Q1022 BECMG 1...\n",
      "[WARNING] No station code found in METAR: 202301190500 METAR VEPT 190500Z 27002KT 1200 R25/1...\n",
      "[WARNING] [Line 879] Invalid METAR format: Missing required METAR/SPECI identifier or station code\n",
      "          METAR: 202301190530 METAR VEPT 190530Z 35003KT 1500 R25/2000 HZ NSC 18/11 Q1021 NOSIG=...\n",
      "[WARNING] No station code found in METAR: 202301190530 METAR VEPT 190530Z 35003KT 1500 R25/2...\n",
      "[WARNING] [Line 880] Invalid METAR format: Missing required METAR/SPECI identifier or station code\n",
      "          METAR: 202301190600 METAR VEPT 190600Z 35002KT 1500 R25/2000 HZ NSC 19/09 Q1021 NOSIG=...\n",
      "[WARNING] No station code found in METAR: 202301190600 METAR VEPT 190600Z 35002KT 1500 R25/2...\n",
      "[WARNING] [Line 881] Invalid METAR format: Missing required METAR/SPECI identifier or station code\n",
      "          METAR: 202301190630 METAR VEPT 190630Z 33002KT 1500 R25/2000 HZ NSC 20/10 Q1020 NOSIG=...\n",
      "[WARNING] No station code found in METAR: 202301190630 METAR VEPT 190630Z 33002KT 1500 R25/2...\n",
      "[WARNING] [Line 882] Invalid METAR format: Missing required METAR/SPECI identifier or station code\n",
      "          METAR: 202301190700 METAR VEPT 190700Z 01002KT 1500 R25/2000 HZ NSC 21/11 Q1019 NOSIG=...\n",
      "[WARNING] No station code found in METAR: 202301190700 METAR VEPT 190700Z 01002KT 1500 R25/2...\n",
      "[WARNING] [Line 883] Invalid METAR format: Missing required METAR/SPECI identifier or station code\n",
      "          METAR: 202301190730 METAR VEPT 190730Z 27003KT 1600 HZ NSC 21/11 Q1018 NOSIG=...\n",
      "[WARNING] No station code found in METAR: 202301190730 METAR VEPT 190730Z 27003KT 1600 HZ NS...\n",
      "[WARNING] [Line 884] Invalid METAR format: Missing required METAR/SPECI identifier or station code\n",
      "          METAR: 202301190800 METAR VEPT 190800Z 32004KT 1800 HZ NSC 22/09 Q1018 NOSIG=...\n",
      "[WARNING] No station code found in METAR: 202301190800 METAR VEPT 190800Z 32004KT 1800 HZ NS...\n",
      "[WARNING] [Line 885] Invalid METAR format: Missing required METAR/SPECI identifier or station code\n",
      "          METAR: 202301190830 METAR VEPT 190830Z 31005KT 2000 HZ NSC 21/09 Q1017 NOSIG=...\n",
      "[WARNING] No station code found in METAR: 202301190830 METAR VEPT 190830Z 31005KT 2000 HZ NS...\n",
      "[WARNING] [Line 886] Invalid METAR format: Missing required METAR/SPECI identifier or station code\n",
      "          METAR: 202301190900 METAR VEPT 190900Z 30002KT 2000 HZ NSC 22/09 Q1017 NOSIG=...\n",
      "[WARNING] No station code found in METAR: 202301190900 METAR VEPT 190900Z 30002KT 2000 HZ NS...\n",
      "[WARNING] [Line 887] Invalid METAR format: Missing required METAR/SPECI identifier or station code\n",
      "          METAR: 202301190930 METAR VEPT 190930Z 27003KT 2000 HZ NSC 22/09 Q1016 NOSIG=...\n",
      "[WARNING] No station code found in METAR: 202301190930 METAR VEPT 190930Z 27003KT 2000 HZ NS...\n",
      "[WARNING] [Line 888] Invalid METAR format: Missing required METAR/SPECI identifier or station code\n",
      "          METAR: 202301191000 METAR VEPT 191000Z 26004KT 2500 HZ NSC 22/10 Q1016 NOSIG=...\n",
      "[WARNING] No station code found in METAR: 202301191000 METAR VEPT 191000Z 26004KT 2500 HZ NS...\n",
      "[WARNING] [Line 889] Invalid METAR format: Missing required METAR/SPECI identifier or station code\n",
      "          METAR: 202301191030 METAR VEPT 191030Z 28005KT 2500 HZ NSC 21/09 Q1016 NOSIG=...\n",
      "[WARNING] No station code found in METAR: 202301191030 METAR VEPT 191030Z 28005KT 2500 HZ NS...\n",
      "[WARNING] [Line 890] Invalid METAR format: Missing required METAR/SPECI identifier or station code\n",
      "          METAR: 202301191100 METAR VEPT 191100Z 27006KT 2500 HZ NSC 21/11 Q1016 NOSIG=...\n",
      "[WARNING] No station code found in METAR: 202301191100 METAR VEPT 191100Z 27006KT 2500 HZ NS...\n",
      "[WARNING] [Line 891] Invalid METAR format: Missing required METAR/SPECI identifier or station code\n",
      "          METAR: 202301191130 METAR VEPT 191130Z 30003KT 2000 HZ FEW100 20/11 Q1016 NOSIG=...\n",
      "[WARNING] No station code found in METAR: 202301191130 METAR VEPT 191130Z 30003KT 2000 HZ FE...\n",
      "[WARNING] [Line 892] Invalid METAR format: Missing required METAR/SPECI identifier or station code\n",
      "          METAR: 202301191200 METAR VEPT 191200Z 27002KT 2000 HZ FEW100 19/11 Q1016 NOSIG=...\n",
      "[WARNING] No station code found in METAR: 202301191200 METAR VEPT 191200Z 27002KT 2000 HZ FE...\n",
      "[WARNING] [Line 893] Invalid METAR format: Missing required METAR/SPECI identifier or station code\n",
      "          METAR: 202301191230 METAR VEPT 191230Z 25002KT 2000 HZ FEW100 18/11 Q1017 NOSIG=...\n",
      "[WARNING] No station code found in METAR: 202301191230 METAR VEPT 191230Z 25002KT 2000 HZ FE...\n",
      "[WARNING] [Line 894] Invalid METAR format: Missing required METAR/SPECI identifier or station code\n",
      "          METAR: 202301191300 METAR VEPT 191300Z 20002KT 2000 HZ FEW100 16/10 Q1017 NOSIG=...\n",
      "[WARNING] No station code found in METAR: 202301191300 METAR VEPT 191300Z 20002KT 2000 HZ FE...\n",
      "[WARNING] [Line 895] Invalid METAR format: Missing required METAR/SPECI identifier or station code\n",
      "          METAR: 202301191330 METAR VEPT 191330Z 00000KT 1800 BR NSC 16/12 Q1017 NOSIG=...\n",
      "[WARNING] No station code found in METAR: 202301191330 METAR VEPT 191330Z 00000KT 1800 BR NS...\n",
      "[WARNING] [Line 896] Invalid METAR format: Missing required METAR/SPECI identifier or station code\n",
      "          METAR: 202301191400 METAR VEPT 191400Z 00000KT 1800 BR NSC 14/11 Q1017 NOSIG=...\n",
      "[WARNING] No station code found in METAR: 202301191400 METAR VEPT 191400Z 00000KT 1800 BR NS...\n",
      "[WARNING] [Line 897] Invalid METAR format: Missing required METAR/SPECI identifier or station code\n",
      "          METAR: 202301191430 METAR VEPT 191430Z 00000KT 1800 BR NSC 14/11 Q1017 NOSIG=...\n",
      "[WARNING] No station code found in METAR: 202301191430 METAR VEPT 191430Z 00000KT 1800 BR NS...\n",
      "[WARNING] [Line 898] Invalid METAR format: Missing required METAR/SPECI identifier or station code\n",
      "          METAR: 202301191500 METAR VEPT 191500Z 00000KT 1800 BR NSC 14/11 Q1018 NOSIG=...\n",
      "[WARNING] No station code found in METAR: 202301191500 METAR VEPT 191500Z 00000KT 1800 BR NS...\n",
      "[WARNING] [Line 899] Invalid METAR format: Missing required METAR/SPECI identifier or station code\n",
      "          METAR: 202301191530 METAR VEPT 191530Z 00000KT 1800 BR NSC 14/11 Q1018 NOSIG=...\n",
      "[WARNING] No station code found in METAR: 202301191530 METAR VEPT 191530Z 00000KT 1800 BR NS...\n",
      "[PROGRESS] Processed 900/1489 METARs...\n",
      "[WARNING] [Line 900] Invalid METAR format: Missing required METAR/SPECI identifier or station code\n",
      "          METAR: 202301191600 METAR VEPT 191600Z 00000KT 1800 BR NSC 14/11 Q1018 NOSIG=...\n",
      "[WARNING] No station code found in METAR: 202301191600 METAR VEPT 191600Z 00000KT 1800 BR NS...\n",
      "[WARNING] [Line 901] Invalid METAR format: Missing required METAR/SPECI identifier or station code\n",
      "          METAR: 202301191630 METAR VEPT 191630Z 00000KT 1600 BR NSC 13/11 Q1018 NOSIG=...\n",
      "[WARNING] No station code found in METAR: 202301191630 METAR VEPT 191630Z 00000KT 1600 BR NS...\n",
      "[WARNING] [Line 902] Invalid METAR format: Missing required METAR/SPECI identifier or station code\n",
      "          METAR: 202301191700 METAR VEPT 191700Z 00000KT 1600 BR NSC 13/11 Q1018 BECMG 1500 BR=...\n",
      "[WARNING] No station code found in METAR: 202301191700 METAR VEPT 191700Z 00000KT 1600 BR NS...\n",
      "[WARNING] [Line 903] Invalid METAR format: Missing required METAR/SPECI identifier or station code\n",
      "          METAR: 202301191730 METAR VEPT 191730Z 00000KT 1500 R25/2000 BR NSC 13/11 Q1018 NOSIG=...\n",
      "[WARNING] No station code found in METAR: 202301191730 METAR VEPT 191730Z 00000KT 1500 R25/2...\n",
      "[WARNING] [Line 904] Invalid METAR format: Missing required METAR/SPECI identifier or station code\n",
      "          METAR: 202301191800 METAR VEPT 191800Z 00000KT 1500 R25/2000 BR NSC 12/11 Q1018 NOSIG=...\n",
      "[WARNING] No station code found in METAR: 202301191800 METAR VEPT 191800Z 00000KT 1500 R25/2...\n",
      "[WARNING] [Line 905] Invalid METAR format: Missing required METAR/SPECI identifier or station code\n",
      "          METAR: 202301191830 METAR VEPT 191830Z 00000KT 1400 R25/1800 BR NSC 12/11 Q1017 NOSIG=...\n",
      "[WARNING] No station code found in METAR: 202301191830 METAR VEPT 191830Z 00000KT 1400 R25/1...\n",
      "[WARNING] [Line 906] Invalid METAR format: Missing required METAR/SPECI identifier or station code\n",
      "          METAR: 202301191900 METAR VEPT 191900Z 00000KT 1400 R25/1800 BR NSC 12/11 Q1017 NOSIG=...\n",
      "[WARNING] No station code found in METAR: 202301191900 METAR VEPT 191900Z 00000KT 1400 R25/1...\n",
      "[WARNING] [Line 907] Invalid METAR format: Missing required METAR/SPECI identifier or station code\n",
      "          METAR: 202301191930 METAR VEPT 191930Z 00000KT 1400 R25/1800 BR NSC 12/11 Q1017 NOSIG=...\n",
      "[WARNING] No station code found in METAR: 202301191930 METAR VEPT 191930Z 00000KT 1400 R25/1...\n",
      "[WARNING] [Line 908] Invalid METAR format: Missing required METAR/SPECI identifier or station code\n",
      "          METAR: 202301192000 METAR VEPT 192000Z 00000KT 1400 R25/1800 BR NSC 11/10 Q1017 NOSIG=...\n",
      "[WARNING] No station code found in METAR: 202301192000 METAR VEPT 192000Z 00000KT 1400 R25/1...\n",
      "[WARNING] [Line 909] Invalid METAR format: Missing required METAR/SPECI identifier or station code\n",
      "          METAR: 202301192030 METAR VEPT 192030Z 00000KT 1200 R25/1600 BR NSC 11/10 Q1016 NOSIG=...\n",
      "[WARNING] No station code found in METAR: 202301192030 METAR VEPT 192030Z 00000KT 1200 R25/1...\n",
      "[WARNING] [Line 910] Invalid METAR format: Missing required METAR/SPECI identifier or station code\n",
      "          METAR: 202301192100 METAR VEPT 192100Z 00000KT 1200 R25/1600 BR NSC 11/10 Q1016 NOSIG=...\n",
      "[WARNING] No station code found in METAR: 202301192100 METAR VEPT 192100Z 00000KT 1200 R25/1...\n",
      "[WARNING] [Line 911] Invalid METAR format: Missing required METAR/SPECI identifier or station code\n",
      "          METAR: 202301192130 METAR VEPT 192130Z 00000KT 1000 R25/1400 MIFG NSC 11/10 Q1016 NOSIG...\n",
      "[WARNING] No station code found in METAR: 202301192130 METAR VEPT 192130Z 00000KT 1000 R25/1...\n",
      "[WARNING] [Line 912] Invalid METAR format: Missing required METAR/SPECI identifier or station code\n",
      "          METAR: 202301192200 METAR VEPT 192200Z 00000KT 1000 R25/1400 MIFG NSC 11/10 Q1016 NOSIG...\n",
      "[WARNING] No station code found in METAR: 202301192200 METAR VEPT 192200Z 00000KT 1000 R25/1...\n",
      "[WARNING] [Line 913] Invalid METAR format: Missing required METAR/SPECI identifier or station code\n",
      "          METAR: 202301192230 METAR VEPT 192230Z 00000KT 1000 R25/1200 MIFG NSC 11/10 Q1016 NOSIG...\n",
      "[WARNING] No station code found in METAR: 202301192230 METAR VEPT 192230Z 00000KT 1000 R25/1...\n",
      "[WARNING] [Line 914] Invalid METAR format: Missing required METAR/SPECI identifier or station code\n",
      "          METAR: 202301192300 METAR VEPT 192300Z 00000KT 1000 R25/1100 MIFG NSC 10/10 Q1016 NOSIG...\n",
      "[WARNING] No station code found in METAR: 202301192300 METAR VEPT 192300Z 00000KT 1000 R25/1...\n",
      "[WARNING] [Line 915] Invalid METAR format: Missing required METAR/SPECI identifier or station code\n",
      "          METAR: 202301192330 METAR VEPT 192330Z 00000KT 0900 R25/1100 MIFG NSC 10/10 Q1016 BECMG...\n",
      "[WARNING] No station code found in METAR: 202301192330 METAR VEPT 192330Z 00000KT 0900 R25/1...\n",
      "[WARNING] [Line 916] Invalid METAR format: Missing required METAR/SPECI identifier or station code\n",
      "          METAR: 202301200000 METAR VEPT 200000Z 00000KT 0800 R25/1200 FG NSC 10/09 Q1016 NOSIG=...\n",
      "[WARNING] No station code found in METAR: 202301200000 METAR VEPT 200000Z 00000KT 0800 R25/1...\n",
      "[WARNING] [Line 917] Invalid METAR format: Missing required METAR/SPECI identifier or station code\n",
      "          METAR: 202301200030 METAR VEPT 200030Z 00000KT 0800 R25/1200 FG NSC 10/09 Q1016 NOSIG=...\n",
      "[WARNING] No station code found in METAR: 202301200030 METAR VEPT 200030Z 00000KT 0800 R25/1...\n",
      "[WARNING] [Line 918] Invalid METAR format: Missing required METAR/SPECI identifier or station code\n",
      "          METAR: 202301200100 METAR VEPT 200100Z 00000KT 0700 R25/1300 FG NSC 09/08 Q1017 BECMG 0...\n",
      "[WARNING] No station code found in METAR: 202301200100 METAR VEPT 200100Z 00000KT 0700 R25/1...\n",
      "[WARNING] [Line 919] Invalid METAR format: Missing required METAR/SPECI identifier or station code\n",
      "          METAR: 202301200130 METAR VEPT 200130Z 00000KT 0600 R25/1000 FG NSC 10/09 Q1018 NOSIG=...\n",
      "[WARNING] No station code found in METAR: 202301200130 METAR VEPT 200130Z 00000KT 0600 R25/1...\n",
      "[WARNING] [Line 920] Invalid METAR format: Missing required METAR/SPECI identifier or station code\n",
      "          METAR: 202301200200 METAR VEPT 200200Z 20003KT 0600 R25/1100 FG FEW100 11/11 Q1018 NOSI...\n",
      "[WARNING] No station code found in METAR: 202301200200 METAR VEPT 200200Z 20003KT 0600 R25/1...\n",
      "[WARNING] [Line 921] Invalid METAR format: Missing required METAR/SPECI identifier or station code\n",
      "          METAR: 202301200230 METAR VEPT 200230Z 00000KT 0600 R25/1050 FG FEW100 13/12 Q1019 NOSI...\n",
      "[WARNING] No station code found in METAR: 202301200230 METAR VEPT 200230Z 00000KT 0600 R25/1...\n",
      "[WARNING] [Line 922] Invalid METAR format: Missing required METAR/SPECI identifier or station code\n",
      "          METAR: 202301200300 METAR VEPT 200300Z 00000KT 0600 R25/1100 FG FEW100 13/12 Q1019 NOSI...\n",
      "[WARNING] No station code found in METAR: 202301200300 METAR VEPT 200300Z 00000KT 0600 R25/1...\n",
      "[WARNING] [Line 923] Invalid METAR format: Missing required METAR/SPECI identifier or station code\n",
      "          METAR: 202301200330 METAR VEPT 200330Z 00000KT 0700 R25 1200 FG FEW100 15/12 Q1020 BECM...\n",
      "[WARNING] No station code found in METAR: 202301200330 METAR VEPT 200330Z 00000KT 0700 R25 1...\n",
      "[WARNING] [Line 924] Invalid METAR format: Missing required METAR/SPECI identifier or station code\n",
      "          METAR: 202301200400 METAR VEPT 200400Z 00000KT 0800 R25/1400 FG FEW100 17/12 Q1020 NOSI...\n",
      "[WARNING] No station code found in METAR: 202301200400 METAR VEPT 200400Z 00000KT 0800 R25/1...\n",
      "[WARNING] [Line 925] Invalid METAR format: Missing required METAR/SPECI identifier or station code\n",
      "          METAR: 202301200430 METAR VEPT 200430Z 27002KT 1000 R25/1500 MIFG FEW100 18/12 Q1020 NO...\n",
      "[WARNING] No station code found in METAR: 202301200430 METAR VEPT 200430Z 27002KT 1000 R25/1...\n",
      "[WARNING] [Line 926] Invalid METAR format: Missing required METAR/SPECI identifier or station code\n",
      "          METAR: 202301200500 METAR VEPT 200500Z 00000KT 1200 R25 1500 FU FEW100 19/13 Q1020 NOSI...\n",
      "[WARNING] No station code found in METAR: 202301200500 METAR VEPT 200500Z 00000KT 1200 R25 1...\n",
      "[WARNING] [Line 927] Invalid METAR format: Missing required METAR/SPECI identifier or station code\n",
      "          METAR: 202301200530 METAR VEPT 200530Z 00000KT 1200 R25/1800 FU FEW100 21/13 Q1020 BECM...\n",
      "[WARNING] No station code found in METAR: 202301200530 METAR VEPT 200530Z 00000KT 1200 R25/1...\n",
      "[WARNING] [Line 928] Invalid METAR format: Missing required METAR/SPECI identifier or station code\n",
      "          METAR: 202301200600 METAR VEPT 200600Z 00000KT 1500 R25/1600 FU FEW100 22/13 Q1019 NOSI...\n",
      "[WARNING] No station code found in METAR: 202301200600 METAR VEPT 200600Z 00000KT 1500 R25/1...\n",
      "[WARNING] [Line 929] Invalid METAR format: Missing required METAR/SPECI identifier or station code\n",
      "          METAR: 202301200630 METAR VEPT 200630Z 00000KT 1500 R25/1800 FU FEW100 22/13 Q1019 NOSI...\n",
      "[WARNING] No station code found in METAR: 202301200630 METAR VEPT 200630Z 00000KT 1500 R25/1...\n",
      "[WARNING] [Line 930] Invalid METAR format: Missing required METAR/SPECI identifier or station code\n",
      "          METAR: 202301200700 METAR VEPT 200700Z 33004KT 1500 R25/1700 FU FEW100 23/14 Q1018 NOSI...\n",
      "[WARNING] No station code found in METAR: 202301200700 METAR VEPT 200700Z 33004KT 1500 R25/1...\n",
      "[WARNING] [Line 931] Invalid METAR format: Missing required METAR/SPECI identifier or station code\n",
      "          METAR: 202301200730 METAR VEPT 200730Z 10003KT 1500 R25/1900 FU NSC 22/13 Q1017 NOSIG=...\n",
      "[WARNING] No station code found in METAR: 202301200730 METAR VEPT 200730Z 10003KT 1500 R25/1...\n",
      "[WARNING] [Line 932] Invalid METAR format: Missing required METAR/SPECI identifier or station code\n",
      "          METAR: 202301200800 METAR VEPT 200800Z 36005KT 1700 HZ NSC 24/13 Q1017 NOSIG=...\n",
      "[WARNING] No station code found in METAR: 202301200800 METAR VEPT 200800Z 36005KT 1700 HZ NS...\n",
      "[WARNING] [Line 933] Invalid METAR format: Missing required METAR/SPECI identifier or station code\n",
      "          METAR: 202301200830 METAR VEPT 200830Z 35003KT 1800 HZ NSC 24/10 Q1016 NOSIG=...\n",
      "[WARNING] No station code found in METAR: 202301200830 METAR VEPT 200830Z 35003KT 1800 HZ NS...\n",
      "[WARNING] [Line 934] Invalid METAR format: Missing required METAR/SPECI identifier or station code\n",
      "          METAR: 202301200900 METAR VEPT 200900Z 34004KT 2000 HZ NSC 24/10 Q1016 NOSIG=...\n",
      "[WARNING] No station code found in METAR: 202301200900 METAR VEPT 200900Z 34004KT 2000 HZ NS...\n",
      "[WARNING] [Line 935] Invalid METAR format: Missing required METAR/SPECI identifier or station code\n",
      "          METAR: 202301200930 METAR VEPT 200930Z 30003KT 2200 HZ NSC 24/09 Q1016 NOSIG=...\n",
      "[WARNING] No station code found in METAR: 202301200930 METAR VEPT 200930Z 30003KT 2200 HZ NS...\n",
      "[WARNING] [Line 936] Invalid METAR format: Missing required METAR/SPECI identifier or station code\n",
      "          METAR: 202301201000 METAR VEPT 201000Z 36004KT 2500 HZ NSC 24/07 Q1015 NOSIG=...\n",
      "[WARNING] No station code found in METAR: 202301201000 METAR VEPT 201000Z 36004KT 2500 HZ NS...\n",
      "[WARNING] [Line 937] Invalid METAR format: Missing required METAR/SPECI identifier or station code\n",
      "          METAR: 202301201030 METAR VEPT 201030Z 34004KT 2500 HZ NSC 24/10 Q1015 NOSIG=...\n",
      "[WARNING] No station code found in METAR: 202301201030 METAR VEPT 201030Z 34004KT 2500 HZ NS...\n",
      "[WARNING] [Line 938] Invalid METAR format: Missing required METAR/SPECI identifier or station code\n",
      "          METAR: 202301201100 METAR VEPT 201100Z 32004KT 2500 HZ NSC 23/11 Q1015 BECMG 3000 HZ=...\n",
      "[WARNING] No station code found in METAR: 202301201100 METAR VEPT 201100Z 32004KT 2500 HZ NS...\n",
      "[WARNING] [Line 939] Invalid METAR format: Missing required METAR/SPECI identifier or station code\n",
      "          METAR: 202301201130 METAR VEPT 201130Z 35003KT 3000 HZ NSC 22/12 Q1015 NOSIG=...\n",
      "[WARNING] No station code found in METAR: 202301201130 METAR VEPT 201130Z 35003KT 3000 HZ NS...\n",
      "[WARNING] [Line 940] Invalid METAR format: Missing required METAR/SPECI identifier or station code\n",
      "          METAR: 202301201200 METAR COR VEPT 201200Z 01003KT 2500 HZ NSC 19/14 Q1015 NOSIG=...\n",
      "[WARNING] No station code found in METAR: 202301201200 METAR COR VEPT 201200Z 01003KT 2500 H...\n",
      "[WARNING] [Line 941] Invalid METAR format: Missing required METAR/SPECI identifier or station code\n",
      "          METAR: 202301201230 METAR VEPT 201230Z 24002KT 2500 HZ NSC 18/13 Q1015 NOSIG=...\n",
      "[WARNING] No station code found in METAR: 202301201230 METAR VEPT 201230Z 24002KT 2500 HZ NS...\n",
      "[WARNING] [Line 942] Invalid METAR format: Missing required METAR/SPECI identifier or station code\n",
      "          METAR: 202301201300 METAR VEPT 201300Z 12002KT 2500 BR NSC 17/14 Q1016 NOSIG=...\n",
      "[WARNING] No station code found in METAR: 202301201300 METAR VEPT 201300Z 12002KT 2500 BR NS...\n",
      "[WARNING] [Line 943] Invalid METAR format: Missing required METAR/SPECI identifier or station code\n",
      "          METAR: 202301201330 METAR VEPT 201330Z 00000KT 2200 BR NSC 16/13 Q1016 NOSIG=...\n",
      "[WARNING] No station code found in METAR: 202301201330 METAR VEPT 201330Z 00000KT 2200 BR NS...\n",
      "[WARNING] [Line 944] Invalid METAR format: Missing required METAR/SPECI identifier or station code\n",
      "          METAR: 202301201400 METAR VEPT 201400Z 00000KT 1800 BR NSC 16/13 Q1016 NOSIG=...\n",
      "[WARNING] No station code found in METAR: 202301201400 METAR VEPT 201400Z 00000KT 1800 BR NS...\n",
      "[WARNING] [Line 945] Invalid METAR format: Missing required METAR/SPECI identifier or station code\n",
      "          METAR: 202301201430 METAR VEPT 201430Z 00000KT 1800 BR NSC 16/13 Q1016 BECMG 1500 BR=...\n",
      "[WARNING] No station code found in METAR: 202301201430 METAR VEPT 201430Z 00000KT 1800 BR NS...\n",
      "[WARNING] [Line 946] Invalid METAR format: Missing required METAR/SPECI identifier or station code\n",
      "          METAR: 202301201500 METAR VEPT 201500Z 00000KT 1500 R25/2000 BR NSC 15/13 Q1017 NOSIG=...\n",
      "[WARNING] No station code found in METAR: 202301201500 METAR VEPT 201500Z 00000KT 1500 R25/2...\n",
      "[WARNING] [Line 947] Invalid METAR format: Missing required METAR/SPECI identifier or station code\n",
      "          METAR: 202301201530 METAR VEPT 201530Z 00000KT 1500 R25/2000 BR NSC 15/13 Q1017 NOSIG=...\n",
      "[WARNING] No station code found in METAR: 202301201530 METAR VEPT 201530Z 00000KT 1500 R25/2...\n",
      "[WARNING] [Line 948] Invalid METAR format: Missing required METAR/SPECI identifier or station code\n",
      "          METAR: 202301201600 METAR VEPT 201600Z 00000KT 1500 R25/2000 BR NSC 15/13 Q1017 NOSIG=...\n",
      "[WARNING] No station code found in METAR: 202301201600 METAR VEPT 201600Z 00000KT 1500 R25/2...\n",
      "[WARNING] [Line 949] Invalid METAR format: Missing required METAR/SPECI identifier or station code\n",
      "          METAR: 202301201630 METAR VEPT 201630Z 00000KT 1500 R25/2000 BR NSC 14/13 Q1017 NOSIG=...\n",
      "[WARNING] No station code found in METAR: 202301201630 METAR VEPT 201630Z 00000KT 1500 R25/2...\n",
      "[WARNING] [Line 950] Invalid METAR format: Missing required METAR/SPECI identifier or station code\n",
      "          METAR: 202301201700 METAR VEPT 201700Z 00000KT 1500 R25/2000 BR NSC 14/13 Q1017 NOSIG=...\n",
      "[WARNING] No station code found in METAR: 202301201700 METAR VEPT 201700Z 00000KT 1500 R25/2...\n",
      "[WARNING] [Line 951] Invalid METAR format: Missing required METAR/SPECI identifier or station code\n",
      "          METAR: 202301201730 METAR VEPT 201730Z 00000KT 1500 R25/2000 BR NSC 15/12 Q1017 NOSIG=...\n",
      "[WARNING] No station code found in METAR: 202301201730 METAR VEPT 201730Z 00000KT 1500 R25/2...\n",
      "[WARNING] [Line 952] Invalid METAR format: Missing required METAR/SPECI identifier or station code\n",
      "          METAR: 202301201800 METAR VEPT 201800Z 00000KT 1400 R25/2000 BR NSC 14/13 Q1016 NOSIG=...\n",
      "[WARNING] No station code found in METAR: 202301201800 METAR VEPT 201800Z 00000KT 1400 R25/2...\n",
      "[WARNING] [Line 953] Invalid METAR format: Missing required METAR/SPECI identifier or station code\n",
      "          METAR: 202301201830 METAR VEPT 201830Z 00000KT 1400 R25/2000 BR NSC 13/12 Q1016 NOSIG=...\n",
      "[WARNING] No station code found in METAR: 202301201830 METAR VEPT 201830Z 00000KT 1400 R25/2...\n",
      "[WARNING] [Line 954] Invalid METAR format: Missing required METAR/SPECI identifier or station code\n",
      "          METAR: 202301201900 METAR VEPT 201900Z 00000KT 1400 R25/1800 BR NSC 13/12 Q1016 NOSIG=...\n",
      "[WARNING] No station code found in METAR: 202301201900 METAR VEPT 201900Z 00000KT 1400 R25/1...\n",
      "[WARNING] [Line 955] Invalid METAR format: Missing required METAR/SPECI identifier or station code\n",
      "          METAR: 202301201930 METAR VEPT 201930Z 00000KT 1200 R25/1500 BR NSC 13/12 Q1016 NOSIG=...\n",
      "[WARNING] No station code found in METAR: 202301201930 METAR VEPT 201930Z 00000KT 1200 R25/1...\n",
      "[WARNING] [Line 956] Invalid METAR format: Missing required METAR/SPECI identifier or station code\n",
      "          METAR: 202301202000 METAR VEPT 202000Z 00000KT 1400 R25/2000 BR NSC 15/14 Q1017 NOSIG=...\n",
      "[WARNING] No station code found in METAR: 202301202000 METAR VEPT 202000Z 00000KT 1400 R25/2...\n",
      "[WARNING] [Line 957] Invalid METAR format: Missing required METAR/SPECI identifier or station code\n",
      "          METAR: 202301202030 METAR VEPT 202030Z 08004KT 1400 R25/2000 BR FEW012 SCT015 15/13 Q10...\n",
      "[WARNING] No station code found in METAR: 202301202030 METAR VEPT 202030Z 08004KT 1400 R25/2...\n",
      "[WARNING] [Line 958] Invalid METAR format: Missing required METAR/SPECI identifier or station code\n",
      "          METAR: 202301202100 METAR VEPT 202100Z 12004KT 1400 R25/2000 BR FEW012 SCT015 16/13 Q10...\n",
      "[WARNING] No station code found in METAR: 202301202100 METAR VEPT 202100Z 12004KT 1400 R25/2...\n",
      "[WARNING] [Line 959] Invalid METAR format: Missing required METAR/SPECI identifier or station code\n",
      "          METAR: 202301202130 METAR VEPT 202130Z 00000KT 1400 R25/2000 BR FEW012 SCT015 16/13 Q10...\n",
      "[WARNING] No station code found in METAR: 202301202130 METAR VEPT 202130Z 00000KT 1400 R25/2...\n",
      "[WARNING] [Line 960] Invalid METAR format: Missing required METAR/SPECI identifier or station code\n",
      "          METAR: 202301202200 METAR VEPT 202200Z 16003KT 1400 R25/2000 BR FEW012 SCT015 15/13 Q10...\n",
      "[WARNING] No station code found in METAR: 202301202200 METAR VEPT 202200Z 16003KT 1400 R25/2...\n",
      "[WARNING] [Line 961] Invalid METAR format: Missing required METAR/SPECI identifier or station code\n",
      "          METAR: 202301202230 METAR VEPT 202230Z 00000KT 1400 R25/2000 BR FEW015 SCT100 16/13 Q10...\n",
      "[WARNING] No station code found in METAR: 202301202230 METAR VEPT 202230Z 00000KT 1400 R25/2...\n",
      "[WARNING] [Line 962] Invalid METAR format: Missing required METAR/SPECI identifier or station code\n",
      "          METAR: 202301202300 METAR VEPT 202300Z 00000KT 1400 R25/2000 BR FEW015 SCT100 16/13 Q10...\n",
      "[WARNING] No station code found in METAR: 202301202300 METAR VEPT 202300Z 00000KT 1400 R25/2...\n",
      "[WARNING] [Line 963] Invalid METAR format: Missing required METAR/SPECI identifier or station code\n",
      "          METAR: 202301202330 METAR VEPT 202330Z 00000KT 1200 R25/2000 BR SCT015 SCT100 16/13 Q10...\n",
      "[WARNING] No station code found in METAR: 202301202330 METAR VEPT 202330Z 00000KT 1200 R25/2...\n",
      "[WARNING] [Line 964] Invalid METAR format: Missing required METAR/SPECI identifier or station code\n",
      "          METAR: 202301210000 METAR VEPT 210000Z 35004KT 1200 R25/2000 BR SCT015 SCT100 15/13 Q10...\n",
      "[WARNING] No station code found in METAR: 202301210000 METAR VEPT 210000Z 35004KT 1200 R25/2...\n",
      "[WARNING] [Line 965] Invalid METAR format: Missing required METAR/SPECI identifier or station code\n",
      "          METAR: 202301210030 METAR VEPT 210030Z 25004KT 1200 R25/2000 -RA FEW012 SCT015 BKN100 1...\n",
      "[WARNING] No station code found in METAR: 202301210030 METAR VEPT 210030Z 25004KT 1200 R25/2...\n",
      "[WARNING] [Line 966] Invalid METAR format: Missing required METAR/SPECI identifier or station code\n",
      "          METAR: 202301210100 METAR VEPT 210100Z 20003KT 1200 R25/2000 -RA FEW012 SCT015 BKN100 1...\n",
      "[WARNING] No station code found in METAR: 202301210100 METAR VEPT 210100Z 20003KT 1200 R25/2...\n",
      "[WARNING] [Line 967] Invalid METAR format: Missing required METAR/SPECI identifier or station code\n",
      "          METAR: 202301210130 METAR VEPT 210130Z 21002KT 1000 R25/2000 -RA FEW012 SCT015 BKN100 1...\n",
      "[WARNING] No station code found in METAR: 202301210130 METAR VEPT 210130Z 21002KT 1000 R25/2...\n",
      "[WARNING] [Line 968] Invalid METAR format: Missing required METAR/SPECI identifier or station code\n",
      "          METAR: 202301210200 METAR VEPT 210200Z 02004KT 0900 R25/2000 -RA SCT015 BKN100 16/15 Q1...\n",
      "[WARNING] No station code found in METAR: 202301210200 METAR VEPT 210200Z 02004KT 0900 R25/2...\n",
      "[WARNING] [Line 969] Invalid METAR format: Missing required METAR/SPECI identifier or station code\n",
      "          METAR: 202301210230 METAR VEPT 210230Z 33004KT 0900 R25/2000 -RA SCT015 BKN100 16/15 Q1...\n",
      "[WARNING] No station code found in METAR: 202301210230 METAR VEPT 210230Z 33004KT 0900 R25/2...\n",
      "[WARNING] [Line 970] Invalid METAR format: Missing required METAR/SPECI identifier or station code\n",
      "          METAR: 202301210300 METAR VEPT 210300Z 09003KT 0900 R25/1700 -RA SCT015 BKN100 16/15 Q1...\n",
      "[WARNING] No station code found in METAR: 202301210300 METAR VEPT 210300Z 09003KT 0900 R25/1...\n",
      "[WARNING] [Line 971] Invalid METAR format: Missing required METAR/SPECI identifier or station code\n",
      "          METAR: 202301210330 METAR VEPT 210330Z 22003KT 0800 R25/1400 -RA SCT015 BKN100 17/16 Q1...\n",
      "[WARNING] No station code found in METAR: 202301210330 METAR VEPT 210330Z 22003KT 0800 R25/1...\n",
      "[WARNING] [Line 972] Invalid METAR format: Missing required METAR/SPECI identifier or station code\n",
      "          METAR: 202301210400 METAR VEPT 210400Z 23003KT 0800 R25/1600 FG SCT015 BKN100 18/16 Q10...\n",
      "[WARNING] No station code found in METAR: 202301210400 METAR VEPT 210400Z 23003KT 0800 R25/1...\n",
      "[WARNING] [Line 973] Invalid METAR format: Missing required METAR/SPECI identifier or station code\n",
      "          METAR: 202301210430 METAR VEPT 210430Z 24003KT 1000 R25/2000 MIFG SCT015 BKN100 19/15 Q...\n",
      "[WARNING] No station code found in METAR: 202301210430 METAR VEPT 210430Z 24003KT 1000 R25/2...\n",
      "[WARNING] [Line 974] Invalid METAR format: Missing required METAR/SPECI identifier or station code\n",
      "          METAR: 202301210500 METAR VEPT 210500Z 17002KT 1300 R25/2000 BR SCT100 20/15 Q1018 BECM...\n",
      "[WARNING] No station code found in METAR: 202301210500 METAR VEPT 210500Z 17002KT 1300 R25/2...\n",
      "[WARNING] [Line 975] Invalid METAR format: Missing required METAR/SPECI identifier or station code\n",
      "          METAR: 202301210530 METAR VEPT 210530Z 24002KT 1400 R25/2000 FU SCT100 22/15 Q1017 BECM...\n",
      "[WARNING] No station code found in METAR: 202301210530 METAR VEPT 210530Z 24002KT 1400 R25/2...\n",
      "[WARNING] [Line 976] Invalid METAR format: Missing required METAR/SPECI identifier or station code\n",
      "          METAR: 202301210600 METAR VEPT 210600Z 25002KT 1500 R25/2000 FU NSC 23/15 Q1017 NOSIG=...\n",
      "[WARNING] No station code found in METAR: 202301210600 METAR VEPT 210600Z 25002KT 1500 R25/2...\n",
      "[WARNING] [Line 977] Invalid METAR format: Missing required METAR/SPECI identifier or station code\n",
      "          METAR: 202301210630 METAR VEPT 210630Z 30004KT 1800 FU NSC 24/14 Q1016 NOSIG=...\n",
      "[WARNING] No station code found in METAR: 202301210630 METAR VEPT 210630Z 30004KT 1800 FU NS...\n",
      "[WARNING] [Line 978] Invalid METAR format: Missing required METAR/SPECI identifier or station code\n",
      "          METAR: 202301210700 METAR VEPT 210700Z 24003KT 2000 HZ NSC 24/14 Q1016 NOSIG=...\n",
      "[WARNING] No station code found in METAR: 202301210700 METAR VEPT 210700Z 24003KT 2000 HZ NS...\n",
      "[WARNING] [Line 979] Invalid METAR format: Missing required METAR/SPECI identifier or station code\n",
      "          METAR: 202301210730 METAR VEPT 210730Z 26003KT 2200 HZ NSC 23/14 Q1015 NOSIG=...\n",
      "[WARNING] No station code found in METAR: 202301210730 METAR VEPT 210730Z 26003KT 2200 HZ NS...\n",
      "[WARNING] [Line 980] Invalid METAR format: Missing required METAR/SPECI identifier or station code\n",
      "          METAR: 202301210800 METAR VEPT 210800Z 27003KT 2500 HZ NSC 24/15 Q1014 NOSIG=...\n",
      "[WARNING] No station code found in METAR: 202301210800 METAR VEPT 210800Z 27003KT 2500 HZ NS...\n",
      "[WARNING] [Line 981] Invalid METAR format: Missing required METAR/SPECI identifier or station code\n",
      "          METAR: 202301210830 METAR VEPT 210830Z 32005KT 2500 HZ NSC 25/16 Q1014 BECMG 3000 HZ=...\n",
      "[WARNING] No station code found in METAR: 202301210830 METAR VEPT 210830Z 32005KT 2500 HZ NS...\n",
      "[WARNING] [Line 982] Invalid METAR format: Missing required METAR/SPECI identifier or station code\n",
      "          METAR: 202301210900 METAR VEPT 210900Z 25004KT 3000 HZ NSC 25/17 Q1013 NOSIG=...\n",
      "[WARNING] No station code found in METAR: 202301210900 METAR VEPT 210900Z 25004KT 3000 HZ NS...\n",
      "[WARNING] [Line 983] Invalid METAR format: Missing required METAR/SPECI identifier or station code\n",
      "          METAR: 202301210930 METAR VEPT 210930Z 27005KT 3000 HZ NSC 25/17 Q1013 NOSIG=...\n",
      "[WARNING] No station code found in METAR: 202301210930 METAR VEPT 210930Z 27005KT 3000 HZ NS...\n",
      "[WARNING] [Line 984] Invalid METAR format: Missing required METAR/SPECI identifier or station code\n",
      "          METAR: 202301211000 METAR VEPT 211000Z 27005KT 3000 HZ NSC 25/16 Q1013 NOSIG=...\n",
      "[WARNING] No station code found in METAR: 202301211000 METAR VEPT 211000Z 27005KT 3000 HZ NS...\n",
      "[WARNING] [Line 985] Invalid METAR format: Missing required METAR/SPECI identifier or station code\n",
      "          METAR: 202301211030 METAR VEPT 211030Z 27005KT 3000 HZ NSC 24/16 Q1013 NOSIG=...\n",
      "[WARNING] No station code found in METAR: 202301211030 METAR VEPT 211030Z 27005KT 3000 HZ NS...\n",
      "[WARNING] [Line 986] Invalid METAR format: Missing required METAR/SPECI identifier or station code\n",
      "          METAR: 202301211100 METAR VEPT 211100Z 27005KT 3000 HZ NSC 24/16 Q1013 NOSIG=...\n",
      "[WARNING] No station code found in METAR: 202301211100 METAR VEPT 211100Z 27005KT 3000 HZ NS...\n",
      "[WARNING] [Line 987] Invalid METAR format: Missing required METAR/SPECI identifier or station code\n",
      "          METAR: 202301211130 METAR VEPT 211130Z 30003KT 3000 HZ NSC 24/17 Q1013 NOSIG=...\n",
      "[WARNING] No station code found in METAR: 202301211130 METAR VEPT 211130Z 30003KT 3000 HZ NS...\n",
      "[WARNING] [Line 988] Invalid METAR format: Missing required METAR/SPECI identifier or station code\n",
      "          METAR: 202301211200 METAR VEPT 211200Z 27003KT 3000 HZ NSC 23/18 Q1013 NOSIG=...\n",
      "[WARNING] No station code found in METAR: 202301211200 METAR VEPT 211200Z 27003KT 3000 HZ NS...\n",
      "[WARNING] [Line 989] Invalid METAR format: Missing required METAR/SPECI identifier or station code\n",
      "          METAR: 202301211230 METAR VEPT 211230Z 25003KT 3000 HZ NSC 22/17 Q1013 NOSIG=...\n",
      "[WARNING] No station code found in METAR: 202301211230 METAR VEPT 211230Z 25003KT 3000 HZ NS...\n",
      "[WARNING] [Line 990] Invalid METAR format: Missing required METAR/SPECI identifier or station code\n",
      "          METAR: 202301211300 METAR VEPT 211300Z 25003KT 3000 HZ NSC 21/17 Q1013 NOSIG=...\n",
      "[WARNING] No station code found in METAR: 202301211300 METAR VEPT 211300Z 25003KT 3000 HZ NS...\n",
      "[WARNING] [Line 991] Invalid METAR format: Missing required METAR/SPECI identifier or station code\n",
      "          METAR: 202301211330 METAR VEPT 211330Z 25003KT 2500 BR NSC 20/17 Q1014 NOSIG=...\n",
      "[WARNING] No station code found in METAR: 202301211330 METAR VEPT 211330Z 25003KT 2500 BR NS...\n",
      "[WARNING] [Line 992] Invalid METAR format: Missing required METAR/SPECI identifier or station code\n",
      "          METAR: 202301211400 METAR VEPT 211400Z 23002KT 2500 BR NSC 20/17 Q1014 NOSIG=...\n",
      "[WARNING] No station code found in METAR: 202301211400 METAR VEPT 211400Z 23002KT 2500 BR NS...\n",
      "[WARNING] [Line 993] Invalid METAR format: Missing required METAR/SPECI identifier or station code\n",
      "          METAR: 202301211430 METAR VEPT 211430Z 00000KT 2000 BR NSC 19/17 Q1014 NOSIG=...\n",
      "[WARNING] No station code found in METAR: 202301211430 METAR VEPT 211430Z 00000KT 2000 BR NS...\n",
      "[WARNING] [Line 994] Invalid METAR format: Missing required METAR/SPECI identifier or station code\n",
      "          METAR: 202301211500 METAR VEPT 211500Z 28002KT 2000 BR NSC 18/17 Q1014 NOSIG=...\n",
      "[WARNING] No station code found in METAR: 202301211500 METAR VEPT 211500Z 28002KT 2000 BR NS...\n",
      "[WARNING] [Line 995] Invalid METAR format: Missing required METAR/SPECI identifier or station code\n",
      "          METAR: 202301211530 METAR VEPT 211530Z 28002KT 1800 BR NSC 18/16 Q1014 NOSIG=...\n",
      "[WARNING] No station code found in METAR: 202301211530 METAR VEPT 211530Z 28002KT 1800 BR NS...\n",
      "[WARNING] [Line 996] Invalid METAR format: Missing required METAR/SPECI identifier or station code\n",
      "          METAR: 202301211600 METAR VEPT 211600Z 30002KT 1800 BR NSC 18/16 Q1015 NOSIG=...\n",
      "[WARNING] No station code found in METAR: 202301211600 METAR VEPT 211600Z 30002KT 1800 BR NS...\n",
      "[WARNING] [Line 997] Invalid METAR format: Missing required METAR/SPECI identifier or station code\n",
      "          METAR: 202301211630 METAR VEPT 211630Z 00000KT 1800 BR NSC 17/16 Q1015 NOSIG=...\n",
      "[WARNING] No station code found in METAR: 202301211630 METAR VEPT 211630Z 00000KT 1800 BR NS...\n",
      "[WARNING] [Line 998] Invalid METAR format: Missing required METAR/SPECI identifier or station code\n",
      "          METAR: 202301211700 METAR VEPT 211700Z 00000KT 1800 BR NSC 16/15 Q1015 NOSIG=...\n",
      "[WARNING] No station code found in METAR: 202301211700 METAR VEPT 211700Z 00000KT 1800 BR NS...\n",
      "[WARNING] [Line 999] Invalid METAR format: Missing required METAR/SPECI identifier or station code\n",
      "          METAR: 202301211730 METAR VEPT 211730Z 00000KT 1800 BR NSC 17/16 Q1015 NOSIG=...\n",
      "[WARNING] No station code found in METAR: 202301211730 METAR VEPT 211730Z 00000KT 1800 BR NS...\n",
      "[PROGRESS] Processed 1000/1489 METARs...\n",
      "[WARNING] [Line 1000] Invalid METAR format: Missing required METAR/SPECI identifier or station code\n",
      "          METAR: 202301211800 METAR VEPT 211800Z 00000KT 1800 BR NSC 16/16 Q1015 NOSIG=...\n",
      "[WARNING] No station code found in METAR: 202301211800 METAR VEPT 211800Z 00000KT 1800 BR NS...\n",
      "[WARNING] [Line 1001] Invalid METAR format: Missing required METAR/SPECI identifier or station code\n",
      "          METAR: 202301211830 METAR VEPT 211830Z 00000KT 1800 BR NSC 17/16 Q1014 BECMG 1500 BR=...\n",
      "[WARNING] No station code found in METAR: 202301211830 METAR VEPT 211830Z 00000KT 1800 BR NS...\n",
      "[WARNING] [Line 1002] Invalid METAR format: Missing required METAR/SPECI identifier or station code\n",
      "          METAR: 202301211900 METAR VEPT 211900Z 00000KT 1600 BR NSC 15/14 Q1014 BECMG 1500 BR=...\n",
      "[WARNING] No station code found in METAR: 202301211900 METAR VEPT 211900Z 00000KT 1600 BR NS...\n",
      "[WARNING] [Line 1003] Invalid METAR format: Missing required METAR/SPECI identifier or station code\n",
      "          METAR: 202301211930 METAR VEPT 211930Z 00000KT 1500 R25/2000 BR NSC 15/14 Q1014 NOSIG=...\n",
      "[WARNING] No station code found in METAR: 202301211930 METAR VEPT 211930Z 00000KT 1500 R25/2...\n",
      "[WARNING] [Line 1004] Invalid METAR format: Missing required METAR/SPECI identifier or station code\n",
      "          METAR: 202301212000 METAR VEPT 212000Z 00000KT 1200 R25/1200 BR NSC 15/15 Q1014 BECMG 0...\n",
      "[WARNING] No station code found in METAR: 202301212000 METAR VEPT 212000Z 00000KT 1200 R25/1...\n",
      "[WARNING] [Line 1005] Invalid METAR format: Missing required METAR/SPECI identifier or station code\n",
      "          METAR: 202301212030 METAR VEPT 212030Z 00000KT 1200 R25/1600 BR NSC 15/14 Q1014 BECMG 0...\n",
      "[WARNING] No station code found in METAR: 202301212030 METAR VEPT 212030Z 00000KT 1200 R25/1...\n",
      "[WARNING] [Line 1006] Invalid METAR format: Missing required METAR/SPECI identifier or station code\n",
      "          METAR: 202301212100 METAR VEPT 212100Z 00000KT 1200 R25/1600 BR NSC 15/14 Q1014 BECMG 0...\n",
      "[WARNING] No station code found in METAR: 202301212100 METAR VEPT 212100Z 00000KT 1200 R25/1...\n",
      "[WARNING] [Line 1007] Invalid METAR format: Missing required METAR/SPECI identifier or station code\n",
      "          METAR: 202301212130 METAR VEPT 212130Z 00000KT 1200 R25/1200 BR NSC 14/14 Q1014 BECMG 0...\n",
      "[WARNING] No station code found in METAR: 202301212130 METAR VEPT 212130Z 00000KT 1200 R25/1...\n",
      "[WARNING] [Line 1008] Invalid METAR format: Missing required METAR/SPECI identifier or station code\n",
      "          METAR: 202301212200 METAR VEPT 212200Z 00000KT 1000 R25/0675 BR NSC 14/14 Q1014 BECMG 0...\n",
      "[WARNING] No station code found in METAR: 202301212200 METAR VEPT 212200Z 00000KT 1000 R25/0...\n",
      "[WARNING] [Line 1009] Invalid METAR format: Missing required METAR/SPECI identifier or station code\n",
      "          METAR: 202301212230 METAR VEPT 212230Z 00000KT 0800 R25/1100 FG NSC 14/14 Q1014 NOSIG=...\n",
      "[WARNING] No station code found in METAR: 202301212230 METAR VEPT 212230Z 00000KT 0800 R25/1...\n",
      "[WARNING] [Line 1010] Invalid METAR format: Missing required METAR/SPECI identifier or station code\n",
      "          METAR: 202301212300 METAR VEPT 212300Z 00000KT 0800 R25/1800 FG NSC 15/14 Q1014 NOSIG=...\n",
      "[WARNING] No station code found in METAR: 202301212300 METAR VEPT 212300Z 00000KT 0800 R25/1...\n",
      "[WARNING] [Line 1011] Invalid METAR format: Missing required METAR/SPECI identifier or station code\n",
      "          METAR: 202301212330 METAR VEPT 212330Z 00000KT 0800 R25/1300 FG NSC 14/13 Q1014 NOSIG=...\n",
      "[WARNING] No station code found in METAR: 202301212330 METAR VEPT 212330Z 00000KT 0800 R25/1...\n",
      "[WARNING] [Line 1012] Invalid METAR format: Missing required METAR/SPECI identifier or station code\n",
      "          METAR: 202301220000 METAR VEPT 220000Z 00000KT 0800 R25/1200 FG NSC 14/14 Q1014 NOSIG=...\n",
      "[WARNING] No station code found in METAR: 202301220000 METAR VEPT 220000Z 00000KT 0800 R25/1...\n",
      "[WARNING] [Line 1013] Invalid METAR format: Missing required METAR/SPECI identifier or station code\n",
      "          METAR: 202301220030 METAR VEPT 220030Z 00000KT 0800 R25/1700 FG NSC 13/13 Q1014 NOSIG=...\n",
      "[WARNING] No station code found in METAR: 202301220030 METAR VEPT 220030Z 00000KT 0800 R25/1...\n",
      "[WARNING] [Line 1014] Invalid METAR format: Missing required METAR/SPECI identifier or station code\n",
      "          METAR: 202301220100 METAR VEPT 220100Z 23002KT 0300 R25/0425 FG VV/// 13/13 Q1015 NOSIG...\n",
      "[WARNING] No station code found in METAR: 202301220100 METAR VEPT 220100Z 23002KT 0300 R25/0...\n",
      "[WARNING] [Line 1015] Invalid METAR format: Missing required METAR/SPECI identifier or station code\n",
      "          METAR: 202301220130 METAR VEPT 220130Z 00000KT 0050 R25/0100 FG VV/// 15/14 Q1015 NOSIG...\n",
      "[WARNING] No station code found in METAR: 202301220130 METAR VEPT 220130Z 00000KT 0050 R25/0...\n",
      "[WARNING] [Line 1016] Invalid METAR format: Missing required METAR/SPECI identifier or station code\n",
      "          METAR: 202301220200 METAR VEPT 220200Z 00000KT 0050 R25/0100 FG VV/// 15/14 Q1016 NOSIG...\n",
      "[WARNING] No station code found in METAR: 202301220200 METAR VEPT 220200Z 00000KT 0050 R25/0...\n",
      "[WARNING] [Line 1017] Invalid METAR format: Missing required METAR/SPECI identifier or station code\n",
      "          METAR: 202301220230 METAR VEPT 220230Z 00000KT 0100 R25/0100 FG VV/// 16/15 Q1016 BECMG...\n",
      "[WARNING] No station code found in METAR: 202301220230 METAR VEPT 220230Z 00000KT 0100 R25/0...\n",
      "[WARNING] [Line 1018] Invalid METAR format: Missing required METAR/SPECI identifier or station code\n",
      "          METAR: 202301220300 METAR VEPT 220300Z 00000KT 0150 R25/0225 FG VV/// 16/16 Q1017 BECMG...\n",
      "[WARNING] No station code found in METAR: 202301220300 METAR VEPT 220300Z 00000KT 0150 R25/0...\n",
      "[WARNING] [Line 1019] Invalid METAR format: Missing required METAR/SPECI identifier or station code\n",
      "          METAR: 202301220330 METAR VEPT 220330Z 00000KT 0350 R25/0800 FG NSC 18/17 Q1017 BECMG 0...\n",
      "[WARNING] No station code found in METAR: 202301220330 METAR VEPT 220330Z 00000KT 0350 R25/0...\n",
      "[WARNING] [Line 1020] Invalid METAR format: Missing required METAR/SPECI identifier or station code\n",
      "          METAR: 202301220400 METAR VEPT 220400Z 00000KT 0600 R25/1500 FG FEW100 19/18 Q1017 BECM...\n",
      "[WARNING] No station code found in METAR: 202301220400 METAR VEPT 220400Z 00000KT 0600 R25/1...\n",
      "[WARNING] [Line 1021] Invalid METAR format: Missing required METAR/SPECI identifier or station code\n",
      "          METAR: 202301220430 METAR VEPT 220430Z 19003KT 0800 R25/2000 FG FEW018 SCT100 20/17 Q10...\n",
      "[WARNING] No station code found in METAR: 202301220430 METAR VEPT 220430Z 19003KT 0800 R25/2...\n",
      "[WARNING] [Line 1022] Invalid METAR format: Missing required METAR/SPECI identifier or station code\n",
      "          METAR: 202301220500 METAR VEPT 220500Z 22003KT 1000 R25/2000 MIFG SCT018 BKN100 20/18 Q...\n",
      "[WARNING] No station code found in METAR: 202301220500 METAR VEPT 220500Z 22003KT 1000 R25/2...\n",
      "[WARNING] [Line 1023] Invalid METAR format: Missing required METAR/SPECI identifier or station code\n",
      "          METAR: 202301220530 METAR VEPT 220530Z 19003KT 1000 R25/2000 MIFG SCT018 BKN100 20/18 Q...\n",
      "[WARNING] No station code found in METAR: 202301220530 METAR VEPT 220530Z 19003KT 1000 R25/2...\n",
      "[WARNING] [Line 1024] Invalid METAR format: Missing required METAR/SPECI identifier or station code\n",
      "          METAR: 202301220600 METAR VEPT 220600Z 23003KT 1000 R25/2000 MIFG SCT018 BKN100 20/17 Q...\n",
      "[WARNING] No station code found in METAR: 202301220600 METAR VEPT 220600Z 23003KT 1000 R25/2...\n",
      "[WARNING] [Line 1025] Invalid METAR format: Missing required METAR/SPECI identifier or station code\n",
      "          METAR: 202301220630 METAR VEPT 220630Z 23003KT 1200 R25/2000 BR SCT018 BKN100 21/17 Q10...\n",
      "[WARNING] No station code found in METAR: 202301220630 METAR VEPT 220630Z 23003KT 1200 R25/2...\n",
      "[WARNING] [Line 1026] Invalid METAR format: Missing required METAR/SPECI identifier or station code\n",
      "          METAR: 202301220700 METAR VEPT 220700Z 15003KT 1500 R25/2000 BR SCT018 BKN100 22/18 Q10...\n",
      "[WARNING] No station code found in METAR: 202301220700 METAR VEPT 220700Z 15003KT 1500 R25/2...\n",
      "[WARNING] [Line 1027] Invalid METAR format: Missing required METAR/SPECI identifier or station code\n",
      "          METAR: 202301220730 METAR VEPT 220730Z 29003KT 1600 BR SCT018 BKN100 23/18 Q1015 NOSIG=...\n",
      "[WARNING] No station code found in METAR: 202301220730 METAR VEPT 220730Z 29003KT 1600 BR SC...\n",
      "[WARNING] [Line 1028] Invalid METAR format: Missing required METAR/SPECI identifier or station code\n",
      "          METAR: 202301220800 METAR VEPT 220800Z 20004KT 1600 HZ SCT018 BKN100 24/17 Q1015 NOSIG=...\n",
      "[WARNING] No station code found in METAR: 202301220800 METAR VEPT 220800Z 20004KT 1600 HZ SC...\n",
      "[WARNING] [Line 1029] Invalid METAR format: Missing required METAR/SPECI identifier or station code\n",
      "          METAR: 202301220830 METAR VEPT 220830Z 19003KT 1600 HZ SCT018 SCT100 24/18 Q1014 NOSIG=...\n",
      "[WARNING] No station code found in METAR: 202301220830 METAR VEPT 220830Z 19003KT 1600 HZ SC...\n",
      "[WARNING] [Line 1030] Invalid METAR format: Missing required METAR/SPECI identifier or station code\n",
      "          METAR: 202301220900 METAR VEPT 220900Z 17004KT 1600 HZ FEW018 SCT100 25/18 Q1014 NOSIG=...\n",
      "[WARNING] No station code found in METAR: 202301220900 METAR VEPT 220900Z 17004KT 1600 HZ FE...\n",
      "[WARNING] [Line 1031] Invalid METAR format: Missing required METAR/SPECI identifier or station code\n",
      "          METAR: 202301220930 METAR VEPT 220930Z 20004KT 1800 HZ FEW018 SCT100 25/18 Q1014 NOSIG=...\n",
      "[WARNING] No station code found in METAR: 202301220930 METAR VEPT 220930Z 20004KT 1800 HZ FE...\n",
      "[WARNING] [Line 1032] Invalid METAR format: Missing required METAR/SPECI identifier or station code\n",
      "          METAR: 202301221000 METAR VEPT 221000Z 24004KT 1800 HZ SCT100 25/18 Q1013 NOSIG=...\n",
      "[WARNING] No station code found in METAR: 202301221000 METAR VEPT 221000Z 24004KT 1800 HZ SC...\n",
      "[WARNING] [Line 1033] Invalid METAR format: Missing required METAR/SPECI identifier or station code\n",
      "          METAR: 202301221030 METAR VEPT 221030Z 27003KT 1800 HZ SCT100 25/18 Q1013 NOSIG=...\n",
      "[WARNING] No station code found in METAR: 202301221030 METAR VEPT 221030Z 27003KT 1800 HZ SC...\n",
      "[WARNING] [Line 1034] Invalid METAR format: Missing required METAR/SPECI identifier or station code\n",
      "          METAR: 202301221100 METAR VEPT 221100Z 27003KT 1800 HZ SCT100 25/18 Q1013 NOSIG=...\n",
      "[WARNING] No station code found in METAR: 202301221100 METAR VEPT 221100Z 27003KT 1800 HZ SC...\n",
      "[WARNING] [Line 1035] Invalid METAR format: Missing required METAR/SPECI identifier or station code\n",
      "          METAR: 202301221130 METAR VEPT 221130Z 30002KT 1800 HZ SCT100 24/18 Q1013 NOSIG=...\n",
      "[WARNING] No station code found in METAR: 202301221130 METAR VEPT 221130Z 30002KT 1800 HZ SC...\n",
      "[WARNING] [Line 1036] Invalid METAR format: Missing required METAR/SPECI identifier or station code\n",
      "          METAR: 202301221200 METAR VEPT 221200Z 34002KT 1600 BR FEW100 23/18 Q1013 NOSIG=...\n",
      "[WARNING] No station code found in METAR: 202301221200 METAR VEPT 221200Z 34002KT 1600 BR FE...\n",
      "[WARNING] [Line 1037] Invalid METAR format: Missing required METAR/SPECI identifier or station code\n",
      "          METAR: 202301221230 METAR VEPT 221230Z 26003KT 1800 BR FEW100 22/18 Q1013 NOSIG=...\n",
      "[WARNING] No station code found in METAR: 202301221230 METAR VEPT 221230Z 26003KT 1800 BR FE...\n",
      "[WARNING] [Line 1038] Invalid METAR format: Missing required METAR/SPECI identifier or station code\n",
      "          METAR: 202301221300 METAR VEPT 221300Z 00000KT 1800 BR FEW100 21/17 Q1014 NOSIG=...\n",
      "[WARNING] No station code found in METAR: 202301221300 METAR VEPT 221300Z 00000KT 1800 BR FE...\n",
      "[WARNING] [Line 1039] Invalid METAR format: Missing required METAR/SPECI identifier or station code\n",
      "          METAR: 202301221330 METAR VEPT 221330Z 25003KT 1800 BR FEW100 21/17 Q1014 NOSIG=...\n",
      "[WARNING] No station code found in METAR: 202301221330 METAR VEPT 221330Z 25003KT 1800 BR FE...\n",
      "[WARNING] [Line 1040] Invalid METAR format: Missing required METAR/SPECI identifier or station code\n",
      "          METAR: 202301221400 METAR VEPT 221400Z 26004KT 1800 BR FEW100 21/17 Q1014 NOSIG=...\n",
      "[WARNING] No station code found in METAR: 202301221400 METAR VEPT 221400Z 26004KT 1800 BR FE...\n",
      "[WARNING] [Line 1041] Invalid METAR format: Missing required METAR/SPECI identifier or station code\n",
      "          METAR: 202301221430 METAR VEPT 221430Z 28003KT 1800 BR FEW100 20/17 Q1014 NOSIG=...\n",
      "[WARNING] No station code found in METAR: 202301221430 METAR VEPT 221430Z 28003KT 1800 BR FE...\n",
      "[WARNING] [Line 1042] Invalid METAR format: Missing required METAR/SPECI identifier or station code\n",
      "          METAR: 202301221500 METAR VEPT 221500Z 00000KT 1800 BR FEW100 21/18 Q1015 NOSIG=...\n",
      "[WARNING] No station code found in METAR: 202301221500 METAR VEPT 221500Z 00000KT 1800 BR FE...\n",
      "[WARNING] [Line 1043] Invalid METAR format: Missing required METAR/SPECI identifier or station code\n",
      "          METAR: 202301221530 METAR VEPT 221530Z 08002KT 1800 BR FEW100 19/17 Q1015 NOSIG=...\n",
      "[WARNING] No station code found in METAR: 202301221530 METAR VEPT 221530Z 08002KT 1800 BR FE...\n",
      "[WARNING] [Line 1044] Invalid METAR format: Missing required METAR/SPECI identifier or station code\n",
      "          METAR: 202301221600 METAR VEPT 221600Z 13002KT 1600 BR FEW100 18/17 Q1014 BECMG 1500 BR...\n",
      "[WARNING] No station code found in METAR: 202301221600 METAR VEPT 221600Z 13002KT 1600 BR FE...\n",
      "[WARNING] [Line 1045] Invalid METAR format: Missing required METAR/SPECI identifier or station code\n",
      "          METAR: 202301221630 METAR VEPT 221630Z 05002KT 1500 R25/2000 BR FEW100 18/16 Q1015 NOSI...\n",
      "[WARNING] No station code found in METAR: 202301221630 METAR VEPT 221630Z 05002KT 1500 R25/2...\n",
      "[WARNING] [Line 1046] Invalid METAR format: Missing required METAR/SPECI identifier or station code\n",
      "          METAR: 202301221700 METAR VEPT 221700Z 00000KT 1500 R25/2000 BR FEW100 17/16 Q1015 NOSI...\n",
      "[WARNING] No station code found in METAR: 202301221700 METAR VEPT 221700Z 00000KT 1500 R25/2...\n",
      "[WARNING] [Line 1047] Invalid METAR format: Missing required METAR/SPECI identifier or station code\n",
      "          METAR: 202301221730 METAR VEPT 221730Z 00000KT 1400 R25/2000 BR FEW100 17/16 Q1015 NOSI...\n",
      "[WARNING] No station code found in METAR: 202301221730 METAR VEPT 221730Z 00000KT 1400 R25/2...\n",
      "[WARNING] [Line 1048] Invalid METAR format: Missing required METAR/SPECI identifier or station code\n",
      "          METAR: 202301221800 METAR VEPT 221800Z 00000KT 1400 R25/2000 BR FEW100 18/17 Q1015 NOSI...\n",
      "[WARNING] No station code found in METAR: 202301221800 METAR VEPT 221800Z 00000KT 1400 R25/2...\n",
      "[WARNING] [Line 1049] Invalid METAR format: Missing required METAR/SPECI identifier or station code\n",
      "          METAR: 202301221830 METAR VEPT 221830Z 00000KT 1300 R25/2000 BR FEW100 16/15 Q1015 NOSI...\n",
      "[WARNING] No station code found in METAR: 202301221830 METAR VEPT 221830Z 00000KT 1300 R25/2...\n",
      "[WARNING] [Line 1050] Invalid METAR format: Missing required METAR/SPECI identifier or station code\n",
      "          METAR: 202301221900 METAR VEPT 221900Z 00000KT 1200 R25/1800 MIFG NSC 16/16 Q1014 NOSIG...\n",
      "[WARNING] No station code found in METAR: 202301221900 METAR VEPT 221900Z 00000KT 1200 R25/1...\n",
      "[WARNING] [Line 1051] Invalid METAR format: Missing required METAR/SPECI identifier or station code\n",
      "          METAR: 202301221930 METAR VEPT 221930Z 00000KT 1200 R25/2000 MIFG NSC 17/17 Q1014 NOSIG...\n",
      "[WARNING] No station code found in METAR: 202301221930 METAR VEPT 221930Z 00000KT 1200 R25/2...\n",
      "[WARNING] [Line 1052] Invalid METAR format: Missing required METAR/SPECI identifier or station code\n",
      "          METAR: 202301222000 METAR VEPT 222000Z 00000KT 1200 R25/2000 MIFG FEW100 16/15 Q1014 NO...\n",
      "[WARNING] No station code found in METAR: 202301222000 METAR VEPT 222000Z 00000KT 1200 R25/2...\n",
      "[WARNING] [Line 1053] Invalid METAR format: Missing required METAR/SPECI identifier or station code\n",
      "          METAR: 202301222030 METAR VEPT 222030Z 00000KT 1100 R25/2000 MIFG FEW100 16/15 Q1015 NO...\n",
      "[WARNING] No station code found in METAR: 202301222030 METAR VEPT 222030Z 00000KT 1100 R25/2...\n",
      "[WARNING] [Line 1054] Invalid METAR format: Missing required METAR/SPECI identifier or station code\n",
      "          METAR: 202301222100 METAR VEPT 222100Z 00000KT 1100 R25/2000 MIFG FEW100 16/15 Q1014 NO...\n",
      "[WARNING] No station code found in METAR: 202301222100 METAR VEPT 222100Z 00000KT 1100 R25/2...\n",
      "[WARNING] [Line 1055] Invalid METAR format: Missing required METAR/SPECI identifier or station code\n",
      "          METAR: 202301222130 METAR VEPT 222130Z 00000KT 1100 R25/1500 MIFG FEW100 15/14 Q1014 NO...\n",
      "[WARNING] No station code found in METAR: 202301222130 METAR VEPT 222130Z 00000KT 1100 R25/1...\n",
      "[WARNING] [Line 1056] Invalid METAR format: Missing required METAR/SPECI identifier or station code\n",
      "          METAR: 202301222200 METAR VEPT 222200Z 00000KT 1100 R25/1400 MIFG FEW100 15/14 Q1014 NO...\n",
      "[WARNING] No station code found in METAR: 202301222200 METAR VEPT 222200Z 00000KT 1100 R25/1...\n",
      "[WARNING] [Line 1057] Invalid METAR format: Missing required METAR/SPECI identifier or station code\n",
      "          METAR: 202301222230 METAR VEPT 222230Z 00000KT 1100 R25/1400 MIFG FEW100 15/14 Q1014 NO...\n",
      "[WARNING] No station code found in METAR: 202301222230 METAR VEPT 222230Z 00000KT 1100 R25/1...\n",
      "[WARNING] [Line 1058] Invalid METAR format: Missing required METAR/SPECI identifier or station code\n",
      "          METAR: 202301222300 METAR VEPT 222300Z 00000KT 1100 R25/1300 MIFG FEW100 15/14 Q1014 NO...\n",
      "[WARNING] No station code found in METAR: 202301222300 METAR VEPT 222300Z 00000KT 1100 R25/1...\n",
      "[WARNING] [Line 1059] Invalid METAR format: Missing required METAR/SPECI identifier or station code\n",
      "          METAR: 202301222330 METAR VEPT 222330Z 00000KT 1000 R25/1900 MIFG FEW100 15/14 Q1014 NO...\n",
      "[WARNING] No station code found in METAR: 202301222330 METAR VEPT 222330Z 00000KT 1000 R25/1...\n",
      "[WARNING] [Line 1060] Invalid METAR format: Missing required METAR/SPECI identifier or station code\n",
      "          METAR: 202301230000 METAR VEPT 230000Z 00000KT 0900 R25/1800 MIFG FEW100 15/14 Q1014 BE...\n",
      "[WARNING] No station code found in METAR: 202301230000 METAR VEPT 230000Z 00000KT 0900 R25/1...\n",
      "[WARNING] [Line 1061] Invalid METAR format: Missing required METAR/SPECI identifier or station code\n",
      "          METAR: 202301230030 METAR VEPT 230030Z 00000KT 0800 R25/1600 FG FEW100 15/14 Q1014 NOSI...\n",
      "[WARNING] No station code found in METAR: 202301230030 METAR VEPT 230030Z 00000KT 0800 R25/1...\n",
      "[WARNING] [Line 1062] Invalid METAR format: Missing required METAR/SPECI identifier or station code\n",
      "          METAR: 202301230100 METAR COR VEPT 230100Z 00000KT 0800 R25/1100 FG FEW100 16/15 Q1015 ...\n",
      "[WARNING] No station code found in METAR: 202301230100 METAR COR VEPT 230100Z 00000KT 0800 R...\n",
      "[WARNING] [Line 1063] Invalid METAR format: Missing required METAR/SPECI identifier or station code\n",
      "          METAR: 202301230130 METAR VEPT 230130Z 00000KT 0700 R25/0800 FG FEW100 16/15 Q1015 BECM...\n",
      "[WARNING] No station code found in METAR: 202301230130 METAR VEPT 230130Z 00000KT 0700 R25/0...\n",
      "[WARNING] [Line 1064] Invalid METAR format: Missing required METAR/SPECI identifier or station code\n",
      "          METAR: 202301230200 METAR VEPT 230200Z 22003KT 0600 R25/1300 FG FEW012 SCT016 16/15 Q10...\n",
      "[WARNING] No station code found in METAR: 202301230200 METAR VEPT 230200Z 22003KT 0600 R25/1...\n",
      "[WARNING] [Line 1065] Invalid METAR format: Missing required METAR/SPECI identifier or station code\n",
      "          METAR: 202301230230 METAR VEPT 230230Z 00000KT 0600 R25/1400 FG FEW016 SCT100 18/17 Q10...\n",
      "[WARNING] No station code found in METAR: 202301230230 METAR VEPT 230230Z 00000KT 0600 R25/1...\n",
      "[WARNING] [Line 1066] Invalid METAR format: Missing required METAR/SPECI identifier or station code\n",
      "          METAR: 202301230300 METAR VEPT 230300Z 00000KT 0600 R25/1500 FG FEW016 SCT100 19/17 Q10...\n",
      "[WARNING] No station code found in METAR: 202301230300 METAR VEPT 230300Z 00000KT 0600 R25/1...\n",
      "[WARNING] [Line 1067] Invalid METAR format: Missing required METAR/SPECI identifier or station code\n",
      "          METAR: 202301230330 METAR VEPT 230330Z 00000KT 0800 R25/1900 FG FEW018 SCT100 20/18 Q10...\n",
      "[WARNING] No station code found in METAR: 202301230330 METAR VEPT 230330Z 00000KT 0800 R25/1...\n",
      "[WARNING] [Line 1068] Invalid METAR format: Missing required METAR/SPECI identifier or station code\n",
      "          METAR: 202301230400 METAR VEPT 230400Z 22002KT 0800 R25/1800 FG FEW018 SCT100 21/18 Q10...\n",
      "[WARNING] No station code found in METAR: 202301230400 METAR VEPT 230400Z 22002KT 0800 R25/1...\n",
      "[WARNING] [Line 1069] Invalid METAR format: Missing required METAR/SPECI identifier or station code\n",
      "          METAR: 202301230430 METAR VEPT 230430Z 21003KT 1100 R25/2000 BR FEW018 SCT100 22/17 Q10...\n",
      "[WARNING] No station code found in METAR: 202301230430 METAR VEPT 230430Z 21003KT 1100 R25/2...\n",
      "[WARNING] [Line 1070] Invalid METAR format: Missing required METAR/SPECI identifier or station code\n",
      "          METAR: 202301230500 METAR VEPT 230500Z 22005KT 1200 R25/2000 BR SCT018 BKN100 23/18 Q10...\n",
      "[WARNING] No station code found in METAR: 202301230500 METAR VEPT 230500Z 22005KT 1200 R25/2...\n",
      "[WARNING] [Line 1071] Invalid METAR format: Missing required METAR/SPECI identifier or station code\n",
      "          METAR: 202301230530 METAR VEPT 230530Z 27004KT 1200 R25/2000 HZ SCT100 24/18 Q1016 BECM...\n",
      "[WARNING] No station code found in METAR: 202301230530 METAR VEPT 230530Z 27004KT 1200 R25/2...\n",
      "[WARNING] [Line 1072] Invalid METAR format: Missing required METAR/SPECI identifier or station code\n",
      "          METAR: 202301230600 METAR VEPT 230600Z 25003KT 1500 R25/2000 HZ SCT100 25/18 Q1015 NOSI...\n",
      "[WARNING] No station code found in METAR: 202301230600 METAR VEPT 230600Z 25003KT 1500 R25/2...\n",
      "[WARNING] [Line 1073] Invalid METAR format: Missing required METAR/SPECI identifier or station code\n",
      "          METAR: 202301230630 METAR VEPT 230630Z 29002KT 1500 R25/2000 HZ FEW100 26/17 Q1015 NOSI...\n",
      "[WARNING] No station code found in METAR: 202301230630 METAR VEPT 230630Z 29002KT 1500 R25/2...\n",
      "[WARNING] [Line 1074] Invalid METAR format: Missing required METAR/SPECI identifier or station code\n",
      "          METAR: 202301230700 METAR VEPT 230700Z 29005KT 1800 HZ FEW100 26/16 Q1014 NOSIG=...\n",
      "[WARNING] No station code found in METAR: 202301230700 METAR VEPT 230700Z 29005KT 1800 HZ FE...\n",
      "[WARNING] [Line 1075] Invalid METAR format: Missing required METAR/SPECI identifier or station code\n",
      "          METAR: 202301230730 METAR VEPT 230730Z 29004KT 1800 HZ FEW100 27/17 Q1013 NOSIG=...\n",
      "[WARNING] No station code found in METAR: 202301230730 METAR VEPT 230730Z 29004KT 1800 HZ FE...\n",
      "[WARNING] [Line 1076] Invalid METAR format: Missing required METAR/SPECI identifier or station code\n",
      "          METAR: 202301230800 METAR VEPT 230800Z 32004KT 2000 HZ FEW100 26/17 Q1013 NOSIG=...\n",
      "[WARNING] No station code found in METAR: 202301230800 METAR VEPT 230800Z 32004KT 2000 HZ FE...\n",
      "[WARNING] [Line 1077] Invalid METAR format: Missing required METAR/SPECI identifier or station code\n",
      "          METAR: 202301230830 METAR VEPT 230830Z 34003KT 2500 HZ FEW100 27/17 Q1012 NOSIG=...\n",
      "[WARNING] No station code found in METAR: 202301230830 METAR VEPT 230830Z 34003KT 2500 HZ FE...\n",
      "[WARNING] [Line 1078] Invalid METAR format: Missing required METAR/SPECI identifier or station code\n",
      "          METAR: 202301230900 METAR VEPT 230900Z 32003KT 2500 HZ FEW100 27/17 Q1012 NOSIG=...\n",
      "[WARNING] No station code found in METAR: 202301230900 METAR VEPT 230900Z 32003KT 2500 HZ FE...\n",
      "[WARNING] [Line 1079] Invalid METAR format: Missing required METAR/SPECI identifier or station code\n",
      "          METAR: 202301230930 METAR VEPT 230930Z 28005KT 2500 HZ FEW100 27/16 Q1012 NOSIG=...\n",
      "[WARNING] No station code found in METAR: 202301230930 METAR VEPT 230930Z 28005KT 2500 HZ FE...\n",
      "[WARNING] [Line 1080] Invalid METAR format: Missing required METAR/SPECI identifier or station code\n",
      "          METAR: 202301231000 METAR VEPT 231000Z 29005KT 2500 HZ FEW100 27/16 Q1012 NOSIG=...\n",
      "[WARNING] No station code found in METAR: 202301231000 METAR VEPT 231000Z 29005KT 2500 HZ FE...\n",
      "[WARNING] [Line 1081] Invalid METAR format: Missing required METAR/SPECI identifier or station code\n",
      "          METAR: 202301231030 METAR VEPT 231030Z 30005KT 2500 HZ FEW100 26/16 Q1011 NOSIG=...\n",
      "[WARNING] No station code found in METAR: 202301231030 METAR VEPT 231030Z 30005KT 2500 HZ FE...\n",
      "[WARNING] [Line 1082] Invalid METAR format: Missing required METAR/SPECI identifier or station code\n",
      "          METAR: 202301231100 METAR VEPT 231100Z 28004KT 2500 HZ FEW100 26/16 Q1011 NOSIG=...\n",
      "[WARNING] No station code found in METAR: 202301231100 METAR VEPT 231100Z 28004KT 2500 HZ FE...\n",
      "[WARNING] [Line 1083] Invalid METAR format: Missing required METAR/SPECI identifier or station code\n",
      "          METAR: 202301231130 METAR VEPT 231130Z 28003KT 2500 HZ NSC 25/17 Q1011 NOSIG=...\n",
      "[WARNING] No station code found in METAR: 202301231130 METAR VEPT 231130Z 28003KT 2500 HZ NS...\n",
      "[WARNING] [Line 1084] Invalid METAR format: Missing required METAR/SPECI identifier or station code\n",
      "          METAR: 202301231200 METAR VEPT 231200Z 29003KT 2500 HZ NSC 24/17 Q1011 NOSIG=...\n",
      "[WARNING] No station code found in METAR: 202301231200 METAR VEPT 231200Z 29003KT 2500 HZ NS...\n",
      "[WARNING] [Line 1085] Invalid METAR format: Missing required METAR/SPECI identifier or station code\n",
      "          METAR: 202301231230 METAR VEPT 231230Z 00000KT 2500 HZ NSC 22/17 Q1012 NOSIG=...\n",
      "[WARNING] No station code found in METAR: 202301231230 METAR VEPT 231230Z 00000KT 2500 HZ NS...\n",
      "[WARNING] [Line 1086] Invalid METAR format: Missing required METAR/SPECI identifier or station code\n",
      "          METAR: 202301231300 METAR VEPT 231300Z 27003KT 2500 BR NSC 22/18 Q1012 NOSIG=...\n",
      "[WARNING] No station code found in METAR: 202301231300 METAR VEPT 231300Z 27003KT 2500 BR NS...\n",
      "[WARNING] [Line 1087] Invalid METAR format: Missing required METAR/SPECI identifier or station code\n",
      "          METAR: 202301231330 METAR VEPT 231330Z 30002KT 2500 BR NSC 22/17 Q1012 NOSIG=...\n",
      "[WARNING] No station code found in METAR: 202301231330 METAR VEPT 231330Z 30002KT 2500 BR NS...\n",
      "[WARNING] [Line 1088] Invalid METAR format: Missing required METAR/SPECI identifier or station code\n",
      "          METAR: 202301231400 METAR VEPT 231400Z 30003KT 2500 BR NSC 21/16 Q1013 NOSIG=...\n",
      "[WARNING] No station code found in METAR: 202301231400 METAR VEPT 231400Z 30003KT 2500 BR NS...\n",
      "[WARNING] [Line 1089] Invalid METAR format: Missing required METAR/SPECI identifier or station code\n",
      "          METAR: 202301231430 METAR VEPT 231430Z 00000KT 2500 BR NSC 20/16 Q1013 NOSIG=...\n",
      "[WARNING] No station code found in METAR: 202301231430 METAR VEPT 231430Z 00000KT 2500 BR NS...\n",
      "[WARNING] [Line 1090] Invalid METAR format: Missing required METAR/SPECI identifier or station code\n",
      "          METAR: 202301231500 METAR VEPT 231500Z 00000KT 2000 BR NSC 20/17 Q1013 NOSIG=...\n",
      "[WARNING] No station code found in METAR: 202301231500 METAR VEPT 231500Z 00000KT 2000 BR NS...\n",
      "[WARNING] [Line 1091] Invalid METAR format: Missing required METAR/SPECI identifier or station code\n",
      "          METAR: 202301231530 METAR VEPT 231530Z 00000KT 2000 BR NSC 19/17 Q1014 NOSIG=...\n",
      "[WARNING] No station code found in METAR: 202301231530 METAR VEPT 231530Z 00000KT 2000 BR NS...\n",
      "[WARNING] [Line 1092] Invalid METAR format: Missing required METAR/SPECI identifier or station code\n",
      "          METAR: 202301231600 METAR VEPT 231600Z 00000KT 2000 BR NSC 19/17 Q1014 NOSIG=...\n",
      "[WARNING] No station code found in METAR: 202301231600 METAR VEPT 231600Z 00000KT 2000 BR NS...\n",
      "[WARNING] [Line 1093] Invalid METAR format: Missing required METAR/SPECI identifier or station code\n",
      "          METAR: 202301231630 METAR VEPT 231630Z 00000KT 2000 BR NSC 19/17 Q1014 NOSIG=...\n",
      "[WARNING] No station code found in METAR: 202301231630 METAR VEPT 231630Z 00000KT 2000 BR NS...\n",
      "[WARNING] [Line 1094] Invalid METAR format: Missing required METAR/SPECI identifier or station code\n",
      "          METAR: 202301231700 METAR VEPT 231700Z 00000KT 2000 BR NSC 18/16 Q1014 NOSIG=...\n",
      "[WARNING] No station code found in METAR: 202301231700 METAR VEPT 231700Z 00000KT 2000 BR NS...\n",
      "[WARNING] [Line 1095] Invalid METAR format: Missing required METAR/SPECI identifier or station code\n",
      "          METAR: 202301231730 METAR VEPT 231730Z 00000KT 2000 BR NSC 18/16 Q1014 NOSIG=...\n",
      "[WARNING] No station code found in METAR: 202301231730 METAR VEPT 231730Z 00000KT 2000 BR NS...\n",
      "[WARNING] [Line 1096] Invalid METAR format: Missing required METAR/SPECI identifier or station code\n",
      "          METAR: 202301231800 METAR VEPT 231800Z 00000KT 1800 BR NSC 18/16 Q1014 NOSIG=...\n",
      "[WARNING] No station code found in METAR: 202301231800 METAR VEPT 231800Z 00000KT 1800 BR NS...\n",
      "[WARNING] [Line 1097] Invalid METAR format: Missing required METAR/SPECI identifier or station code\n",
      "          METAR: 202301231830 METAR VEPT 231830Z 00000KT 1800 BR NSC 17/16 Q1014 NOSIG=...\n",
      "[WARNING] No station code found in METAR: 202301231830 METAR VEPT 231830Z 00000KT 1800 BR NS...\n",
      "[WARNING] [Line 1098] Invalid METAR format: Missing required METAR/SPECI identifier or station code\n",
      "          METAR: 202301231900 METAR VEPT 231900Z 00000KT 1800 BR NSC 17/16 Q1014 NOSIG=...\n",
      "[WARNING] No station code found in METAR: 202301231900 METAR VEPT 231900Z 00000KT 1800 BR NS...\n",
      "[WARNING] [Line 1099] Invalid METAR format: Missing required METAR/SPECI identifier or station code\n",
      "          METAR: 202301231930 METAR VEPT 231930Z 00000KT 1800 BR NSC 17/16 Q1014 NOSIG=...\n",
      "[WARNING] No station code found in METAR: 202301231930 METAR VEPT 231930Z 00000KT 1800 BR NS...\n",
      "[PROGRESS] Processed 1100/1489 METARs...\n",
      "[WARNING] [Line 1100] Invalid METAR format: Missing required METAR/SPECI identifier or station code\n",
      "          METAR: 202301232000 METAR VEPT 232000Z 00000KT 1800 BR NSC 17/16 Q1014 NOSIG=...\n",
      "[WARNING] No station code found in METAR: 202301232000 METAR VEPT 232000Z 00000KT 1800 BR NS...\n",
      "[WARNING] [Line 1101] Invalid METAR format: Missing required METAR/SPECI identifier or station code\n",
      "          METAR: 202301232030 METAR VEPT 232030Z 00000KT 1600 BR NSC 17/16 Q1014 NOSIG=...\n",
      "[WARNING] No station code found in METAR: 202301232030 METAR VEPT 232030Z 00000KT 1600 BR NS...\n",
      "[WARNING] [Line 1102] Invalid METAR format: Missing required METAR/SPECI identifier or station code\n",
      "          METAR: 202301232100 METAR VEPT 232100Z 00000KT 1600 BR NSC 16/15 Q1014 BECMG 1500 BR=...\n",
      "[WARNING] No station code found in METAR: 202301232100 METAR VEPT 232100Z 00000KT 1600 BR NS...\n",
      "[WARNING] [Line 1103] Invalid METAR format: Missing required METAR/SPECI identifier or station code\n",
      "          METAR: 202301232130 METAR VEPT 232130Z 00000KT 1500 R25/2000 BR NSC 16/15 Q1014 NOSIG=...\n",
      "[WARNING] No station code found in METAR: 202301232130 METAR VEPT 232130Z 00000KT 1500 R25/2...\n",
      "[WARNING] [Line 1104] Invalid METAR format: Missing required METAR/SPECI identifier or station code\n",
      "          METAR: 202301232200 METAR VEPT 232200Z 00000KT 1500 R25/2000 BR NSC 16/15 Q1014 NOSIG=...\n",
      "[WARNING] No station code found in METAR: 202301232200 METAR VEPT 232200Z 00000KT 1500 R25/2...\n",
      "[WARNING] [Line 1105] Invalid METAR format: Missing required METAR/SPECI identifier or station code\n",
      "          METAR: 202301232230 METAR VEPT 232230Z 00000KT 1200 R25/1200 BR NSC 14/13 Q1014 NOSIG=...\n",
      "[WARNING] No station code found in METAR: 202301232230 METAR VEPT 232230Z 00000KT 1200 R25/1...\n",
      "[WARNING] [Line 1106] Invalid METAR format: Missing required METAR/SPECI identifier or station code\n",
      "          METAR: 202301232300 METAR VEPT 232300Z 00000KT 1200 R25/1200 BR NSC 16/14 Q1014 NOSIG=...\n",
      "[WARNING] No station code found in METAR: 202301232300 METAR VEPT 232300Z 00000KT 1200 R25/1...\n",
      "[WARNING] [Line 1107] Invalid METAR format: Missing required METAR/SPECI identifier or station code\n",
      "          METAR: 202301232330 METAR VEPT 232330Z 00000KT 1000 R25/1200 MIFG NSC 16/15 Q1014 NOSIG...\n",
      "[WARNING] No station code found in METAR: 202301232330 METAR VEPT 232330Z 00000KT 1000 R25/1...\n",
      "[WARNING] [Line 1108] Invalid METAR format: Missing required METAR/SPECI identifier or station code\n",
      "          METAR: 202301240000 METAR VEPT 240000Z 00000KT 1100 R25/1400 MIFG NSC 15/14 Q1014 NOSIG...\n",
      "[WARNING] No station code found in METAR: 202301240000 METAR VEPT 240000Z 00000KT 1100 R25/1...\n",
      "[WARNING] [Line 1109] Invalid METAR format: Missing required METAR/SPECI identifier or station code\n",
      "          METAR: 202301240030 METAR VEPT 240030Z 00000KT 0800 R25/1000 FG NSC 15/14 Q1014 NOSIG=...\n",
      "[WARNING] No station code found in METAR: 202301240030 METAR VEPT 240030Z 00000KT 0800 R25/1...\n",
      "[WARNING] [Line 1110] Invalid METAR format: Missing required METAR/SPECI identifier or station code\n",
      "          METAR: 202301240100 METAR VEPT 240100Z 00000KT 0800 R25/1200 FG NSC 15/14 Q1014 BECMG 0...\n",
      "[WARNING] No station code found in METAR: 202301240100 METAR VEPT 240100Z 00000KT 0800 R25/1...\n",
      "[WARNING] [Line 1111] Invalid METAR format: Missing required METAR/SPECI identifier or station code\n",
      "          METAR: 202301240130 METAR VEPT 240130Z 00000KT 0600 R25/1200 FG NSC 15/14 Q1015 NOSIG=...\n",
      "[WARNING] No station code found in METAR: 202301240130 METAR VEPT 240130Z 00000KT 0600 R25/1...\n",
      "[WARNING] [Line 1112] Invalid METAR format: Missing required METAR/SPECI identifier or station code\n",
      "          METAR: 202301240200 METAR VEPT 240200Z 00000KT 0700 R25 1150 FG NSC 16/14 Q1014 BECMG 0...\n",
      "[WARNING] No station code found in METAR: 202301240200 METAR VEPT 240200Z 00000KT 0700 R25 1...\n",
      "[WARNING] [Line 1113] Invalid METAR format: Missing required METAR/SPECI identifier or station code\n",
      "          METAR: 202301240230 METAR VEPT 240230Z 10002KT 0700 R25/1150 FG NSC 18/17 Q1015 BECMG 0...\n",
      "[WARNING] No station code found in METAR: 202301240230 METAR VEPT 240230Z 10002KT 0700 R25/1...\n",
      "[WARNING] [Line 1114] Invalid METAR format: Missing required METAR/SPECI identifier or station code\n",
      "          METAR: 202301240300 METAR COR VEPT 240300Z 09003KT 0800 R25/1300 NSC 19/14 Q1015 NOSIG=...\n",
      "[WARNING] No station code found in METAR: 202301240300 METAR COR VEPT 240300Z 09003KT 0800 R...\n",
      "[WARNING] [Line 1115] Invalid METAR format: Missing required METAR/SPECI identifier or station code\n",
      "          METAR: 202301240330 METAR VEPT 240330Z 09002KT 1000 R25 1500 BR NSC 20/15 Q1016 BECMG 1...\n",
      "[WARNING] No station code found in METAR: 202301240330 METAR VEPT 240330Z 09002KT 1000 R25 1...\n",
      "[WARNING] [Line 1116] Invalid METAR format: Missing required METAR/SPECI identifier or station code\n",
      "          METAR: 202301240400 METAR VEPT 240400Z 12004KT 1500 R25/1600 BR NSC 21/14 Q1016 NOSIG=...\n",
      "[WARNING] No station code found in METAR: 202301240400 METAR VEPT 240400Z 12004KT 1500 R25/1...\n",
      "[WARNING] [Line 1117] Invalid METAR format: Missing required METAR/SPECI identifier or station code\n",
      "          METAR: 202301240430 METAR VEPT 240430Z 12003KT 1500 R25/1800 BR NSC 22/14 Q1016 NOSIG=...\n",
      "[WARNING] No station code found in METAR: 202301240430 METAR VEPT 240430Z 12003KT 1500 R25/1...\n",
      "[WARNING] [Line 1118] Invalid METAR format: Missing required METAR/SPECI identifier or station code\n",
      "          METAR: 202301240500 METAR VEPT 240500Z 09003KT 1600 FU NSC 23/14 Q1016 NOSIG=...\n",
      "[WARNING] No station code found in METAR: 202301240500 METAR VEPT 240500Z 09003KT 1600 FU NS...\n",
      "[WARNING] [Line 1119] Invalid METAR format: Missing required METAR/SPECI identifier or station code\n",
      "          METAR: 202301240530 METAR VEPT 240530Z 15003KT 1600 FU NSC 25/13 Q1016 NOSIG=...\n",
      "[WARNING] No station code found in METAR: 202301240530 METAR VEPT 240530Z 15003KT 1600 FU NS...\n",
      "[WARNING] [Line 1120] Invalid METAR format: Missing required METAR/SPECI identifier or station code\n",
      "          METAR: 202301240600 METAR VEPT 240600Z 09003KT 1800 FU NSC 25/13 Q1015 NOSIG=...\n",
      "[WARNING] No station code found in METAR: 202301240600 METAR VEPT 240600Z 09003KT 1800 FU NS...\n",
      "[WARNING] [Line 1121] Invalid METAR format: Missing required METAR/SPECI identifier or station code\n",
      "          METAR: 202301240630 METAR VEPT 240630Z 15005KT 2000 HZ NSC 26/15 Q1015 NOSIG=...\n",
      "[WARNING] No station code found in METAR: 202301240630 METAR VEPT 240630Z 15005KT 2000 HZ NS...\n",
      "[WARNING] [Line 1122] Invalid METAR format: Missing required METAR/SPECI identifier or station code\n",
      "          METAR: 202301240700 METAR VEPT 240700Z 12003KT 2000 HZ NSC 27/19 Q1015 NOSIG=...\n",
      "[WARNING] No station code found in METAR: 202301240700 METAR VEPT 240700Z 12003KT 2000 HZ NS...\n",
      "[WARNING] [Line 1123] Invalid METAR format: Missing required METAR/SPECI identifier or station code\n",
      "          METAR: 202301240730 METAR VEPT 240730Z 11006KT 2000 HZ NSC 28/18 Q1014 NOSIG=...\n",
      "[WARNING] No station code found in METAR: 202301240730 METAR VEPT 240730Z 11006KT 2000 HZ NS...\n",
      "[WARNING] [Line 1124] Invalid METAR format: Missing required METAR/SPECI identifier or station code\n",
      "          METAR: 202301240800 METAR VEPT 240800Z 14003KT 2200 HZ NSC 28/18 Q1014 NOSIG=...\n",
      "[WARNING] No station code found in METAR: 202301240800 METAR VEPT 240800Z 14003KT 2200 HZ NS...\n",
      "[WARNING] [Line 1125] Invalid METAR format: Missing required METAR/SPECI identifier or station code\n",
      "          METAR: 202301240830 METAR VEPT 240830Z 12003KT 2500 HZ NSC 28/19 Q1013 NOSIG=...\n",
      "[WARNING] No station code found in METAR: 202301240830 METAR VEPT 240830Z 12003KT 2500 HZ NS...\n",
      "[WARNING] [Line 1126] Invalid METAR format: Missing required METAR/SPECI identifier or station code\n",
      "          METAR: 202301240900 METAR VEPT 240900Z 02003KT 2500 HZ NSC 28/18 Q1013 NOSIG=...\n",
      "[WARNING] No station code found in METAR: 202301240900 METAR VEPT 240900Z 02003KT 2500 HZ NS...\n",
      "[WARNING] [Line 1127] Invalid METAR format: Missing required METAR/SPECI identifier or station code\n",
      "          METAR: 202301240930 METAR VEPT 240930Z 07004KT 2500 HZ NSC 28/19 Q1013 NOSIG=...\n",
      "[WARNING] No station code found in METAR: 202301240930 METAR VEPT 240930Z 07004KT 2500 HZ NS...\n",
      "[WARNING] [Line 1128] Invalid METAR format: Missing required METAR/SPECI identifier or station code\n",
      "          METAR: 202301241000 METAR VEPT 241000Z 05005KT 2500 HZ NSC 28/18 Q1012 NOSIG=...\n",
      "[WARNING] No station code found in METAR: 202301241000 METAR VEPT 241000Z 05005KT 2500 HZ NS...\n",
      "[WARNING] [Line 1129] Invalid METAR format: Missing required METAR/SPECI identifier or station code\n",
      "          METAR: 202301241030 METAR VEPT 241030Z 04004KT 2500 HZ NSC 27/18 Q1012 NOSIG=...\n",
      "[WARNING] No station code found in METAR: 202301241030 METAR VEPT 241030Z 04004KT 2500 HZ NS...\n",
      "[WARNING] [Line 1130] Invalid METAR format: Missing required METAR/SPECI identifier or station code\n",
      "          METAR: 202301241100 METAR VEPT 241100Z 03005KT 2000 HZ NSC 26/19 Q1012 NOSIG=...\n",
      "[WARNING] No station code found in METAR: 202301241100 METAR VEPT 241100Z 03005KT 2000 HZ NS...\n",
      "[WARNING] [Line 1131] Invalid METAR format: Missing required METAR/SPECI identifier or station code\n",
      "          METAR: 202301241130 METAR VEPT 241130Z 05004KT 1800 FU NSC 26/20 Q1012 NOSIG=...\n",
      "[WARNING] No station code found in METAR: 202301241130 METAR VEPT 241130Z 05004KT 1800 FU NS...\n",
      "[WARNING] [Line 1132] Invalid METAR format: Missing required METAR/SPECI identifier or station code\n",
      "          METAR: 202301241200 METAR VEPT 241200Z 06002KT 1600 BR NSC 25/20 Q1012 BECMG 1500 BR=...\n",
      "[WARNING] No station code found in METAR: 202301241200 METAR VEPT 241200Z 06002KT 1600 BR NS...\n",
      "[WARNING] [Line 1133] Invalid METAR format: Missing required METAR/SPECI identifier or station code\n",
      "          METAR: 202301241230 METAR VEPT 241230Z 00000KT 1600 BR NSC 23/19 Q1013 NOSIG=...\n",
      "[WARNING] No station code found in METAR: 202301241230 METAR VEPT 241230Z 00000KT 1600 BR NS...\n",
      "[WARNING] [Line 1134] Invalid METAR format: Missing required METAR/SPECI identifier or station code\n",
      "          METAR: 202301241300 METAR VEPT 241300Z 02002KT 1600 BR NSC 23/19 Q1013 NOSIG=...\n",
      "[WARNING] No station code found in METAR: 202301241300 METAR VEPT 241300Z 02002KT 1600 BR NS...\n",
      "[WARNING] [Line 1135] Invalid METAR format: Missing required METAR/SPECI identifier or station code\n",
      "          METAR: 202301241330 METAR VEPT 241330Z 03004KT 1600 BR NSC 21/19 Q1013 NOSIG=...\n",
      "[WARNING] No station code found in METAR: 202301241330 METAR VEPT 241330Z 03004KT 1600 BR NS...\n",
      "[WARNING] [Line 1136] Invalid METAR format: Missing required METAR/SPECI identifier or station code\n",
      "          METAR: 202301241400 METAR VEPT 241400Z 03003KT 1600 BR NSC 22/19 Q1014 NOSIG=...\n",
      "[WARNING] No station code found in METAR: 202301241400 METAR VEPT 241400Z 03003KT 1600 BR NS...\n",
      "[WARNING] [Line 1137] Invalid METAR format: Missing required METAR/SPECI identifier or station code\n",
      "          METAR: 202301241430 METAR VEPT 241430Z 06002KT 1600 BR NSC 22/19 Q1014 NOSIG=...\n",
      "[WARNING] No station code found in METAR: 202301241430 METAR VEPT 241430Z 06002KT 1600 BR NS...\n",
      "[WARNING] [Line 1138] Invalid METAR format: Missing required METAR/SPECI identifier or station code\n",
      "          METAR: 202301241500 METAR VEPT 241500Z 08002KT 1600 BR NSC 21/19 Q1014 NOSIG=...\n",
      "[WARNING] No station code found in METAR: 202301241500 METAR VEPT 241500Z 08002KT 1600 BR NS...\n",
      "[WARNING] [Line 1139] Invalid METAR format: Missing required METAR/SPECI identifier or station code\n",
      "          METAR: 202301241530 METAR VEPT 241530Z 08003KT 1600 BR NSC 20/19 Q1015 BECMG 1500 BR=...\n",
      "[WARNING] No station code found in METAR: 202301241530 METAR VEPT 241530Z 08003KT 1600 BR NS...\n",
      "[WARNING] [Line 1140] Invalid METAR format: Missing required METAR/SPECI identifier or station code\n",
      "          METAR: 202301241600 METAR VEPT 241600Z 06003KT 1500 R25/2000 BR NSC 20/19 Q1015 NOSIG=...\n",
      "[WARNING] No station code found in METAR: 202301241600 METAR VEPT 241600Z 06003KT 1500 R25/2...\n",
      "[WARNING] [Line 1141] Invalid METAR format: Missing required METAR/SPECI identifier or station code\n",
      "          METAR: 202301241630 METAR VEPT 241630Z 07002KT 1500 R25/1700 BR NSC 19/18 Q1015 NOSIG=...\n",
      "[WARNING] No station code found in METAR: 202301241630 METAR VEPT 241630Z 07002KT 1500 R25/1...\n",
      "[WARNING] [Line 1142] Invalid METAR format: Missing required METAR/SPECI identifier or station code\n",
      "          METAR: 202301241700 METAR VEPT 241700Z 06002KT 1500 R25/1800 BR NSC 19/18 Q1014 NOSIG=...\n",
      "[WARNING] No station code found in METAR: 202301241700 METAR VEPT 241700Z 06002KT 1500 R25/1...\n",
      "[WARNING] [Line 1143] Invalid METAR format: Missing required METAR/SPECI identifier or station code\n",
      "          METAR: 202301241730 METAR VEPT 241730Z 08002KT 1500 R25/1700 BR NSC 19/18 Q1014 NOSIG=...\n",
      "[WARNING] No station code found in METAR: 202301241730 METAR VEPT 241730Z 08002KT 1500 R25/1...\n",
      "[WARNING] [Line 1144] Invalid METAR format: Missing required METAR/SPECI identifier or station code\n",
      "          METAR: 202301241800 METAR VEPT 241800Z 07002KT 1400 R25/1600 BR NSC 18/17 Q1014 NOSIG=...\n",
      "[WARNING] No station code found in METAR: 202301241800 METAR VEPT 241800Z 07002KT 1400 R25/1...\n",
      "[WARNING] [Line 1145] Invalid METAR format: Missing required METAR/SPECI identifier or station code\n",
      "          METAR: 202301241830 METAR VEPT 241830Z 06003KT 1400 R25/2000 BR NSC 19/18 Q1014 NOSIG=...\n",
      "[WARNING] No station code found in METAR: 202301241830 METAR VEPT 241830Z 06003KT 1400 R25/2...\n",
      "[WARNING] [Line 1146] Invalid METAR format: Missing required METAR/SPECI identifier or station code\n",
      "          METAR: 202301241900 METAR VEPT 241900Z 07004KT 1400 R25/2000 BR NSC 19/17 Q1014 NOSIG=...\n",
      "[WARNING] No station code found in METAR: 202301241900 METAR VEPT 241900Z 07004KT 1400 R25/2...\n",
      "[WARNING] [Line 1147] Invalid METAR format: Missing required METAR/SPECI identifier or station code\n",
      "          METAR: 202301241930 METAR VEPT 241930Z 07002KT 1400 R25/2000 BR NSC 19/18 Q1014 NOSIG=...\n",
      "[WARNING] No station code found in METAR: 202301241930 METAR VEPT 241930Z 07002KT 1400 R25/2...\n",
      "[WARNING] [Line 1148] Invalid METAR format: Missing required METAR/SPECI identifier or station code\n",
      "          METAR: 202301242000 METAR VEPT 242000Z 10002KT 1300 R25/1600 BR NSC 18/17 Q1014 NOSIG=...\n",
      "[WARNING] No station code found in METAR: 202301242000 METAR VEPT 242000Z 10002KT 1300 R25/1...\n",
      "[WARNING] [Line 1149] Invalid METAR format: Missing required METAR/SPECI identifier or station code\n",
      "          METAR: 202301242030 METAR VEPT 242030Z 11002KT 1200 R25/1200 BR NSC 17/16 Q1014 NOSIG=...\n",
      "[WARNING] No station code found in METAR: 202301242030 METAR VEPT 242030Z 11002KT 1200 R25/1...\n",
      "[WARNING] [Line 1150] Invalid METAR format: Missing required METAR/SPECI identifier or station code\n",
      "          METAR: 202301242100 METAR VEPT 242100Z 10002KT 1200 R25/1200 BR FEW100 19/17 Q1014 NOSI...\n",
      "[WARNING] No station code found in METAR: 202301242100 METAR VEPT 242100Z 10002KT 1200 R25/1...\n",
      "[WARNING] [Line 1151] Invalid METAR format: Missing required METAR/SPECI identifier or station code\n",
      "          METAR: 202301242130 METAR VEPT 242130Z 10002KT 1400 R25/2000 BR FEW100 19/17 Q1013 NOSI...\n",
      "[WARNING] No station code found in METAR: 202301242130 METAR VEPT 242130Z 10002KT 1400 R25/2...\n",
      "[WARNING] [Line 1152] Invalid METAR format: Missing required METAR/SPECI identifier or station code\n",
      "          METAR: 202301242200 METAR VEPT 242200Z 10002KT 1400 R25/2000 BR FEW100 19/17 Q1013 NOSI...\n",
      "[WARNING] No station code found in METAR: 202301242200 METAR VEPT 242200Z 10002KT 1400 R25/2...\n",
      "[WARNING] [Line 1153] Invalid METAR format: Missing required METAR/SPECI identifier or station code\n",
      "          METAR: 202301242230 METAR VEPT 242230Z 10003KT 1400 R25/2000 BR FEW100 19/17 Q1013 NOSI...\n",
      "[WARNING] No station code found in METAR: 202301242230 METAR VEPT 242230Z 10003KT 1400 R25/2...\n",
      "[WARNING] [Line 1154] Invalid METAR format: Missing required METAR/SPECI identifier or station code\n",
      "          METAR: 202301242302 METAR VEPT 242302Z 10003KT 1400 R25/2000 BR FEW100 18/17 Q1013 NOSI...\n",
      "[WARNING] No station code found in METAR: 202301242302 METAR VEPT 242302Z 10003KT 1400 R25/2...\n",
      "[WARNING] [Line 1155] Invalid METAR format: Missing required METAR/SPECI identifier or station code\n",
      "          METAR: 202301242330 METAR VEPT 242330Z 12003KT 1200 R25/2000 BR FEW100 19/17 Q1014 NOSI...\n",
      "[WARNING] No station code found in METAR: 202301242330 METAR VEPT 242330Z 12003KT 1200 R25/2...\n",
      "[WARNING] [Line 1156] Invalid METAR format: Missing required METAR/SPECI identifier or station code\n",
      "          METAR: 202301250000 METAR VEPT 250000Z 00000KT 1200 R25/2000 BR FEW100 19/17 Q1014 NOSI...\n",
      "[WARNING] No station code found in METAR: 202301250000 METAR VEPT 250000Z 00000KT 1200 R25/2...\n",
      "[WARNING] [Line 1157] Invalid METAR format: Missing required METAR/SPECI identifier or station code\n",
      "          METAR: 202301250030 METAR VEPT 250030Z 00000KT 1200 R25/2000 BR FEW100 19/17 Q1014 NOSI...\n",
      "[WARNING] No station code found in METAR: 202301250030 METAR VEPT 250030Z 00000KT 1200 R25/2...\n",
      "[WARNING] [Line 1158] Invalid METAR format: Missing required METAR/SPECI identifier or station code\n",
      "          METAR: 202301250100 METAR VEPT 250100Z 12002KT 0900 R25/1800 FG FEW018 SCT100 18/17 Q10...\n",
      "[WARNING] No station code found in METAR: 202301250100 METAR VEPT 250100Z 12002KT 0900 R25/1...\n",
      "[WARNING] [Line 1159] Invalid METAR format: Missing required METAR/SPECI identifier or station code\n",
      "          METAR: 202301250130 METAR VEPT 250130Z 08002KT 0600 R25/1300 FG SCT100 18/17 Q1015 NOSI...\n",
      "[WARNING] No station code found in METAR: 202301250130 METAR VEPT 250130Z 08002KT 0600 R25/1...\n",
      "[WARNING] [Line 1160] Invalid METAR format: Missing required METAR/SPECI identifier or station code\n",
      "          METAR: 202301250200 METAR VEPT 250200Z 06002KT 0700 R25/0950 FG SCT100 18/17 Q1015 NOSI...\n",
      "[WARNING] No station code found in METAR: 202301250200 METAR VEPT 250200Z 06002KT 0700 R25/0...\n",
      "[WARNING] [Line 1161] Invalid METAR format: Missing required METAR/SPECI identifier or station code\n",
      "          METAR: 202301250230 METAR VEPT 250230Z 05003KT 0700 R25/1000 FG SCT100 19/17 Q1015 BECM...\n",
      "[WARNING] No station code found in METAR: 202301250230 METAR VEPT 250230Z 05003KT 0700 R25/1...\n",
      "[WARNING] [Line 1162] Invalid METAR format: Missing required METAR/SPECI identifier or station code\n",
      "          METAR: 202301250300 METAR VEPT 250300Z 10003KT 0700 R25/1050 FG SCT100 20/18 Q1016 BECM...\n",
      "[WARNING] No station code found in METAR: 202301250300 METAR VEPT 250300Z 10003KT 0700 R25/1...\n",
      "[WARNING] [Line 1163] Invalid METAR format: Missing required METAR/SPECI identifier or station code\n",
      "          METAR: 202301250330 METAR VEPT 250330Z 12004KT 0900 R25/1200 MIFG SCT100 21/19 Q1016 NO...\n",
      "[WARNING] No station code found in METAR: 202301250330 METAR VEPT 250330Z 12004KT 0900 R25/1...\n",
      "[WARNING] [Line 1164] Invalid METAR format: Missing required METAR/SPECI identifier or station code\n",
      "          METAR: 202301250400 METAR VEPT 250400Z 10004KT 1000 R25/1200 MIFG SCT100 23/19 Q1016 NO...\n",
      "[WARNING] No station code found in METAR: 202301250400 METAR VEPT 250400Z 10004KT 1000 R25/1...\n",
      "[WARNING] [Line 1165] Invalid METAR format: Missing required METAR/SPECI identifier or station code\n",
      "          METAR: 202301250430 METAR VEPT 250430Z 06004KT 1000 R25/1150 MIFG SCT100 24/19 Q1016 NO...\n",
      "[WARNING] No station code found in METAR: 202301250430 METAR VEPT 250430Z 06004KT 1000 R25/1...\n",
      "[WARNING] [Line 1166] Invalid METAR format: Missing required METAR/SPECI identifier or station code\n",
      "          METAR: 202301250500 METAR VEPT 250500Z 04004KT 1100 R25/1200 MIFG FEW100 24/19 Q1016 NO...\n",
      "[WARNING] No station code found in METAR: 202301250500 METAR VEPT 250500Z 04004KT 1100 R25/1...\n",
      "[WARNING] [Line 1167] Invalid METAR format: Missing required METAR/SPECI identifier or station code\n",
      "          METAR: 202301250530 METAR VEPT 250530Z 12004KT 1100 R25/1300 FU FEW100 26/20 Q1015 NOSI...\n",
      "[WARNING] No station code found in METAR: 202301250530 METAR VEPT 250530Z 12004KT 1100 R25/1...\n",
      "[WARNING] [Line 1168] Invalid METAR format: Missing required METAR/SPECI identifier or station code\n",
      "          METAR: 202301250600 METAR VEPT 250600Z 12004KT 1300 R25/1300 FU FEW100 26/20 Q1015 NOSI...\n",
      "[WARNING] No station code found in METAR: 202301250600 METAR VEPT 250600Z 12004KT 1300 R25/1...\n",
      "[WARNING] [Line 1169] Invalid METAR format: Missing required METAR/SPECI identifier or station code\n",
      "          METAR: 202301250630 METAR VEPT 250630Z 12004KT 1400 R25/1400 FU NSC 27/19 Q1014 BECMG 1...\n",
      "[WARNING] No station code found in METAR: 202301250630 METAR VEPT 250630Z 12004KT 1400 R25/1...\n",
      "[WARNING] [Line 1170] Invalid METAR format: Missing required METAR/SPECI identifier or station code\n",
      "          METAR: 202301250700 METAR VEPT 250700Z 06004KT 1600 FU NSC 27/19 Q1014 NOSIG=...\n",
      "[WARNING] No station code found in METAR: 202301250700 METAR VEPT 250700Z 06004KT 1600 FU NS...\n",
      "[WARNING] [Line 1171] Invalid METAR format: Missing required METAR/SPECI identifier or station code\n",
      "          METAR: 202301250730 METAR VEPT 250730Z 05003KT 1800 FU NSC 28/19 Q1013 NOSIG=...\n",
      "[WARNING] No station code found in METAR: 202301250730 METAR VEPT 250730Z 05003KT 1800 FU NS...\n",
      "[WARNING] [Line 1172] Invalid METAR format: Missing required METAR/SPECI identifier or station code\n",
      "          METAR: 202301250800 METAR VEPT 250800Z 02003KT 1800 FU FEW100 28/19 Q1013 NOSIG=...\n",
      "[WARNING] No station code found in METAR: 202301250800 METAR VEPT 250800Z 02003KT 1800 FU FE...\n",
      "[WARNING] [Line 1173] Invalid METAR format: Missing required METAR/SPECI identifier or station code\n",
      "          METAR: 202301250830 METAR VEPT 250830Z 05004KT 1800 FU FEW100 28/19 Q1012 NOSIG=...\n",
      "[WARNING] No station code found in METAR: 202301250830 METAR VEPT 250830Z 05004KT 1800 FU FE...\n",
      "[WARNING] [Line 1174] Invalid METAR format: Missing required METAR/SPECI identifier or station code\n",
      "          METAR: 202301250900 METAR VEPT 250900Z 34004KT 2000 HZ NSC 28/19 Q1012 NOSIG=...\n",
      "[WARNING] No station code found in METAR: 202301250900 METAR VEPT 250900Z 34004KT 2000 HZ NS...\n",
      "[WARNING] [Line 1175] Invalid METAR format: Missing required METAR/SPECI identifier or station code\n",
      "          METAR: 202301250930 METAR VEPT 250930Z 34004KT 2000 HZ NSC 29/19 Q1011 NOSIG=...\n",
      "[WARNING] No station code found in METAR: 202301250930 METAR VEPT 250930Z 34004KT 2000 HZ NS...\n",
      "[WARNING] [Line 1176] Invalid METAR format: Missing required METAR/SPECI identifier or station code\n",
      "          METAR: 202301251000 METAR VEPT 251000Z 34004KT 2000 HZ FEW100 28/19 Q1011 NOSIG=...\n",
      "[WARNING] No station code found in METAR: 202301251000 METAR VEPT 251000Z 34004KT 2000 HZ FE...\n",
      "[WARNING] [Line 1177] Invalid METAR format: Missing required METAR/SPECI identifier or station code\n",
      "          METAR: 202301251030 METAR VEPT 251030Z 34004KT 2000 HZ FEW100 28/19 Q1011 NOSIG=...\n",
      "[WARNING] No station code found in METAR: 202301251030 METAR VEPT 251030Z 34004KT 2000 HZ FE...\n",
      "[WARNING] [Line 1178] Invalid METAR format: Missing required METAR/SPECI identifier or station code\n",
      "          METAR: 202301251100 METAR VEPT 251100Z 34004KT 2500 HZ NSC 27/18 Q1011 NOSIG=...\n",
      "[WARNING] No station code found in METAR: 202301251100 METAR VEPT 251100Z 34004KT 2500 HZ NS...\n",
      "[WARNING] [Line 1179] Invalid METAR format: Missing required METAR/SPECI identifier or station code\n",
      "          METAR: 202301251130 METAR VEPT 251130Z 34004KT 2500 HZ FEW100 26/18 Q1012 NOSIG=...\n",
      "[WARNING] No station code found in METAR: 202301251130 METAR VEPT 251130Z 34004KT 2500 HZ FE...\n",
      "[WARNING] [Line 1180] Invalid METAR format: Missing required METAR/SPECI identifier or station code\n",
      "          METAR: 202301251200 METAR VEPT 251200Z 34003KT 2500 HZ FEW100 25/19 Q1012 NOSIG=...\n",
      "[WARNING] No station code found in METAR: 202301251200 METAR VEPT 251200Z 34003KT 2500 HZ FE...\n",
      "[WARNING] [Line 1181] Invalid METAR format: Missing required METAR/SPECI identifier or station code\n",
      "          METAR: 202301251230 METAR VEPT 251230Z 34003KT 2500 HZ FEW100 25/20 Q1012 NOSIG=...\n",
      "[WARNING] No station code found in METAR: 202301251230 METAR VEPT 251230Z 34003KT 2500 HZ FE...\n",
      "[WARNING] [Line 1182] Invalid METAR format: Missing required METAR/SPECI identifier or station code\n",
      "          METAR: 202301251300 METAR VEPT 251300Z 34003KT 2500 HZ FEW100 24/19 Q1012 NOSIG=...\n",
      "[WARNING] No station code found in METAR: 202301251300 METAR VEPT 251300Z 34003KT 2500 HZ FE...\n",
      "[WARNING] [Line 1183] Invalid METAR format: Missing required METAR/SPECI identifier or station code\n",
      "          METAR: 202301251330 METAR VEPT 251330Z 34003KT 2500 HZ NSC 24/19 Q1013 NOSIG=...\n",
      "[WARNING] No station code found in METAR: 202301251330 METAR VEPT 251330Z 34003KT 2500 HZ NS...\n",
      "[WARNING] [Line 1184] Invalid METAR format: Missing required METAR/SPECI identifier or station code\n",
      "          METAR: 202301251400 METAR VEPT 251400Z 03003KT 2500 HZ FEW100 24/18 Q1013 NOSIG=...\n",
      "[WARNING] No station code found in METAR: 202301251400 METAR VEPT 251400Z 03003KT 2500 HZ FE...\n",
      "[WARNING] [Line 1185] Invalid METAR format: Missing required METAR/SPECI identifier or station code\n",
      "          METAR: 202301251430 METAR VEPT 251430Z 02003KT 2500 HZ FEW100 23/18 Q1013 NOSIG=...\n",
      "[WARNING] No station code found in METAR: 202301251430 METAR VEPT 251430Z 02003KT 2500 HZ FE...\n",
      "[WARNING] [Line 1186] Invalid METAR format: Missing required METAR/SPECI identifier or station code\n",
      "          METAR: 202301251500 METAR VEPT 251500Z 00000KT 2500 BR NSC 22/18 Q1014 NOSIG=...\n",
      "[WARNING] No station code found in METAR: 202301251500 METAR VEPT 251500Z 00000KT 2500 BR NS...\n",
      "[WARNING] [Line 1187] Invalid METAR format: Missing required METAR/SPECI identifier or station code\n",
      "          METAR: 202301251530 METAR VEPT 251530Z 00000KT 2500 BR FEW100 21/17 Q1014 NOSIG=...\n",
      "[WARNING] No station code found in METAR: 202301251530 METAR VEPT 251530Z 00000KT 2500 BR FE...\n",
      "[WARNING] [Line 1188] Invalid METAR format: Missing required METAR/SPECI identifier or station code\n",
      "          METAR: 202301251600 METAR VEPT 251600Z 00000KT 2000 BR FEW100 21/18 Q1014 NOSIG=...\n",
      "[WARNING] No station code found in METAR: 202301251600 METAR VEPT 251600Z 00000KT 2000 BR FE...\n",
      "[WARNING] [Line 1189] Invalid METAR format: Missing required METAR/SPECI identifier or station code\n",
      "          METAR: 202301251630 METAR VEPT 251630Z 00000KT 2000 BR FEW100 20/18 Q1014 NOSIG=...\n",
      "[WARNING] No station code found in METAR: 202301251630 METAR VEPT 251630Z 00000KT 2000 BR FE...\n",
      "[WARNING] [Line 1190] Invalid METAR format: Missing required METAR/SPECI identifier or station code\n",
      "          METAR: 202301251700 METAR VEPT 251700Z 00000KT 2000 BR FEW100 20/18 Q1014 NOSIG=...\n",
      "[WARNING] No station code found in METAR: 202301251700 METAR VEPT 251700Z 00000KT 2000 BR FE...\n",
      "[WARNING] [Line 1191] Invalid METAR format: Missing required METAR/SPECI identifier or station code\n",
      "          METAR: 202301251730 METAR VEPT 251730Z 00000KT 2000 BR FEW100 20/18 Q1014 NOSIG=...\n",
      "[WARNING] No station code found in METAR: 202301251730 METAR VEPT 251730Z 00000KT 2000 BR FE...\n",
      "[WARNING] [Line 1192] Invalid METAR format: Missing required METAR/SPECI identifier or station code\n",
      "          METAR: 202301251800 METAR VEPT 251800Z 00000KT 1800 BR FEW100 20/18 Q1014 NOSIG=...\n",
      "[WARNING] No station code found in METAR: 202301251800 METAR VEPT 251800Z 00000KT 1800 BR FE...\n",
      "[WARNING] [Line 1193] Invalid METAR format: Missing required METAR/SPECI identifier or station code\n",
      "          METAR: 202301251830 METAR VEPT 251830Z 00000KT 1800 BR FEW100 20/18 Q1013 NOSIG=...\n",
      "[WARNING] No station code found in METAR: 202301251830 METAR VEPT 251830Z 00000KT 1800 BR FE...\n",
      "[WARNING] [Line 1194] Invalid METAR format: Missing required METAR/SPECI identifier or station code\n",
      "          METAR: 202301251900 METAR VEPT 251900Z 22002KT 1800 BR FEW100 19/18 Q1013 NOSIG=...\n",
      "[WARNING] No station code found in METAR: 202301251900 METAR VEPT 251900Z 22002KT 1800 BR FE...\n",
      "[WARNING] [Line 1195] Invalid METAR format: Missing required METAR/SPECI identifier or station code\n",
      "          METAR: 202301251930 METAR VEPT 251930Z 28002KT 1800 BR FEW100 20/19 Q1013 NOSIG=...\n",
      "[WARNING] No station code found in METAR: 202301251930 METAR VEPT 251930Z 28002KT 1800 BR FE...\n",
      "[WARNING] [Line 1196] Invalid METAR format: Missing required METAR/SPECI identifier or station code\n",
      "          METAR: 202301252000 METAR VEPT 252000Z 00000KT 1800 BR SCT100 20/18 Q1013 NOSIG=...\n",
      "[WARNING] No station code found in METAR: 202301252000 METAR VEPT 252000Z 00000KT 1800 BR SC...\n",
      "[WARNING] [Line 1197] Invalid METAR format: Missing required METAR/SPECI identifier or station code\n",
      "          METAR: 202301252030 METAR VEPT 252030Z 00000KT 1800 BR SCT100 20/18 Q1013 NOSIG=...\n",
      "[WARNING] No station code found in METAR: 202301252030 METAR VEPT 252030Z 00000KT 1800 BR SC...\n",
      "[WARNING] [Line 1198] Invalid METAR format: Missing required METAR/SPECI identifier or station code\n",
      "          METAR: 202301252100 METAR VEPT 252100Z 00000KT 1800 BR SCT100 20/19 Q1013 NOSIG=...\n",
      "[WARNING] No station code found in METAR: 202301252100 METAR VEPT 252100Z 00000KT 1800 BR SC...\n",
      "[WARNING] [Line 1199] Invalid METAR format: Missing required METAR/SPECI identifier or station code\n",
      "          METAR: 202301252130 METAR VEPT 252130Z 00000KT 1800 BR SCT100 21/19 Q1013 NOSIG=...\n",
      "[WARNING] No station code found in METAR: 202301252130 METAR VEPT 252130Z 00000KT 1800 BR SC...\n",
      "[PROGRESS] Processed 1200/1489 METARs...\n",
      "[WARNING] [Line 1200] Invalid METAR format: Missing required METAR/SPECI identifier or station code\n",
      "          METAR: 202301252200 METAR VEPT 252200Z 00000KT 1600 BR SCT100 20/19 Q1013 NOSIG=...\n",
      "[WARNING] No station code found in METAR: 202301252200 METAR VEPT 252200Z 00000KT 1600 BR SC...\n",
      "[WARNING] [Line 1201] Invalid METAR format: Missing required METAR/SPECI identifier or station code\n",
      "          METAR: 202301252230 METAR VEPT 252230Z 00000KT 1600 BR SCT100 21/19 Q1013 BECMG 1500 BR...\n",
      "[WARNING] No station code found in METAR: 202301252230 METAR VEPT 252230Z 00000KT 1600 BR SC...\n",
      "[WARNING] [Line 1202] Invalid METAR format: Missing required METAR/SPECI identifier or station code\n",
      "          METAR: 202301252300 METAR VEPT 252300Z 00000KT 1600 BR FEW018 SCT100 21/19 Q1013 BECMG ...\n",
      "[WARNING] No station code found in METAR: 202301252300 METAR VEPT 252300Z 00000KT 1600 BR FE...\n",
      "[WARNING] [Line 1203] Invalid METAR format: Missing required METAR/SPECI identifier or station code\n",
      "          METAR: 202301252330 METAR VEPT 252330Z 00000KT 1500 R25/2000 BR FEW018 SCT100 20/19 Q10...\n",
      "[WARNING] No station code found in METAR: 202301252330 METAR VEPT 252330Z 00000KT 1500 R25/2...\n",
      "[WARNING] [Line 1204] Invalid METAR format: Missing required METAR/SPECI identifier or station code\n",
      "          METAR: 202301260000 METAR VEPT 260000Z 00000KT 1200 R25/2000 BR FEW018 SCT100 20/19 Q10...\n",
      "[WARNING] No station code found in METAR: 202301260000 METAR VEPT 260000Z 00000KT 1200 R25/2...\n",
      "[WARNING] [Line 1205] Invalid METAR format: Missing required METAR/SPECI identifier or station code\n",
      "          METAR: 202301260030 METAR VEPT 260030Z 00000KT 1200 R25/2000 BR SCT018 BKN100 20/19 Q10...\n",
      "[WARNING] No station code found in METAR: 202301260030 METAR VEPT 260030Z 00000KT 1200 R25/2...\n",
      "[WARNING] [Line 1206] Invalid METAR format: Missing required METAR/SPECI identifier or station code\n",
      "          METAR: 202301260100 METAR VEPT 260100Z 00000KT 0800 R25/2000 FG SCT018 BKN100 20/19 Q10...\n",
      "[WARNING] No station code found in METAR: 202301260100 METAR VEPT 260100Z 00000KT 0800 R25/2...\n",
      "[WARNING] [Line 1207] Invalid METAR format: Missing required METAR/SPECI identifier or station code\n",
      "          METAR: 202301260130 METAR VEPT 260130Z 00000KT 0700 R25/1200 FG SCT018 BKN100 20/19 Q10...\n",
      "[WARNING] No station code found in METAR: 202301260130 METAR VEPT 260130Z 00000KT 0700 R25/1...\n",
      "[WARNING] [Line 1208] Invalid METAR format: Missing required METAR/SPECI identifier or station code\n",
      "          METAR: 202301260200 METAR VEPT 260200Z 21003KT 0700 R25/1150 DZ SCT018 BKN100 21/20 Q10...\n",
      "[WARNING] No station code found in METAR: 202301260200 METAR VEPT 260200Z 21003KT 0700 R25/1...\n",
      "[WARNING] [Line 1209] Invalid METAR format: Missing required METAR/SPECI identifier or station code\n",
      "          METAR: 202301260230 METAR VEPT 260230Z 30003KT 0800 R25/1200 FG SCT018 BKN100 21/20 Q10...\n",
      "[WARNING] No station code found in METAR: 202301260230 METAR VEPT 260230Z 30003KT 0800 R25/1...\n",
      "[WARNING] [Line 1210] Invalid METAR format: Missing required METAR/SPECI identifier or station code\n",
      "          METAR: 202301260300 METAR VEPT 260300Z 33005KT 0800 R25/1200 FG SCT018 BKN100 22/19 Q10...\n",
      "[WARNING] No station code found in METAR: 202301260300 METAR VEPT 260300Z 33005KT 0800 R25/1...\n",
      "[WARNING] [Line 1211] Invalid METAR format: Missing required METAR/SPECI identifier or station code\n",
      "          METAR: 202301260330 METAR VEPT 260330Z 29005KT 1000 R25/1200 MIFG FEW018 SCT100 23/18 Q...\n",
      "[WARNING] No station code found in METAR: 202301260330 METAR VEPT 260330Z 29005KT 1000 R25/1...\n",
      "[WARNING] [Line 1212] Invalid METAR format: Missing required METAR/SPECI identifier or station code\n",
      "          METAR: 202301260400 METAR VEPT 260400Z 32003KT 1200 R25/1300 MIFG FEW018 SCT100 24/19 Q...\n",
      "[WARNING] No station code found in METAR: 202301260400 METAR VEPT 260400Z 32003KT 1200 R25/1...\n",
      "[WARNING] [Line 1213] Invalid METAR format: Missing required METAR/SPECI identifier or station code\n",
      "          METAR: 202301260430 METAR VEPT 260430Z 32003KT 1500 R25/1500 FU SCT018 BKN100 24/19 Q10...\n",
      "[WARNING] No station code found in METAR: 202301260430 METAR VEPT 260430Z 32003KT 1500 R25/1...\n",
      "[WARNING] [Line 1214] Invalid METAR format: Missing required METAR/SPECI identifier or station code\n",
      "          METAR: 202301260500 METAR VEPT 260500Z 28005KT 1600 FU SCT018 BKN100 25/19 Q1017 NOSIG=...\n",
      "[WARNING] No station code found in METAR: 202301260500 METAR VEPT 260500Z 28005KT 1600 FU SC...\n",
      "[WARNING] [Line 1215] Invalid METAR format: Missing required METAR/SPECI identifier or station code\n",
      "          METAR: 202301260530 METAR VEPT 260530Z 28005KT 1600 FU SCT018 BKN100 25/18 Q1016 NOSIG=...\n",
      "[WARNING] No station code found in METAR: 202301260530 METAR VEPT 260530Z 28005KT 1600 FU SC...\n",
      "[WARNING] [Line 1216] Invalid METAR format: Missing required METAR/SPECI identifier or station code\n",
      "          METAR: 202301260600 METAR VEPT 260600Z 32008KT 2000 HZ FEW018 SCT100 25/19 Q1016 NOSIG=...\n",
      "[WARNING] No station code found in METAR: 202301260600 METAR VEPT 260600Z 32008KT 2000 HZ FE...\n",
      "[WARNING] [Line 1217] Invalid METAR format: Missing required METAR/SPECI identifier or station code\n",
      "          METAR: 202301260630 METAR VEPT 260630Z 32008KT 2500 HZ FEW018 SCT100 26/18 Q1015 BECMG ...\n",
      "[WARNING] No station code found in METAR: 202301260630 METAR VEPT 260630Z 32008KT 2500 HZ FE...\n",
      "[WARNING] [Line 1218] Invalid METAR format: Missing required METAR/SPECI identifier or station code\n",
      "          METAR: 202301260700 METAR VEPT 260700Z 32008KT 3000 HZ FEW018 SCT100 26/19 Q1015 NOSIG=...\n",
      "[WARNING] No station code found in METAR: 202301260700 METAR VEPT 260700Z 32008KT 3000 HZ FE...\n",
      "[WARNING] [Line 1219] Invalid METAR format: Missing required METAR/SPECI identifier or station code\n",
      "          METAR: 202301260730 METAR VEPT 260730Z 32010KT 3000 HZ FEW018 SCT100 26/18 Q1014 NOSIG=...\n",
      "[WARNING] No station code found in METAR: 202301260730 METAR VEPT 260730Z 32010KT 3000 HZ FE...\n",
      "[WARNING] [Line 1220] Invalid METAR format: Missing required METAR/SPECI identifier or station code\n",
      "          METAR: 202301260800 METAR VEPT 260800Z 31007KT 3000 HZ FEW018 SCT100 26/18 Q1014 NOSIG=...\n",
      "[WARNING] No station code found in METAR: 202301260800 METAR VEPT 260800Z 31007KT 3000 HZ FE...\n",
      "[WARNING] [Line 1221] Invalid METAR format: Missing required METAR/SPECI identifier or station code\n",
      "          METAR: 202301260830 METAR VEPT 260830Z 32006KT 3000 HZ FEW018 SCT100 24/18 Q1013 NOSIG=...\n",
      "[WARNING] No station code found in METAR: 202301260830 METAR VEPT 260830Z 32006KT 3000 HZ FE...\n",
      "[WARNING] [Line 1222] Invalid METAR format: Missing required METAR/SPECI identifier or station code\n",
      "          METAR: 202301260900 METAR VEPT 260900Z 31005KT 3000 HZ FEW018 SCT100 25/18 Q1013 NOSIG=...\n",
      "[WARNING] No station code found in METAR: 202301260900 METAR VEPT 260900Z 31005KT 3000 HZ FE...\n",
      "[WARNING] [Line 1223] Invalid METAR format: Missing required METAR/SPECI identifier or station code\n",
      "          METAR: 202301260930 METAR VEPT 260930Z 33006KT 3000 HZ FEW018 SCT100 25/18 Q1013 NOSIG=...\n",
      "[WARNING] No station code found in METAR: 202301260930 METAR VEPT 260930Z 33006KT 3000 HZ FE...\n",
      "[WARNING] [Line 1224] Invalid METAR format: Missing required METAR/SPECI identifier or station code\n",
      "          METAR: 202301261130 METAR VEPT 261130Z 28006KT 3000 HZ FEW018 SCT100 24/19 Q1012 NOSIG=...\n",
      "[WARNING] No station code found in METAR: 202301261130 METAR VEPT 261130Z 28006KT 3000 HZ FE...\n",
      "[WARNING] [Line 1225] Invalid METAR format: Missing required METAR/SPECI identifier or station code\n",
      "          METAR: 202301261200 METAR VEPT 261200Z 27006KT 3000 HZ FEW018 SCT100 24/19 Q1012 NOSIG=...\n",
      "[WARNING] No station code found in METAR: 202301261200 METAR VEPT 261200Z 27006KT 3000 HZ FE...\n",
      "[WARNING] [Line 1226] Invalid METAR format: Missing required METAR/SPECI identifier or station code\n",
      "          METAR: 202301261230 METAR VEPT 261230Z 26004KT 3000 HZ FEW018 SCT100 24/19 Q1012 NOSIG=...\n",
      "[WARNING] No station code found in METAR: 202301261230 METAR VEPT 261230Z 26004KT 3000 HZ FE...\n",
      "[WARNING] [Line 1227] Invalid METAR format: Missing required METAR/SPECI identifier or station code\n",
      "          METAR: 202301261300 METAR VEPT 261300Z 26005KT 2500 BR NSC 23/19 Q1013 NOSIG=...\n",
      "[WARNING] No station code found in METAR: 202301261300 METAR VEPT 261300Z 26005KT 2500 BR NS...\n",
      "[WARNING] [Line 1228] Invalid METAR format: Missing required METAR/SPECI identifier or station code\n",
      "          METAR: 202301261330 METAR VEPT 261330Z 26005KT 2500 BR FEW100 22/19 Q1013 NOSIG=...\n",
      "[WARNING] No station code found in METAR: 202301261330 METAR VEPT 261330Z 26005KT 2500 BR FE...\n",
      "[WARNING] [Line 1229] Invalid METAR format: Missing required METAR/SPECI identifier or station code\n",
      "          METAR: 202301261400 METAR VEPT 261400Z 26005KT 2500 BR FEW100 22/19 Q1013 NOSIG=...\n",
      "[WARNING] No station code found in METAR: 202301261400 METAR VEPT 261400Z 26005KT 2500 BR FE...\n",
      "[WARNING] [Line 1230] Invalid METAR format: Missing required METAR/SPECI identifier or station code\n",
      "          METAR: 202301261430 METAR VEPT 261430Z 26006KT 2500 BR FEW100 22/19 Q1014 NOSIG=...\n",
      "[WARNING] No station code found in METAR: 202301261430 METAR VEPT 261430Z 26006KT 2500 BR FE...\n",
      "[WARNING] [Line 1231] Invalid METAR format: Missing required METAR/SPECI identifier or station code\n",
      "          METAR: 202301261500 METAR VEPT 261500Z 27007KT 2500 BR FEW100 22/19 Q1014 NOSIG=...\n",
      "[WARNING] No station code found in METAR: 202301261500 METAR VEPT 261500Z 27007KT 2500 BR FE...\n",
      "[WARNING] [Line 1232] Invalid METAR format: Missing required METAR/SPECI identifier or station code\n",
      "          METAR: 202301261530 METAR VEPT 261530Z 27006KT 2500 BR FEW100 22/19 Q1014 NOSIG=...\n",
      "[WARNING] No station code found in METAR: 202301261530 METAR VEPT 261530Z 27006KT 2500 BR FE...\n",
      "[WARNING] [Line 1233] Invalid METAR format: Missing required METAR/SPECI identifier or station code\n",
      "          METAR: 202301261600 METAR VEPT 261600Z 25006KT 2000 BR FEW100 21/19 Q1014 NOSIG=...\n",
      "[WARNING] No station code found in METAR: 202301261600 METAR VEPT 261600Z 25006KT 2000 BR FE...\n",
      "[WARNING] [Line 1234] Invalid METAR format: Missing required METAR/SPECI identifier or station code\n",
      "          METAR: 202301261630 METAR VEPT 261630Z 24006KT 1800 BR FEW100 21/19 Q1014 NOSIG=...\n",
      "[WARNING] No station code found in METAR: 202301261630 METAR VEPT 261630Z 24006KT 1800 BR FE...\n",
      "[WARNING] [Line 1235] Invalid METAR format: Missing required METAR/SPECI identifier or station code\n",
      "          METAR: 202301261700 METAR VEPT 261700Z 24004KT 1600 BR FEW100 21/19 Q1014 NOSIG=...\n",
      "[WARNING] No station code found in METAR: 202301261700 METAR VEPT 261700Z 24004KT 1600 BR FE...\n",
      "[WARNING] [Line 1236] Invalid METAR format: Missing required METAR/SPECI identifier or station code\n",
      "          METAR: 202301261730 METAR VEPT 261730Z 28005KT 1600 BR FEW100 20/19 Q1014 NOSIG=...\n",
      "[WARNING] No station code found in METAR: 202301261730 METAR VEPT 261730Z 28005KT 1600 BR FE...\n",
      "[WARNING] [Line 1237] Invalid METAR format: Missing required METAR/SPECI identifier or station code\n",
      "          METAR: 202301261800 METAR VEPT 261800Z 27004KT 1600 BR FEW100 20/19 Q1014 BECMG 1500 BR...\n",
      "[WARNING] No station code found in METAR: 202301261800 METAR VEPT 261800Z 27004KT 1600 BR FE...\n",
      "[WARNING] [Line 1238] Invalid METAR format: Missing required METAR/SPECI identifier or station code\n",
      "          METAR: 202301261830 METAR VEPT 261830Z 26004KT 1500 R25/2000 BR FEW100 19/18 Q1014 NOSI...\n",
      "[WARNING] No station code found in METAR: 202301261830 METAR VEPT 261830Z 26004KT 1500 R25/2...\n",
      "[WARNING] [Line 1239] Invalid METAR format: Missing required METAR/SPECI identifier or station code\n",
      "          METAR: 202301261900 METAR VEPT 261900Z 27004KT 1400 R25/2000 BR FEW100 20/19 Q1014 NOSI...\n",
      "[WARNING] No station code found in METAR: 202301261900 METAR VEPT 261900Z 27004KT 1400 R25/2...\n",
      "[WARNING] [Line 1240] Invalid METAR format: Missing required METAR/SPECI identifier or station code\n",
      "          METAR: 202301261930 METAR VEPT 261930Z 27003KT 1300 R25/2000 BR FEW100 20/19 Q1014 NOSI...\n",
      "[WARNING] No station code found in METAR: 202301261930 METAR VEPT 261930Z 27003KT 1300 R25/2...\n",
      "[WARNING] [Line 1241] Invalid METAR format: Missing required METAR/SPECI identifier or station code\n",
      "          METAR: 202301262000 METAR VEPT 262000Z 26004KT 1300 R25/2000 BR FEW100 20/18 Q1014 NOSI...\n",
      "[WARNING] No station code found in METAR: 202301262000 METAR VEPT 262000Z 26004KT 1300 R25/2...\n",
      "[WARNING] [Line 1242] Invalid METAR format: Missing required METAR/SPECI identifier or station code\n",
      "          METAR: 202301262030 METAR VEPT 262030Z 27004KT 1300 R25/2000 BR FEW100 19/18 Q1014 NOSI...\n",
      "[WARNING] No station code found in METAR: 202301262030 METAR VEPT 262030Z 27004KT 1300 R25/2...\n",
      "[WARNING] [Line 1243] Invalid METAR format: Missing required METAR/SPECI identifier or station code\n",
      "          METAR: 202301262100 METAR VEPT 262100Z 27003KT 1200 R25/2000 MIFG FEW100 20/19 Q1013 NO...\n",
      "[WARNING] No station code found in METAR: 202301262100 METAR VEPT 262100Z 27003KT 1200 R25/2...\n",
      "[WARNING] [Line 1244] Invalid METAR format: Missing required METAR/SPECI identifier or station code\n",
      "          METAR: 202301262130 METAR VEPT 262130Z 27006KT 1200 R25/2000 MIFG FEW100 20/19 Q1013 NO...\n",
      "[WARNING] No station code found in METAR: 202301262130 METAR VEPT 262130Z 27006KT 1200 R25/2...\n",
      "[WARNING] [Line 1245] Invalid METAR format: Missing required METAR/SPECI identifier or station code\n",
      "          METAR: 202301262200 METAR VEPT 262200Z 27005KT 1200 R25/2000 MIFG FEW100 20/19 Q1013 NO...\n",
      "[WARNING] No station code found in METAR: 202301262200 METAR VEPT 262200Z 27005KT 1200 R25/2...\n",
      "[WARNING] [Line 1246] Invalid METAR format: Missing required METAR/SPECI identifier or station code\n",
      "          METAR: 202301262230 METAR VEPT 262230Z 28005KT 1200 R25/2000 MIFG FEW100 20/19 Q1013 NO...\n",
      "[WARNING] No station code found in METAR: 202301262230 METAR VEPT 262230Z 28005KT 1200 R25/2...\n",
      "[WARNING] [Line 1247] Invalid METAR format: Missing required METAR/SPECI identifier or station code\n",
      "          METAR: 202301262300 METAR VEPT 262300Z 27004KT 1200 R25/2000 MIFG FEW100 19/18 Q1013 NO...\n",
      "[WARNING] No station code found in METAR: 202301262300 METAR VEPT 262300Z 27004KT 1200 R25/2...\n",
      "[WARNING] [Line 1248] Invalid METAR format: Missing required METAR/SPECI identifier or station code\n",
      "          METAR: 202301262330 METAR VEPT 262330Z 27004KT 1200 R25/2000 MIFG FEW100 19/18 Q1014 NO...\n",
      "[WARNING] No station code found in METAR: 202301262330 METAR VEPT 262330Z 27004KT 1200 R25/2...\n",
      "[WARNING] [Line 1249] Invalid METAR format: Missing required METAR/SPECI identifier or station code\n",
      "          METAR: 202301270000 METAR VEPT 270000Z 25003KT 1000 R25/2000 MIFG FEW100 19/18 Q1014 NO...\n",
      "[WARNING] No station code found in METAR: 202301270000 METAR VEPT 270000Z 25003KT 1000 R25/2...\n",
      "[WARNING] [Line 1250] Invalid METAR format: Missing required METAR/SPECI identifier or station code\n",
      "          METAR: 202301270030 METAR VEPT 270030Z 25004KT 1000 R25/2000 MIFG FEW100 19/18 Q1014 NO...\n",
      "[WARNING] No station code found in METAR: 202301270030 METAR VEPT 270030Z 25004KT 1000 R25/2...\n",
      "[WARNING] [Line 1251] Invalid METAR format: Missing required METAR/SPECI identifier or station code\n",
      "          METAR: 202301270100 METAR VEPT 270100Z 23004KT 1000 R25/2000 MIFG FEW100 19/18 Q1015 NO...\n",
      "[WARNING] No station code found in METAR: 202301270100 METAR VEPT 270100Z 23004KT 1000 R25/2...\n",
      "[WARNING] [Line 1252] Invalid METAR format: Missing required METAR/SPECI identifier or station code\n",
      "          METAR: 202301270130 METAR VEPT 270130Z 23005KT 1200 R25/2000 MIFG SCT100 19/18 Q1015 NO...\n",
      "[WARNING] No station code found in METAR: 202301270130 METAR VEPT 270130Z 23005KT 1200 R25/2...\n",
      "[WARNING] [Line 1253] Invalid METAR format: Missing required METAR/SPECI identifier or station code\n",
      "          METAR: 202301270200 METAR VEPT 270200Z 26006KT 0900 R25/1500 FG SCT100 19/18 Q1016 NOSI...\n",
      "[WARNING] No station code found in METAR: 202301270200 METAR VEPT 270200Z 26006KT 0900 R25/1...\n",
      "[WARNING] [Line 1254] Invalid METAR format: Missing required METAR/SPECI identifier or station code\n",
      "          METAR: 202301270230 METAR VEPT 270230Z 26007KT 1000 R25/1400 FG SCT100 20/18 Q1016 NOSI...\n",
      "[WARNING] No station code found in METAR: 202301270230 METAR VEPT 270230Z 26007KT 1000 R25/1...\n",
      "[WARNING] [Line 1255] Invalid METAR format: Missing required METAR/SPECI identifier or station code\n",
      "          METAR: 202301270300 METAR VEPT 270300Z 26006KT 1000 R25/1400 FG FEW018 SCT100 20/19 Q10...\n",
      "[WARNING] No station code found in METAR: 202301270300 METAR VEPT 270300Z 26006KT 1000 R25/1...\n",
      "[WARNING] [Line 1256] Invalid METAR format: Missing required METAR/SPECI identifier or station code\n",
      "          METAR: 202301270330 METAR VEPT 270330Z 26008KT 1200 R25/1600 MIFG SCT100 21/19 Q1017 NO...\n",
      "[WARNING] No station code found in METAR: 202301270330 METAR VEPT 270330Z 26008KT 1200 R25/1...\n",
      "[WARNING] [Line 1257] Invalid METAR format: Missing required METAR/SPECI identifier or station code\n",
      "          METAR: 202301270400 METAR VEPT 270400Z 27009KT 1400 R25/1700 BR SCT100 22/19 Q1017 BECM...\n",
      "[WARNING] No station code found in METAR: 202301270400 METAR VEPT 270400Z 27009KT 1400 R25/1...\n",
      "[WARNING] [Line 1258] Invalid METAR format: Missing required METAR/SPECI identifier or station code\n",
      "          METAR: 202301270430 METAR VEPT 270430Z 28009KT 1600 BR SCT100 23/19 Q1017 NOSIG=...\n",
      "[WARNING] No station code found in METAR: 202301270430 METAR VEPT 270430Z 28009KT 1600 BR SC...\n",
      "[WARNING] [Line 1259] Invalid METAR format: Missing required METAR/SPECI identifier or station code\n",
      "          METAR: 202301270500 METAR VEPT 270500Z 29008KT 1800 BR SCT100 23/19 Q1017 NOSIG=...\n",
      "[WARNING] No station code found in METAR: 202301270500 METAR VEPT 270500Z 29008KT 1800 BR SC...\n",
      "[WARNING] [Line 1260] Invalid METAR format: Missing required METAR/SPECI identifier or station code\n",
      "          METAR: 202301270530 METAR VEPT 270530Z 28008KT 2000 BR FEW100 24/19 Q1016 NOSIG=...\n",
      "[WARNING] No station code found in METAR: 202301270530 METAR VEPT 270530Z 28008KT 2000 BR FE...\n",
      "[WARNING] [Line 1261] Invalid METAR format: Missing required METAR/SPECI identifier or station code\n",
      "          METAR: 202301270600 METAR VEPT 270600Z 29008KT 2200 HZ NSC 25/19 Q1015 NOSIG=...\n",
      "[WARNING] No station code found in METAR: 202301270600 METAR VEPT 270600Z 29008KT 2200 HZ NS...\n",
      "[WARNING] [Line 1262] Invalid METAR format: Missing required METAR/SPECI identifier or station code\n",
      "          METAR: 202301270630 METAR VEPT 270630Z 30008KT 2500 HZ NSC 25/19 Q1015 NOSIG=...\n",
      "[WARNING] No station code found in METAR: 202301270630 METAR VEPT 270630Z 30008KT 2500 HZ NS...\n",
      "[WARNING] [Line 1263] Invalid METAR format: Missing required METAR/SPECI identifier or station code\n",
      "          METAR: 202301270700 METAR VEPT 270700Z 28008KT 2800 HZ NSC 26/19 Q1014 BECMG 3000 HZ=...\n",
      "[WARNING] No station code found in METAR: 202301270700 METAR VEPT 270700Z 28008KT 2800 HZ NS...\n",
      "[WARNING] [Line 1264] Invalid METAR format: Missing required METAR/SPECI identifier or station code\n",
      "          METAR: 202301270730 METAR VEPT 270730Z 29010KT 3000 HZ SCT100 25/20 Q1013 NOSIG=...\n",
      "[WARNING] No station code found in METAR: 202301270730 METAR VEPT 270730Z 29010KT 3000 HZ SC...\n",
      "[WARNING] [Line 1265] Invalid METAR format: Missing required METAR/SPECI identifier or station code\n",
      "          METAR: 202301270800 METAR VEPT 270800Z 31010KT 3000 HZ FEW018 SCT100 26/20 Q1013 NOSIG=...\n",
      "[WARNING] No station code found in METAR: 202301270800 METAR VEPT 270800Z 31010KT 3000 HZ FE...\n",
      "[WARNING] [Line 1266] Invalid METAR format: Missing required METAR/SPECI identifier or station code\n",
      "          METAR: 202301270830 METAR VEPT 270830Z 26008KT 3000 HZ FEW018 SCT100 26/19 Q1012 NOSIG=...\n",
      "[WARNING] No station code found in METAR: 202301270830 METAR VEPT 270830Z 26008KT 3000 HZ FE...\n",
      "[WARNING] [Line 1267] Invalid METAR format: Missing required METAR/SPECI identifier or station code\n",
      "          METAR: 202301270900 METAR VEPT 270900Z 26008KT 3500 HZ FEW018 SCT100 26/19 Q1012 NOSIG=...\n",
      "[WARNING] No station code found in METAR: 202301270900 METAR VEPT 270900Z 26008KT 3500 HZ FE...\n",
      "[WARNING] [Line 1268] Invalid METAR format: Missing required METAR/SPECI identifier or station code\n",
      "          METAR: 202301270930 METAR VEPT 270930Z 26006KT 4000 HZ FEW018 SCT100 27/19 Q1012 NOSIG=...\n",
      "[WARNING] No station code found in METAR: 202301270930 METAR VEPT 270930Z 26006KT 4000 HZ FE...\n",
      "[WARNING] [Line 1269] Invalid METAR format: Missing required METAR/SPECI identifier or station code\n",
      "          METAR: 202301271000 METAR VEPT 271000Z 29008KT 4000 HZ FEW100 26/19 Q1012 NOSIG=...\n",
      "[WARNING] No station code found in METAR: 202301271000 METAR VEPT 271000Z 29008KT 4000 HZ FE...\n",
      "[WARNING] [Line 1270] Invalid METAR format: Missing required METAR/SPECI identifier or station code\n",
      "          METAR: 202301271030 METAR VEPT 271030Z 25007KT 4000 HZ FEW100 26/19 Q1012 NOSIG=...\n",
      "[WARNING] No station code found in METAR: 202301271030 METAR VEPT 271030Z 25007KT 4000 HZ FE...\n",
      "[WARNING] [Line 1271] Invalid METAR format: Missing required METAR/SPECI identifier or station code\n",
      "          METAR: 202301271100 METAR VEPT 271100Z 26008KT 3500 HZ NSC 25/20 Q1012 NOSIG=...\n",
      "[WARNING] No station code found in METAR: 202301271100 METAR VEPT 271100Z 26008KT 3500 HZ NS...\n",
      "[WARNING] [Line 1272] Invalid METAR format: Missing required METAR/SPECI identifier or station code\n",
      "          METAR: 202301271130 METAR VEPT 271130Z 25006KT 3500 BR NSC 24/20 Q1012 NOSIG=...\n",
      "[WARNING] No station code found in METAR: 202301271130 METAR VEPT 271130Z 25006KT 3500 BR NS...\n",
      "[WARNING] [Line 1273] Invalid METAR format: Missing required METAR/SPECI identifier or station code\n",
      "          METAR: 202301271200 METAR VEPT 271200Z 26004KT 3500 BR NSC 24/20 Q1012 BECMG 3000 BR=...\n",
      "[WARNING] No station code found in METAR: 202301271200 METAR VEPT 271200Z 26004KT 3500 BR NS...\n",
      "[WARNING] [Line 1274] Invalid METAR format: Missing required METAR/SPECI identifier or station code\n",
      "          METAR: 202301271230 METAR VEPT 271230Z 25004KT 3000 BR NASC 23/19 Q1013 NOSIG=...\n",
      "[WARNING] No station code found in METAR: 202301271230 METAR VEPT 271230Z 25004KT 3000 BR NA...\n",
      "[WARNING] [Line 1275] Invalid METAR format: Missing required METAR/SPECI identifier or station code\n",
      "          METAR: 202301271300 METAR VEPT 271300Z 23003KT 2500 BR NSC 23/19 Q1013 NOSIG=...\n",
      "[WARNING] No station code found in METAR: 202301271300 METAR VEPT 271300Z 23003KT 2500 BR NS...\n",
      "[WARNING] [Line 1276] Invalid METAR format: Missing required METAR/SPECI identifier or station code\n",
      "          METAR: 202301271330 METAR VEPT 271330Z 25004KT 2500 BR NSC 23/19 Q1013 NOSIG=...\n",
      "[WARNING] No station code found in METAR: 202301271330 METAR VEPT 271330Z 25004KT 2500 BR NS...\n",
      "[WARNING] [Line 1277] Invalid METAR format: Missing required METAR/SPECI identifier or station code\n",
      "          METAR: 202301271400 METAR VEPT 271400Z 25004KT 2500 BR NSC 22/19 Q1013 NOSIG=...\n",
      "[WARNING] No station code found in METAR: 202301271400 METAR VEPT 271400Z 25004KT 2500 BR NS...\n",
      "[WARNING] [Line 1278] Invalid METAR format: Missing required METAR/SPECI identifier or station code\n",
      "          METAR: 202301271430 METAR VEPT 271430Z 26005KT 2500 BR NSC 22/19 Q1014 NOSIG=...\n",
      "[WARNING] No station code found in METAR: 202301271430 METAR VEPT 271430Z 26005KT 2500 BR NS...\n",
      "[WARNING] [Line 1279] Invalid METAR format: Missing required METAR/SPECI identifier or station code\n",
      "          METAR: 202301271500 METAR VEPT 271500Z 26005KT 2500 BR NSC 22/19 Q1014 NOSIG=...\n",
      "[WARNING] No station code found in METAR: 202301271500 METAR VEPT 271500Z 26005KT 2500 BR NS...\n",
      "[WARNING] [Line 1280] Invalid METAR format: Missing required METAR/SPECI identifier or station code\n",
      "          METAR: 202301271530 METAR VEPT 271530Z 26005KT 2500 BR NSC 22/19 Q1014 NOSIG=...\n",
      "[WARNING] No station code found in METAR: 202301271530 METAR VEPT 271530Z 26005KT 2500 BR NS...\n",
      "[WARNING] [Line 1281] Invalid METAR format: Missing required METAR/SPECI identifier or station code\n",
      "          METAR: 202301271600 METAR VEPT 271600Z 27008KT 2500 BR NSC 21/19 Q1015 NOSIG=...\n",
      "[WARNING] No station code found in METAR: 202301271600 METAR VEPT 271600Z 27008KT 2500 BR NS...\n",
      "[WARNING] [Line 1282] Invalid METAR format: Missing required METAR/SPECI identifier or station code\n",
      "          METAR: 202301271630 METAR VEPT 271630Z 27008KT 2500 BR NSC 21/18 Q1015 NOSIG=...\n",
      "[WARNING] No station code found in METAR: 202301271630 METAR VEPT 271630Z 27008KT 2500 BR NS...\n",
      "[WARNING] [Line 1283] Invalid METAR format: Missing required METAR/SPECI identifier or station code\n",
      "          METAR: 202301271700 METAR VEPT 271700Z 27008KT 2000 BR NSC 21/18 Q1014 NOSIG=...\n",
      "[WARNING] No station code found in METAR: 202301271700 METAR VEPT 271700Z 27008KT 2000 BR NS...\n",
      "[WARNING] [Line 1284] Invalid METAR format: Missing required METAR/SPECI identifier or station code\n",
      "          METAR: 202301271730 METAR VEPT 271730Z 27006KT 2000 BR NSC 20/18 Q1014 NOSIG=...\n",
      "[WARNING] No station code found in METAR: 202301271730 METAR VEPT 271730Z 27006KT 2000 BR NS...\n",
      "[WARNING] [Line 1285] Invalid METAR format: Missing required METAR/SPECI identifier or station code\n",
      "          METAR: 202301271800 METAR VEPT 271800Z 27006KT 2000 BR NSC 20/18 Q1014 NOSIG=...\n",
      "[WARNING] No station code found in METAR: 202301271800 METAR VEPT 271800Z 27006KT 2000 BR NS...\n",
      "[WARNING] [Line 1286] Invalid METAR format: Missing required METAR/SPECI identifier or station code\n",
      "          METAR: 202301271830 METAR VEPT 271830Z 25005KT 2000 BR NSC 19/17 Q1014 NOSIG=...\n",
      "[WARNING] No station code found in METAR: 202301271830 METAR VEPT 271830Z 25005KT 2000 BR NS...\n",
      "[WARNING] [Line 1287] Invalid METAR format: Missing required METAR/SPECI identifier or station code\n",
      "          METAR: 202301271900 METAR VEPT 271900Z 25005KT 1800 BR NSC 19/17 Q1014 NOSIG=...\n",
      "[WARNING] No station code found in METAR: 202301271900 METAR VEPT 271900Z 25005KT 1800 BR NS...\n",
      "[WARNING] [Line 1288] Invalid METAR format: Missing required METAR/SPECI identifier or station code\n",
      "          METAR: 202301271930 METAR VEPT 271930Z 25005KT 1800 BR NSC 19/16 Q1014 NOSIG=...\n",
      "[WARNING] No station code found in METAR: 202301271930 METAR VEPT 271930Z 25005KT 1800 BR NS...\n",
      "[WARNING] [Line 1289] Invalid METAR format: Missing required METAR/SPECI identifier or station code\n",
      "          METAR: 202301272000 METAR VEPT 272000Z 29006KT 1800 BR NSC 18/16 Q1014 NOSIG=...\n",
      "[WARNING] No station code found in METAR: 202301272000 METAR VEPT 272000Z 29006KT 1800 BR NS...\n",
      "[WARNING] [Line 1290] Invalid METAR format: Missing required METAR/SPECI identifier or station code\n",
      "          METAR: 202301272030 METAR VEPT 272030Z 29006KT 1800 BR NSC 18/16 Q1013 NOSIG=...\n",
      "[WARNING] No station code found in METAR: 202301272030 METAR VEPT 272030Z 29006KT 1800 BR NS...\n",
      "[WARNING] [Line 1291] Invalid METAR format: Missing required METAR/SPECI identifier or station code\n",
      "          METAR: 202301272100 METAR VEPT 272100Z 29006KT 1800 BR NSC 18/16 Q1013 NOSIG=...\n",
      "[WARNING] No station code found in METAR: 202301272100 METAR VEPT 272100Z 29006KT 1800 BR NS...\n",
      "[WARNING] [Line 1292] Invalid METAR format: Missing required METAR/SPECI identifier or station code\n",
      "          METAR: 202301272130 METAR VEPT 272130Z 27005KT 1600 BR NSC 17/16 Q1013 NOSIG=...\n",
      "[WARNING] No station code found in METAR: 202301272130 METAR VEPT 272130Z 27005KT 1600 BR NS...\n",
      "[WARNING] [Line 1293] Invalid METAR format: Missing required METAR/SPECI identifier or station code\n",
      "          METAR: 202301272200 METAR VEPT 272200Z 27005KT 1600 BR NSC 18/16 Q1014 NOSIG=...\n",
      "[WARNING] No station code found in METAR: 202301272200 METAR VEPT 272200Z 27005KT 1600 BR NS...\n",
      "[WARNING] [Line 1294] Invalid METAR format: Missing required METAR/SPECI identifier or station code\n",
      "          METAR: 202301272230 METAR VEPT 272230Z 27005KT 1600 BR NSC 17/15 Q1014 NOSIG=...\n",
      "[WARNING] No station code found in METAR: 202301272230 METAR VEPT 272230Z 27005KT 1600 BR NS...\n",
      "[WARNING] [Line 1295] Invalid METAR format: Missing required METAR/SPECI identifier or station code\n",
      "          METAR: 202301272300 METAR VEPT 272300Z 27005KT 1600 BR NSC 17/15 Q1014 BECMG 1500 BR=...\n",
      "[WARNING] No station code found in METAR: 202301272300 METAR VEPT 272300Z 27005KT 1600 BR NS...\n",
      "[WARNING] [Line 1296] Invalid METAR format: Missing required METAR/SPECI identifier or station code\n",
      "          METAR: 202301272330 METAR VEPT 272330Z 27005KT 1400 R25/2000 BR NSC 17/15 Q1014 NOSIG=...\n",
      "[WARNING] No station code found in METAR: 202301272330 METAR VEPT 272330Z 27005KT 1400 R25/2...\n",
      "[WARNING] [Line 1297] Invalid METAR format: Missing required METAR/SPECI identifier or station code\n",
      "          METAR: 202301280000 METAR VEPT 280000Z 29005KT 1200 R25/2000 BR NSC 17/16 Q1015 NOSIG=...\n",
      "[WARNING] No station code found in METAR: 202301280000 METAR VEPT 280000Z 29005KT 1200 R25/2...\n",
      "[WARNING] [Line 1298] Invalid METAR format: Missing required METAR/SPECI identifier or station code\n",
      "          METAR: 202301280030 METAR VEPT 280030Z 30006KT 1200 R25/2000 BR NSC 17/16 Q1015 NOSIG=...\n",
      "[WARNING] No station code found in METAR: 202301280030 METAR VEPT 280030Z 30006KT 1200 R25/2...\n",
      "[WARNING] [Line 1299] Invalid METAR format: Missing required METAR/SPECI identifier or station code\n",
      "          METAR: 202301280100 METAR VEPT 280100Z 27005KT 1000 R25/2000 MIFG SCT100 17/16 Q1015 BE...\n",
      "[WARNING] No station code found in METAR: 202301280100 METAR VEPT 280100Z 27005KT 1000 R25/2...\n",
      "[PROGRESS] Processed 1300/1489 METARs...\n",
      "[WARNING] [Line 1300] Invalid METAR format: Missing required METAR/SPECI identifier or station code\n",
      "          METAR: 202301280130 METAR VEPT 280130Z 27008KT 1000 R25/2000 MIFG SCT100 17/16 Q1015 BE...\n",
      "[WARNING] No station code found in METAR: 202301280130 METAR VEPT 280130Z 27008KT 1000 R25/2...\n",
      "[WARNING] [Line 1301] Invalid METAR format: Missing required METAR/SPECI identifier or station code\n",
      "          METAR: 202301280200 METAR VEPT 280200Z 27005KT 0800 R25/1700 FG VV/// 16/15 Q1016 NOSIG...\n",
      "[WARNING] No station code found in METAR: 202301280200 METAR VEPT 280200Z 27005KT 0800 R25/1...\n",
      "[WARNING] [Line 1302] Invalid METAR format: Missing required METAR/SPECI identifier or station code\n",
      "          METAR: 202301280230 METAR VEPT 280230Z 29004KT 0800 R25/1700 FG VV/// 16/15 Q1017 NOSIG...\n",
      "[WARNING] No station code found in METAR: 202301280230 METAR VEPT 280230Z 29004KT 0800 R25/1...\n",
      "[WARNING] [Line 1303] Invalid METAR format: Missing required METAR/SPECI identifier or station code\n",
      "          METAR: 202301280300 METAR VEPT 280300Z 29003KT 1000 R25/1400 MIFG SCT008 BKN018 17/15 Q...\n",
      "[WARNING] No station code found in METAR: 202301280300 METAR VEPT 280300Z 29003KT 1000 R25/1...\n",
      "[WARNING] [Line 1304] Invalid METAR format: Missing required METAR/SPECI identifier or station code\n",
      "          METAR: 202301280330 METAR VEPT 280330Z 25006KT 1000 R25/1300 MIFG SCT008 BKN018 17/15 Q...\n",
      "[WARNING] No station code found in METAR: 202301280330 METAR VEPT 280330Z 25006KT 1000 R25/1...\n",
      "[WARNING] [Line 1305] Invalid METAR format: Missing required METAR/SPECI identifier or station code\n",
      "          METAR: 202301280400 METAR VEPT 280400Z 28006KT 1000 R25/1300 MIFG SCT008 BKN018 17/15 Q...\n",
      "[WARNING] No station code found in METAR: 202301280400 METAR VEPT 280400Z 28006KT 1000 R25/1...\n",
      "[WARNING] [Line 1306] Invalid METAR format: Missing required METAR/SPECI identifier or station code\n",
      "          METAR: 202301280430 METAR VEPT 280430Z 25006KT 1200 R25/1400 MIFG SCT008 BKN018 18/15 Q...\n",
      "[WARNING] No station code found in METAR: 202301280430 METAR VEPT 280430Z 25006KT 1200 R25/1...\n",
      "[WARNING] [Line 1307] Invalid METAR format: Missing required METAR/SPECI identifier or station code\n",
      "          METAR: 202301280500 METAR VEPT 280500Z 28004KT 1200 R25/1500 BR FEW010 SCT018 BKN100 18...\n",
      "[WARNING] No station code found in METAR: 202301280500 METAR VEPT 280500Z 28004KT 1200 R25/1...\n",
      "[WARNING] [Line 1308] Invalid METAR format: Missing required METAR/SPECI identifier or station code\n",
      "          METAR: 202301280530 METAR VEPT 280530Z 24005KT 1200 R25/1500 BR SCT018 BKN100 19/15 Q10...\n",
      "[WARNING] No station code found in METAR: 202301280530 METAR VEPT 280530Z 24005KT 1200 R25/1...\n",
      "[WARNING] [Line 1309] Invalid METAR format: Missing required METAR/SPECI identifier or station code\n",
      "          METAR: 202301280600 METAR VEPT 280600Z 23005KT 1500 R25/1600 BR FEW018 SCT100 20/16 Q10...\n",
      "[WARNING] No station code found in METAR: 202301280600 METAR VEPT 280600Z 23005KT 1500 R25/1...\n",
      "[WARNING] [Line 1310] Invalid METAR format: Missing required METAR/SPECI identifier or station code\n",
      "          METAR: 202301280630 METAR VEPT 280630Z 25006KT 1500 R25/1600 BR SCT100 20/15 Q1016 NOSI...\n",
      "[WARNING] No station code found in METAR: 202301280630 METAR VEPT 280630Z 25006KT 1500 R25/1...\n",
      "[WARNING] [Line 1311] Invalid METAR format: Missing required METAR/SPECI identifier or station code\n",
      "          METAR: 202301280700 METAR VEPT 280700Z 25003KT 1600 BR SCT100 21/16 Q1015 NOSIG=...\n",
      "[WARNING] No station code found in METAR: 202301280700 METAR VEPT 280700Z 25003KT 1600 BR SC...\n",
      "[WARNING] [Line 1312] Invalid METAR format: Missing required METAR/SPECI identifier or station code\n",
      "          METAR: 202301280730 METAR VEPT 280730Z 29007KT 1600 BR FEW100 22/16 Q1014 NOSIG=...\n",
      "[WARNING] No station code found in METAR: 202301280730 METAR VEPT 280730Z 29007KT 1600 BR FE...\n",
      "[WARNING] [Line 1313] Invalid METAR format: Missing required METAR/SPECI identifier or station code\n",
      "          METAR: 202301280800 METAR VEPT 280800Z 28007KT 2000 HZ NSC 22/16 Q1013 NOSIG=...\n",
      "[WARNING] No station code found in METAR: 202301280800 METAR VEPT 280800Z 28007KT 2000 HZ NS...\n",
      "[WARNING] [Line 1314] Invalid METAR format: Missing required METAR/SPECI identifier or station code\n",
      "          METAR: 202301280830 METAR VEPT 280830Z 29008KT 2200 HZ NSC 22/16 Q1013 NOSIG=...\n",
      "[WARNING] No station code found in METAR: 202301280830 METAR VEPT 280830Z 29008KT 2200 HZ NS...\n",
      "[WARNING] [Line 1315] Invalid METAR format: Missing required METAR/SPECI identifier or station code\n",
      "          METAR: 202301280900 METAR VEPT 280900Z 32007KT 2500 HZ NSC 23/16 Q1013 NOSIG=...\n",
      "[WARNING] No station code found in METAR: 202301280900 METAR VEPT 280900Z 32007KT 2500 HZ NS...\n",
      "[WARNING] [Line 1316] Invalid METAR format: Missing required METAR/SPECI identifier or station code\n",
      "          METAR: 202301280930 METAR VEPT 280930Z 32006KT 2500 HZ NSC 23/16 Q1012 NOSIG=...\n",
      "[WARNING] No station code found in METAR: 202301280930 METAR VEPT 280930Z 32006KT 2500 HZ NS...\n",
      "[WARNING] [Line 1317] Invalid METAR format: Missing required METAR/SPECI identifier or station code\n",
      "          METAR: 202301281000 METAR COR VEPT 281000Z 29006KT 2500 HZ NSC 23/16 Q1012 BECMG 3000 H...\n",
      "[WARNING] No station code found in METAR: 202301281000 METAR COR VEPT 281000Z 29006KT 2500 H...\n",
      "[WARNING] [Line 1318] Invalid METAR format: Missing required METAR/SPECI identifier or station code\n",
      "          METAR: 202301281030 METAR VEPT 281030Z 31007KT 3000 HZ NSC 23/15 Q1012 NOSIG=...\n",
      "[WARNING] No station code found in METAR: 202301281030 METAR VEPT 281030Z 31007KT 3000 HZ NS...\n",
      "[WARNING] [Line 1319] Invalid METAR format: Missing required METAR/SPECI identifier or station code\n",
      "          METAR: 202301281100 METAR VEPT 281100Z 28006KT 3000 HZ NSC 23/15 Q1012 NOSIG=...\n",
      "[WARNING] No station code found in METAR: 202301281100 METAR VEPT 281100Z 28006KT 3000 HZ NS...\n",
      "[WARNING] [Line 1320] Invalid METAR format: Missing required METAR/SPECI identifier or station code\n",
      "          METAR: 202301281130 METAR VEPT 281130Z 29006KT 3000 HZ NSC 22/15 Q1012 NOSIG=...\n",
      "[WARNING] No station code found in METAR: 202301281130 METAR VEPT 281130Z 29006KT 3000 HZ NS...\n",
      "[WARNING] [Line 1321] Invalid METAR format: Missing required METAR/SPECI identifier or station code\n",
      "          METAR: 202301281200 METAR VEPT 281200Z 30003KT 2500 HZ NSC 22/16 Q1012 NOSIG=...\n",
      "[WARNING] No station code found in METAR: 202301281200 METAR VEPT 281200Z 30003KT 2500 HZ NS...\n",
      "[WARNING] [Line 1322] Invalid METAR format: Missing required METAR/SPECI identifier or station code\n",
      "          METAR: 202301281230 METAR VEPT 281230Z 30003KT 2500 HZ NSC 21/16 Q1013 NOSIG=...\n",
      "[WARNING] No station code found in METAR: 202301281230 METAR VEPT 281230Z 30003KT 2500 HZ NS...\n",
      "[WARNING] [Line 1323] Invalid METAR format: Missing required METAR/SPECI identifier or station code\n",
      "          METAR: 202301281300 METAR VEPT 281300Z 00000KT 2500 BR NSC 20/16 Q1013 NOSIG=...\n",
      "[WARNING] No station code found in METAR: 202301281300 METAR VEPT 281300Z 00000KT 2500 BR NS...\n",
      "[WARNING] [Line 1324] Invalid METAR format: Missing required METAR/SPECI identifier or station code\n",
      "          METAR: 202301281330 METAR VEPT 281330Z 00000KT 2500 BR NSC 19/16 Q1013 NOSIG=...\n",
      "[WARNING] No station code found in METAR: 202301281330 METAR VEPT 281330Z 00000KT 2500 BR NS...\n",
      "[WARNING] [Line 1325] Invalid METAR format: Missing required METAR/SPECI identifier or station code\n",
      "          METAR: 202301281400 METAR VEPT 281400Z 00000KT 2500 BR NSC 18/15 Q1014 NOSIG=...\n",
      "[WARNING] No station code found in METAR: 202301281400 METAR VEPT 281400Z 00000KT 2500 BR NS...\n",
      "[WARNING] [Line 1326] Invalid METAR format: Missing required METAR/SPECI identifier or station code\n",
      "          METAR: 202301281430 METAR VEPT 281430Z 00000KT 2500 BR NSC 18/16 Q1014 NOSIG=...\n",
      "[WARNING] No station code found in METAR: 202301281430 METAR VEPT 281430Z 00000KT 2500 BR NS...\n",
      "[WARNING] [Line 1327] Invalid METAR format: Missing required METAR/SPECI identifier or station code\n",
      "          METAR: 202301281500 METAR VEPT 281500Z 00000KT 2000 BR NSC 17/16 Q1014 NOSIG=...\n",
      "[WARNING] No station code found in METAR: 202301281500 METAR VEPT 281500Z 00000KT 2000 BR NS...\n",
      "[WARNING] [Line 1328] Invalid METAR format: Missing required METAR/SPECI identifier or station code\n",
      "          METAR: 202301281530 METAR VEPT 281530Z 00000KT 2000 BR NSC 17/15 Q1014 NOSIG=...\n",
      "[WARNING] No station code found in METAR: 202301281530 METAR VEPT 281530Z 00000KT 2000 BR NS...\n",
      "[WARNING] [Line 1329] Invalid METAR format: Missing required METAR/SPECI identifier or station code\n",
      "          METAR: 202301281600 METAR VEPT 281600Z 00000KT 2000 BR NSC 16/15 Q1014 NOSIG=...\n",
      "[WARNING] No station code found in METAR: 202301281600 METAR VEPT 281600Z 00000KT 2000 BR NS...\n",
      "[WARNING] [Line 1330] Invalid METAR format: Missing required METAR/SPECI identifier or station code\n",
      "          METAR: 202301281630 METAR VEPT 281630Z 00000KT 2000 BR NSC 16/15 Q1014 NOSIG=...\n",
      "[WARNING] No station code found in METAR: 202301281630 METAR VEPT 281630Z 00000KT 2000 BR NS...\n",
      "[WARNING] [Line 1331] Invalid METAR format: Missing required METAR/SPECI identifier or station code\n",
      "          METAR: 202301281700 METAR VEPT 281700Z 00000KT 1800 BR NSC 15/14 Q1014 NOSIG=...\n",
      "[WARNING] No station code found in METAR: 202301281700 METAR VEPT 281700Z 00000KT 1800 BR NS...\n",
      "[WARNING] [Line 1332] Invalid METAR format: Missing required METAR/SPECI identifier or station code\n",
      "          METAR: 202301281730 METAR VEPT 281730Z 00000KT 1800 BR NSC 15/14 Q1014 NOSIG=...\n",
      "[WARNING] No station code found in METAR: 202301281730 METAR VEPT 281730Z 00000KT 1800 BR NS...\n",
      "[WARNING] [Line 1333] Invalid METAR format: Missing required METAR/SPECI identifier or station code\n",
      "          METAR: 202301281800 METAR VEPT 281800Z 00000KT 1800 BR NSC 15/14 Q1014 NOSIG=...\n",
      "[WARNING] No station code found in METAR: 202301281800 METAR VEPT 281800Z 00000KT 1800 BR NS...\n",
      "[WARNING] [Line 1334] Invalid METAR format: Missing required METAR/SPECI identifier or station code\n",
      "          METAR: 202301281830 METAR VEPT 281830Z 00000KT 1800 BR NSC 15/14 Q1014 NOSIG=...\n",
      "[WARNING] No station code found in METAR: 202301281830 METAR VEPT 281830Z 00000KT 1800 BR NS...\n",
      "[WARNING] [Line 1335] Invalid METAR format: Missing required METAR/SPECI identifier or station code\n",
      "          METAR: 202301281900 METAR VEPT 281900Z 00000KT 1600 BR NSC 15/14 Q1014 NOSIG=...\n",
      "[WARNING] No station code found in METAR: 202301281900 METAR VEPT 281900Z 00000KT 1600 BR NS...\n",
      "[WARNING] [Line 1336] Invalid METAR format: Missing required METAR/SPECI identifier or station code\n",
      "          METAR: 202301281930 METAR VEPT 281930Z 00000KT 1600 BR NSC 14/14 Q1014 NOSIG=...\n",
      "[WARNING] No station code found in METAR: 202301281930 METAR VEPT 281930Z 00000KT 1600 BR NS...\n",
      "[WARNING] [Line 1337] Invalid METAR format: Missing required METAR/SPECI identifier or station code\n",
      "          METAR: 202301282000 METAR VEPT 282000Z 00000KT 1600 BR NSC 14/13 Q1014 NOSIG=...\n",
      "[WARNING] No station code found in METAR: 202301282000 METAR VEPT 282000Z 00000KT 1600 BR NS...\n",
      "[WARNING] [Line 1338] Invalid METAR format: Missing required METAR/SPECI identifier or station code\n",
      "          METAR: 202301282030 METAR VEPT 282030Z 00000KT 1600 BR NSC 14/13 Q1014 NOSIG=...\n",
      "[WARNING] No station code found in METAR: 202301282030 METAR VEPT 282030Z 00000KT 1600 BR NS...\n",
      "[WARNING] [Line 1339] Invalid METAR format: Missing required METAR/SPECI identifier or station code\n",
      "          METAR: 202301282100 METAR VEPT 282100Z 00000KT 1600 BR NSC 14/13 Q1014 BECMG 1500 BR=...\n",
      "[WARNING] No station code found in METAR: 202301282100 METAR VEPT 282100Z 00000KT 1600 BR NS...\n",
      "[WARNING] [Line 1340] Invalid METAR format: Missing required METAR/SPECI identifier or station code\n",
      "          METAR: 202301282130 METAR VEPT 282130Z 00000KT 1000 R25/1200 MIFG NSC 14/13 Q1014 BECMG...\n",
      "[WARNING] No station code found in METAR: 202301282130 METAR VEPT 282130Z 00000KT 1000 R25/1...\n",
      "[WARNING] [Line 1341] Invalid METAR format: Missing required METAR/SPECI identifier or station code\n",
      "          METAR: 202301282200 METAR VEPT 282200Z 00000KT 0800 R25/0900 FG NSC 13/13 Q1014 BECMG 0...\n",
      "[WARNING] No station code found in METAR: 202301282200 METAR VEPT 282200Z 00000KT 0800 R25/0...\n",
      "[WARNING] [Line 1342] Invalid METAR format: Missing required METAR/SPECI identifier or station code\n",
      "          METAR: 202301282230 METAR VEPT 282230Z 00000KT 0500 R25/0500 FG VV/// 13/12 Q1014 NOSIG...\n",
      "[WARNING] No station code found in METAR: 202301282230 METAR VEPT 282230Z 00000KT 0500 R25/0...\n",
      "[WARNING] [Line 1343] Invalid METAR format: Missing required METAR/SPECI identifier or station code\n",
      "          METAR: 202301282300 METAR VEPT 282300Z 00000KT 0500 R25/0600 FG VV/// 13/12 Q1014 NOSIG...\n",
      "[WARNING] No station code found in METAR: 202301282300 METAR VEPT 282300Z 00000KT 0500 R25/0...\n",
      "[WARNING] [Line 1344] Invalid METAR format: Missing required METAR/SPECI identifier or station code\n",
      "          METAR: 202301282330 METAR VEPT 282330Z 00000KT 0500 R25/0500 FG NSC 12/12 Q1014 NOSIG=...\n",
      "[WARNING] No station code found in METAR: 202301282330 METAR VEPT 282330Z 00000KT 0500 R25/0...\n",
      "[WARNING] [Line 1345] Invalid METAR format: Missing required METAR/SPECI identifier or station code\n",
      "          METAR: 202301290000 METAR VEPT 290000Z 00000KT 0500 R25/0600 FG NSC 12/11 Q1014 NOSIG=...\n",
      "[WARNING] No station code found in METAR: 202301290000 METAR VEPT 290000Z 00000KT 0500 R25/0...\n",
      "[WARNING] [Line 1346] Invalid METAR format: Missing required METAR/SPECI identifier or station code\n",
      "          METAR: 202301290030 METAR VEPT 290030Z 00000KT 0500 R25/0600 FG NSC 11/10 Q1014 NOSIG=...\n",
      "[WARNING] No station code found in METAR: 202301290030 METAR VEPT 290030Z 00000KT 0500 R25/0...\n",
      "[WARNING] [Line 1347] Invalid METAR format: Missing required METAR/SPECI identifier or station code\n",
      "          METAR: 202301290100 METAR VEPT 290100Z 00000KT 0500 R25/0500 FG NSC 11/11 Q1014 NOSIG=...\n",
      "[WARNING] No station code found in METAR: 202301290100 METAR VEPT 290100Z 00000KT 0500 R25/0...\n",
      "[WARNING] [Line 1348] Invalid METAR format: Missing required METAR/SPECI identifier or station code\n",
      "          METAR: 202301290130 METAR VEPT 290130Z 00000KT 0400 R25/0400 FG NSC 11/11 Q1015 NOSIG=...\n",
      "[WARNING] No station code found in METAR: 202301290130 METAR VEPT 290130Z 00000KT 0400 R25/0...\n",
      "[WARNING] [Line 1349] Invalid METAR format: Missing required METAR/SPECI identifier or station code\n",
      "          METAR: 202301290200 METAR VEPT 290200Z 27002KT 0400 R25/0300 FG NSC 12/12 Q1015 BECMG 0...\n",
      "[WARNING] No station code found in METAR: 202301290200 METAR VEPT 290200Z 27002KT 0400 R25/0...\n",
      "[WARNING] [Line 1350] Invalid METAR format: Missing required METAR/SPECI identifier or station code\n",
      "          METAR: 202301290230 METAR VEPT 290230Z 21004KT 0900 R25/1200 FG NSC 13/12 Q1016 NOSIG=...\n",
      "[WARNING] No station code found in METAR: 202301290230 METAR VEPT 290230Z 21004KT 0900 R25/1...\n",
      "[WARNING] [Line 1351] Invalid METAR format: Missing required METAR/SPECI identifier or station code\n",
      "          METAR: 202301290300 METAR VEPT 290300Z 23003KT 0050 R25/0100 FG VV/// 13/13 Q1017 NOSIG...\n",
      "[WARNING] No station code found in METAR: 202301290300 METAR VEPT 290300Z 23003KT 0050 R25/0...\n",
      "[WARNING] [Line 1352] Invalid METAR format: Missing required METAR/SPECI identifier or station code\n",
      "          METAR: 202301290330 METAR VEPT 290330Z 00000KT 0300 R25/0600 FG VV/// 14/14 Q1017 BECMG...\n",
      "[WARNING] No station code found in METAR: 202301290330 METAR VEPT 290330Z 00000KT 0300 R25/0...\n",
      "[WARNING] [Line 1353] Invalid METAR format: Missing required METAR/SPECI identifier or station code\n",
      "          METAR: 202301290400 METAR VEPT 290400Z 20004KT 0700 R25/1000 FG NSC 16/15 Q1017 BECMG 8...\n",
      "[WARNING] No station code found in METAR: 202301290400 METAR VEPT 290400Z 20004KT 0700 R25/1...\n",
      "[WARNING] [Line 1354] Invalid METAR format: Missing required METAR/SPECI identifier or station code\n",
      "          METAR: 202301290430 METAR VEPT 290430Z 20004KT 0800 R25/1000 MIFG NSC 17/15 Q1018 NOSIG...\n",
      "[WARNING] No station code found in METAR: 202301290430 METAR VEPT 290430Z 20004KT 0800 R25/1...\n",
      "[WARNING] [Line 1355] Invalid METAR format: Missing required METAR/SPECI identifier or station code\n",
      "          METAR: 202301290500 METAR VEPT 290500Z 21003KT 1000 R25/1200 MIFG NSC 19/16 Q1017 NOSIG...\n",
      "[WARNING] No station code found in METAR: 202301290500 METAR VEPT 290500Z 21003KT 1000 R25/1...\n",
      "[WARNING] [Line 1356] Invalid METAR format: Missing required METAR/SPECI identifier or station code\n",
      "          METAR: 202301290530 METAR VEPT 290530Z 22004KT 1200 R25/1400 MIFG NSC 21/17 Q1017 NOSIG...\n",
      "[WARNING] No station code found in METAR: 202301290530 METAR VEPT 290530Z 22004KT 1200 R25/1...\n",
      "[WARNING] [Line 1357] Invalid METAR format: Missing required METAR/SPECI identifier or station code\n",
      "          METAR: 202301290600 METAR VEPT 290600Z 20003KT 1400 R25/1600 FU NSC 22/17 Q1017 BECMG 1...\n",
      "[WARNING] No station code found in METAR: 202301290600 METAR VEPT 290600Z 20003KT 1400 R25/1...\n",
      "[WARNING] [Line 1358] Invalid METAR format: Missing required METAR/SPECI identifier or station code\n",
      "          METAR: 202301290630 METAR VEPT 290630Z 26003KT 1600 FU NSC 23/16 Q1016 NOSIG=...\n",
      "[WARNING] No station code found in METAR: 202301290630 METAR VEPT 290630Z 26003KT 1600 FU NS...\n",
      "[WARNING] [Line 1359] Invalid METAR format: Missing required METAR/SPECI identifier or station code\n",
      "          METAR: 202301290700 METAR VEPT 290700Z 13004KT 1800 FU NSC 24/15 Q1015 NOSIG=...\n",
      "[WARNING] No station code found in METAR: 202301290700 METAR VEPT 290700Z 13004KT 1800 FU NS...\n",
      "[WARNING] [Line 1360] Invalid METAR format: Missing required METAR/SPECI identifier or station code\n",
      "          METAR: 202301290730 METAR VEPT 290730Z 18004KT 2000 HZ NSC 24/16 Q1015 NOSIG=...\n",
      "[WARNING] No station code found in METAR: 202301290730 METAR VEPT 290730Z 18004KT 2000 HZ NS...\n",
      "[WARNING] [Line 1361] Invalid METAR format: Missing required METAR/SPECI identifier or station code\n",
      "          METAR: 202301290800 METAR VEPT 290800Z 19002KT 2000 HZ NSC 26/16 Q1014 NOSIG=...\n",
      "[WARNING] No station code found in METAR: 202301290800 METAR VEPT 290800Z 19002KT 2000 HZ NS...\n",
      "[WARNING] [Line 1362] Invalid METAR format: Missing required METAR/SPECI identifier or station code\n",
      "          METAR: 202301290830 METAR VEPT 290830Z 34003KT 2000 HZ NSC 25/16 Q1014 NOSIG=...\n",
      "[WARNING] No station code found in METAR: 202301290830 METAR VEPT 290830Z 34003KT 2000 HZ NS...\n",
      "[WARNING] [Line 1363] Invalid METAR format: Missing required METAR/SPECI identifier or station code\n",
      "          METAR: 202301290900 METAR VEPT 290900Z 34003KT 2000 HZ NSC 25/16 Q1013 NOSIG=...\n",
      "[WARNING] No station code found in METAR: 202301290900 METAR VEPT 290900Z 34003KT 2000 HZ NS...\n",
      "[WARNING] [Line 1364] Invalid METAR format: Missing required METAR/SPECI identifier or station code\n",
      "          METAR: 202301290930 METAR VEPT 290930Z 01004KT 1800 HZ SCT100 24/16 Q1013 NOSIG=...\n",
      "[WARNING] No station code found in METAR: 202301290930 METAR VEPT 290930Z 01004KT 1800 HZ SC...\n",
      "[WARNING] [Line 1365] Invalid METAR format: Missing required METAR/SPECI identifier or station code\n",
      "          METAR: 202301291000 METAR VEPT 291000Z 01003KT 1800 FU SCT100 25/16 Q1013 NOSIG=...\n",
      "[WARNING] No station code found in METAR: 202301291000 METAR VEPT 291000Z 01003KT 1800 FU SC...\n",
      "[WARNING] [Line 1366] Invalid METAR format: Missing required METAR/SPECI identifier or station code\n",
      "          METAR: 202301291030 METAR VEPT 291030Z 30003KT 1800 FU FEW100 25/16 Q1013 NOSIG=...\n",
      "[WARNING] No station code found in METAR: 202301291030 METAR VEPT 291030Z 30003KT 1800 FU FE...\n",
      "[WARNING] [Line 1367] Invalid METAR format: Missing required METAR/SPECI identifier or station code\n",
      "          METAR: 202301291100 METAR VEPT 291100Z 29003KT 1800 FU FEW100 25/16 Q1013 NOSIG=...\n",
      "[WARNING] No station code found in METAR: 202301291100 METAR VEPT 291100Z 29003KT 1800 FU FE...\n",
      "[WARNING] [Line 1368] Invalid METAR format: Missing required METAR/SPECI identifier or station code\n",
      "          METAR: 202301291130 METAR VEPT 291130Z 30003KT 1800 FU FEW100 24/15 Q1013 NOSIG=...\n",
      "[WARNING] No station code found in METAR: 202301291130 METAR VEPT 291130Z 30003KT 1800 FU FE...\n",
      "[WARNING] [Line 1369] Invalid METAR format: Missing required METAR/SPECI identifier or station code\n",
      "          METAR: 202301291200 METAR VEPT 291200Z 30003KT 1800 FU FEW100 24/15 Q1013 NOSIG=...\n",
      "[WARNING] No station code found in METAR: 202301291200 METAR VEPT 291200Z 30003KT 1800 FU FE...\n",
      "[WARNING] [Line 1370] Invalid METAR format: Missing required METAR/SPECI identifier or station code\n",
      "          METAR: 202301291230 METAR VEPT 291230Z 31002KT 2000 HZ FEW100 22/16 Q1013 NOSIG=...\n",
      "[WARNING] No station code found in METAR: 202301291230 METAR VEPT 291230Z 31002KT 2000 HZ FE...\n",
      "[WARNING] [Line 1371] Invalid METAR format: Missing required METAR/SPECI identifier or station code\n",
      "          METAR: 202301291300 METAR VEPT 291300Z 00000KT 2000 HZ FEW100 20/16 Q1014 NOSIG=...\n",
      "[WARNING] No station code found in METAR: 202301291300 METAR VEPT 291300Z 00000KT 2000 HZ FE...\n",
      "[WARNING] [Line 1372] Invalid METAR format: Missing required METAR/SPECI identifier or station code\n",
      "          METAR: 202301291330 METAR VEPT 291330Z 00000KT 2000 BR FEW100 19/16 Q1014 NOSIG=...\n",
      "[WARNING] No station code found in METAR: 202301291330 METAR VEPT 291330Z 00000KT 2000 BR FE...\n",
      "[WARNING] [Line 1373] Invalid METAR format: Missing required METAR/SPECI identifier or station code\n",
      "          METAR: 202301291400 METAR VEPT 291400Z 00000KT 2000 BR FEW100 18/15 Q1014 NOSIG=...\n",
      "[WARNING] No station code found in METAR: 202301291400 METAR VEPT 291400Z 00000KT 2000 BR FE...\n",
      "[WARNING] [Line 1374] Invalid METAR format: Missing required METAR/SPECI identifier or station code\n",
      "          METAR: 202301291430 METAR VEPT 291430Z 00000KT 2000 BR FEW100 18/16 Q1015 NOSIG=...\n",
      "[WARNING] No station code found in METAR: 202301291430 METAR VEPT 291430Z 00000KT 2000 BR FE...\n",
      "[WARNING] [Line 1375] Invalid METAR format: Missing required METAR/SPECI identifier or station code\n",
      "          METAR: 202301291500 METAR VEPT 291500Z 00000KT 2000 BR FEW100 17/15 Q1015 NOSIG=...\n",
      "[WARNING] No station code found in METAR: 202301291500 METAR VEPT 291500Z 00000KT 2000 BR FE...\n",
      "[WARNING] [Line 1376] Invalid METAR format: Missing required METAR/SPECI identifier or station code\n",
      "          METAR: 202301291530 METAR VEPT 291530Z 00000KT 1800 BR FEW100 17/15 Q1015 NOSIG=...\n",
      "[WARNING] No station code found in METAR: 202301291530 METAR VEPT 291530Z 00000KT 1800 BR FE...\n",
      "[WARNING] [Line 1377] Invalid METAR format: Missing required METAR/SPECI identifier or station code\n",
      "          METAR: 202301291600 METAR VEPT 291600Z 00000KT 1800 BR FEW100 16/15 Q1016 NOSIG=...\n",
      "[WARNING] No station code found in METAR: 202301291600 METAR VEPT 291600Z 00000KT 1800 BR FE...\n",
      "[WARNING] [Line 1378] Invalid METAR format: Missing required METAR/SPECI identifier or station code\n",
      "          METAR: 202301291630 METAR VEPT 291630Z 02003KT 1800 BR FEW100 16/15 Q1016 NOSIG=...\n",
      "[WARNING] No station code found in METAR: 202301291630 METAR VEPT 291630Z 02003KT 1800 BR FE...\n",
      "[WARNING] [Line 1379] Invalid METAR format: Missing required METAR/SPECI identifier or station code\n",
      "          METAR: 202301291700 METAR VEPT 291700Z 02003KT 1800 BR FEW100 16/15 Q1016 NOSIG=...\n",
      "[WARNING] No station code found in METAR: 202301291700 METAR VEPT 291700Z 02003KT 1800 BR FE...\n",
      "[WARNING] [Line 1380] Invalid METAR format: Missing required METAR/SPECI identifier or station code\n",
      "          METAR: 202301291730 METAR VEPT 291730Z 00000KT 1600 BR FEW100 15/14 Q1016 BECMG 1500 BR...\n",
      "[WARNING] No station code found in METAR: 202301291730 METAR VEPT 291730Z 00000KT 1600 BR FE...\n",
      "[WARNING] [Line 1381] Invalid METAR format: Missing required METAR/SPECI identifier or station code\n",
      "          METAR: 202301291800 METAR VEPT 291800Z 00000KT 1500 R25/1500 BR FEW100 14/14 Q1015 NOSI...\n",
      "[WARNING] No station code found in METAR: 202301291800 METAR VEPT 291800Z 00000KT 1500 R25/1...\n",
      "[WARNING] [Line 1382] Invalid METAR format: Missing required METAR/SPECI identifier or station code\n",
      "          METAR: 202301291830 METAR VEPT 291830Z 00000KT 1500 R25/1500 BR FEW100 14/14 Q1015 NOSI...\n",
      "[WARNING] No station code found in METAR: 202301291830 METAR VEPT 291830Z 00000KT 1500 R25/1...\n",
      "[WARNING] [Line 1383] Invalid METAR format: Missing required METAR/SPECI identifier or station code\n",
      "          METAR: 202301291900 METAR VEPT 291900Z 00000KT 1200 R25/0700 BR FEW100 14/13 Q1015 NOSI...\n",
      "[WARNING] No station code found in METAR: 202301291900 METAR VEPT 291900Z 00000KT 1200 R25/0...\n",
      "[WARNING] [Line 1384] Invalid METAR format: Missing required METAR/SPECI identifier or station code\n",
      "          METAR: 202301291930 METAR VEPT 291930Z 00000KT 1200 R25/2000 BR FEW100 13/13 Q1015 NOSI...\n",
      "[WARNING] No station code found in METAR: 202301291930 METAR VEPT 291930Z 00000KT 1200 R25/2...\n",
      "[WARNING] [Line 1385] Invalid METAR format: Missing required METAR/SPECI identifier or station code\n",
      "          METAR: 202301292000 METAR VEPT 292000Z 00000KT 1200 R25/2000 BR FEW100 13/13 Q1015 NOSI...\n",
      "[WARNING] No station code found in METAR: 202301292000 METAR VEPT 292000Z 00000KT 1200 R25/2...\n",
      "[WARNING] [Line 1386] Invalid METAR format: Missing required METAR/SPECI identifier or station code\n",
      "          METAR: 202301292030 METAR VEPT 292030Z 00000KT 1200 R25/1400 BR FEW100 13/12 Q1015 NOSI...\n",
      "[WARNING] No station code found in METAR: 202301292030 METAR VEPT 292030Z 00000KT 1200 R25/1...\n",
      "[WARNING] [Line 1387] Invalid METAR format: Missing required METAR/SPECI identifier or station code\n",
      "          METAR: 202301292100 METAR VEPT 292100Z 00000KT 1200 R25/2000 BR FEW100 13/12 Q1015 NOSI...\n",
      "[WARNING] No station code found in METAR: 202301292100 METAR VEPT 292100Z 00000KT 1200 R25/2...\n",
      "[WARNING] [Line 1388] Invalid METAR format: Missing required METAR/SPECI identifier or station code\n",
      "          METAR: 202301292130 METAR VEPT 292130Z 00000KT 1200 R25/2000 BR SCT100 13/13 Q1015 NOSI...\n",
      "[WARNING] No station code found in METAR: 202301292130 METAR VEPT 292130Z 00000KT 1200 R25/2...\n",
      "[WARNING] [Line 1389] Invalid METAR format: Missing required METAR/SPECI identifier or station code\n",
      "          METAR: 202301292200 METAR COR VEPT 292200Z 00000KT 1200 R25/2000 SCT100 14/13 Q1015 NOS...\n",
      "[WARNING] No station code found in METAR: 202301292200 METAR COR VEPT 292200Z 00000KT 1200 R...\n",
      "[WARNING] [Line 1390] Invalid METAR format: Missing required METAR/SPECI identifier or station code\n",
      "          METAR: 202301292230 METAR VEPT 292230Z 00000KT 1000 R25/1200 MIFG SCT100 14/13 Q1015 NO...\n",
      "[WARNING] No station code found in METAR: 202301292230 METAR VEPT 292230Z 00000KT 1000 R25/1...\n",
      "[WARNING] [Line 1391] Invalid METAR format: Missing required METAR/SPECI identifier or station code\n",
      "          METAR: 202301292300 METAR VEPT 292300Z 00000KT 1000 R25/1300 MIFG SCT100 13/13 Q1015 BE...\n",
      "[WARNING] No station code found in METAR: 202301292300 METAR VEPT 292300Z 00000KT 1000 R25/1...\n",
      "[WARNING] [Line 1392] Invalid METAR format: Missing required METAR/SPECI identifier or station code\n",
      "          METAR: 202301292330 METAR VEPT 292330Z 00000KT 1000 R25/1200 MIFG SCT100 13/13 Q1015 BE...\n",
      "[WARNING] No station code found in METAR: 202301292330 METAR VEPT 292330Z 00000KT 1000 R25/1...\n",
      "[WARNING] [Line 1393] Invalid METAR format: Missing required METAR/SPECI identifier or station code\n",
      "          METAR: 202301300000 METAR VEPT 300000Z 00000KT 0800 R25/1100 FG SCT100 13/13 Q1016 NOSI...\n",
      "[WARNING] No station code found in METAR: 202301300000 METAR VEPT 300000Z 00000KT 0800 R25/1...\n",
      "[WARNING] [Line 1394] Invalid METAR format: Missing required METAR/SPECI identifier or station code\n",
      "          METAR: 202301300030 METAR VEPT 300030Z 00000KT 0800 R25/1200 FG SCT100 13/13 Q1016 NOSI...\n",
      "[WARNING] No station code found in METAR: 202301300030 METAR VEPT 300030Z 00000KT 0800 R25/1...\n",
      "[WARNING] [Line 1395] Invalid METAR format: Missing required METAR/SPECI identifier or station code\n",
      "          METAR: 202301300100 METAR VEPT 300100Z 00000KT 0800 R25/1300 FG FEW020 SCT100 15/14 Q10...\n",
      "[WARNING] No station code found in METAR: 202301300100 METAR VEPT 300100Z 00000KT 0800 R25/1...\n",
      "[WARNING] [Line 1396] Invalid METAR format: Missing required METAR/SPECI identifier or station code\n",
      "          METAR: 202301300130 METAR VEPT 300130Z 00000KT 0600 R25/0750 FG FEW020 SCT100 14/14 Q10...\n",
      "[WARNING] No station code found in METAR: 202301300130 METAR VEPT 300130Z 00000KT 0600 R25/0...\n",
      "[WARNING] [Line 1397] Invalid METAR format: Missing required METAR/SPECI identifier or station code\n",
      "          METAR: 202301300200 METAR VEPT 300200Z 00000KT 0600 R25/1000 FG FEW020 SCT100 16/15 Q10...\n",
      "[WARNING] No station code found in METAR: 202301300200 METAR VEPT 300200Z 00000KT 0600 R25/1...\n",
      "[WARNING] [Line 1398] Invalid METAR format: Missing required METAR/SPECI identifier or station code\n",
      "          METAR: 202301300230 METAR VEPT 300230Z 00000KT 0700 R25/1000 FG SCT020 BKN100 17/16 Q10...\n",
      "[WARNING] No station code found in METAR: 202301300230 METAR VEPT 300230Z 00000KT 0700 R25/1...\n",
      "[WARNING] [Line 1399] Invalid METAR format: Missing required METAR/SPECI identifier or station code\n",
      "          METAR: 202301300300 METAR VEPT 300300Z 00000KT 0800 R25/1000 FG SCT020 BKN100 18/16 Q10...\n",
      "[WARNING] No station code found in METAR: 202301300300 METAR VEPT 300300Z 00000KT 0800 R25/1...\n",
      "[PROGRESS] Processed 1400/1489 METARs...\n",
      "[WARNING] [Line 1400] Invalid METAR format: Missing required METAR/SPECI identifier or station code\n",
      "          METAR: 202301300330 METAR VEPT 300330Z 00000KT 0800 R25/1000 MIFG SCT018 BKN100 20/17 Q...\n",
      "[WARNING] No station code found in METAR: 202301300330 METAR VEPT 300330Z 00000KT 0800 R25/1...\n",
      "[WARNING] [Line 1401] Invalid METAR format: Missing required METAR/SPECI identifier or station code\n",
      "          METAR: 202301300400 METAR VEPT 300400Z 09002KT 0900 R25/1100 MIFG SCT018 BKN100 21/16 Q...\n",
      "[WARNING] No station code found in METAR: 202301300400 METAR VEPT 300400Z 09002KT 0900 R25/1...\n",
      "[WARNING] [Line 1402] Invalid METAR format: Missing required METAR/SPECI identifier or station code\n",
      "          METAR: 202301300430 METAR VEPT 300430Z 00000KT 1100 R25/1100 FU FEW018 BKN100 23/16 Q10...\n",
      "[WARNING] No station code found in METAR: 202301300430 METAR VEPT 300430Z 00000KT 1100 R25/1...\n",
      "[WARNING] [Line 1403] Invalid METAR format: Missing required METAR/SPECI identifier or station code\n",
      "          METAR: 202301300500 METAR VEPT 300500Z 03003KT 1200 R25/1200 FU SCT100 23/16 Q1018 NOSI...\n",
      "[WARNING] No station code found in METAR: 202301300500 METAR VEPT 300500Z 03003KT 1200 R25/1...\n",
      "[WARNING] [Line 1404] Invalid METAR format: Missing required METAR/SPECI identifier or station code\n",
      "          METAR: 202301300530 METAR VEPT 300530Z 10002KT 1400 R25/1500 FU SCT100 25/17 Q1018 BECM...\n",
      "[WARNING] No station code found in METAR: 202301300530 METAR VEPT 300530Z 10002KT 1400 R25/1...\n",
      "[WARNING] [Line 1405] Invalid METAR format: Missing required METAR/SPECI identifier or station code\n",
      "          METAR: 202301300600 METAR VEPT 300600Z 15003KT 1600 FU SCT100 26/16 Q1017 NOSIG=...\n",
      "[WARNING] No station code found in METAR: 202301300600 METAR VEPT 300600Z 15003KT 1600 FU SC...\n",
      "[WARNING] [Line 1406] Invalid METAR format: Missing required METAR/SPECI identifier or station code\n",
      "          METAR: 202301300630 METAR VEPT 300630Z 16003KT 1800 FU SCT100 27/13 Q1017 NOSIG=...\n",
      "[WARNING] No station code found in METAR: 202301300630 METAR VEPT 300630Z 16003KT 1800 FU SC...\n",
      "[WARNING] [Line 1407] Invalid METAR format: Missing required METAR/SPECI identifier or station code\n",
      "          METAR: 202301300700 METAR VEPT 300700Z 21002KT 2000 HZ SCT100 28/11 Q1016 NOSIG=...\n",
      "[WARNING] No station code found in METAR: 202301300700 METAR VEPT 300700Z 21002KT 2000 HZ SC...\n",
      "[WARNING] [Line 1408] Invalid METAR format: Missing required METAR/SPECI identifier or station code\n",
      "          METAR: 202301300730 METAR VEPT 300730Z 34003KT 2000 HZ FEW100 27/15 Q1016 NOSIG=...\n",
      "[WARNING] No station code found in METAR: 202301300730 METAR VEPT 300730Z 34003KT 2000 HZ FE...\n",
      "[WARNING] [Line 1409] Invalid METAR format: Missing required METAR/SPECI identifier or station code\n",
      "          METAR: 202301300800 METAR VEPT 300800Z 32002KT 2000 HZ NSC 28/11 Q1015 NOSIG=...\n",
      "[WARNING] No station code found in METAR: 202301300800 METAR VEPT 300800Z 32002KT 2000 HZ NS...\n",
      "[WARNING] [Line 1410] Invalid METAR format: Missing required METAR/SPECI identifier or station code\n",
      "          METAR: 202301300830 METAR VEPT 300830Z 02003KT 2000 HZ NSC 28/11 Q1015 NOSIG=...\n",
      "[WARNING] No station code found in METAR: 202301300830 METAR VEPT 300830Z 02003KT 2000 HZ NS...\n",
      "[WARNING] [Line 1411] Invalid METAR format: Missing required METAR/SPECI identifier or station code\n",
      "          METAR: 202301300900 METAR VEPT 300900Z 33003KT 2000 HZ NSC 28/12 Q1014 NOSIG=...\n",
      "[WARNING] No station code found in METAR: 202301300900 METAR VEPT 300900Z 33003KT 2000 HZ NS...\n",
      "[WARNING] [Line 1412] Invalid METAR format: Missing required METAR/SPECI identifier or station code\n",
      "          METAR: 202301300930 METAR VEPT 300930Z 31004KT 2000 HZ NSC 28/13 Q1014 NOSIG=...\n",
      "[WARNING] No station code found in METAR: 202301300930 METAR VEPT 300930Z 31004KT 2000 HZ NS...\n",
      "[WARNING] [Line 1413] Invalid METAR format: Missing required METAR/SPECI identifier or station code\n",
      "          METAR: 202301301000 METAR VEPT 301000Z 33003KT 2500 HZ NSC 28/12 Q1014 NOSIG=...\n",
      "[WARNING] No station code found in METAR: 202301301000 METAR VEPT 301000Z 33003KT 2500 HZ NS...\n",
      "[WARNING] [Line 1414] Invalid METAR format: Missing required METAR/SPECI identifier or station code\n",
      "          METAR: 202301301030 METAR VEPT 301030Z 34004KT 2500 HZ SCT100 28/09 Q1013 NOSIG=...\n",
      "[WARNING] No station code found in METAR: 202301301030 METAR VEPT 301030Z 34004KT 2500 HZ SC...\n",
      "[WARNING] [Line 1415] Invalid METAR format: Missing required METAR/SPECI identifier or station code\n",
      "          METAR: 202301301100 METAR VEPT 301100Z 33004KT 2500 HZ SCT100 28/07 Q1013 NOSIG=...\n",
      "[WARNING] No station code found in METAR: 202301301100 METAR VEPT 301100Z 33004KT 2500 HZ SC...\n",
      "[WARNING] [Line 1416] Invalid METAR format: Missing required METAR/SPECI identifier or station code\n",
      "          METAR: 202301301130 METAR VEPT 301130Z 33003KT 2500 HZ SCT100 26/12 Q1014 NOSIG=...\n",
      "[WARNING] No station code found in METAR: 202301301130 METAR VEPT 301130Z 33003KT 2500 HZ SC...\n",
      "[WARNING] [Line 1417] Invalid METAR format: Missing required METAR/SPECI identifier or station code\n",
      "          METAR: 202301301200 METAR VEPT 301200Z 31002KT 2000 HZ FEW020 SCT100 25/12 Q1014 NOSIG=...\n",
      "[WARNING] No station code found in METAR: 202301301200 METAR VEPT 301200Z 31002KT 2000 HZ FE...\n",
      "[WARNING] [Line 1418] Invalid METAR format: Missing required METAR/SPECI identifier or station code\n",
      "          METAR: 202301301230 METAR VEPT 301230Z 33002KT 2500 HZ FEW020 SCT100 25/15 Q1014 NOSIG=...\n",
      "[WARNING] No station code found in METAR: 202301301230 METAR VEPT 301230Z 33002KT 2500 HZ FE...\n",
      "[WARNING] [Line 1419] Invalid METAR format: Missing required METAR/SPECI identifier or station code\n",
      "          METAR: 202301301300 METAR VEPT 301300Z 33002KT 2500 HZ SCT018 BKN100 24/16 Q1014 NOSIG=...\n",
      "[WARNING] No station code found in METAR: 202301301300 METAR VEPT 301300Z 33002KT 2500 HZ SC...\n",
      "[WARNING] [Line 1420] Invalid METAR format: Missing required METAR/SPECI identifier or station code\n",
      "          METAR: 202301301330 METAR VEPT 301330Z 32002KT 2500 HZ SCT018 BKN100 23/16 Q1014 NOSIG=...\n",
      "[WARNING] No station code found in METAR: 202301301330 METAR VEPT 301330Z 32002KT 2500 HZ SC...\n",
      "[WARNING] [Line 1421] Invalid METAR format: Missing required METAR/SPECI identifier or station code\n",
      "          METAR: 202301301400 METAR VEPT 301400Z 31004KT 2500 HZ SCT018 BKN100 23/16 Q1014 NOSIG=...\n",
      "[WARNING] No station code found in METAR: 202301301400 METAR VEPT 301400Z 31004KT 2500 HZ SC...\n",
      "[WARNING] [Line 1422] Invalid METAR format: Missing required METAR/SPECI identifier or station code\n",
      "          METAR: 202301301430 METAR VEPT 301430Z 31004KT 2500 HZ SCT018 BKN100 23/16 Q1015 NOSIG=...\n",
      "[WARNING] No station code found in METAR: 202301301430 METAR VEPT 301430Z 31004KT 2500 HZ SC...\n",
      "[WARNING] [Line 1423] Invalid METAR format: Missing required METAR/SPECI identifier or station code\n",
      "          METAR: 202301301500 METAR VEPT 301500Z 31003KT 2500 HZ SCT018 BKN100 22/16 Q1015 NOSIG=...\n",
      "[WARNING] No station code found in METAR: 202301301500 METAR VEPT 301500Z 31003KT 2500 HZ SC...\n",
      "[WARNING] [Line 1424] Invalid METAR format: Missing required METAR/SPECI identifier or station code\n",
      "          METAR: 202301301530 METAR VEPT 301530Z 28002KT 2500 HZ SCT018 BKN100 22/17 Q1015 NOSIG=...\n",
      "[WARNING] No station code found in METAR: 202301301530 METAR VEPT 301530Z 28002KT 2500 HZ SC...\n",
      "[WARNING] [Line 1425] Invalid METAR format: Missing required METAR/SPECI identifier or station code\n",
      "          METAR: 202301301600 METAR VEPT 301600Z 29004KT 2200 BR SCT018 BKN100 21/17 Q1016 NOSIG=...\n",
      "[WARNING] No station code found in METAR: 202301301600 METAR VEPT 301600Z 29004KT 2200 BR SC...\n",
      "[WARNING] [Line 1426] Invalid METAR format: Missing required METAR/SPECI identifier or station code\n",
      "          METAR: 202301301630 METAR VEPT 301630Z 28004KT 2000 BR SCT018 BKN100 21/17 Q1016 NOSIG=...\n",
      "[WARNING] No station code found in METAR: 202301301630 METAR VEPT 301630Z 28004KT 2000 BR SC...\n",
      "[WARNING] [Line 1427] Invalid METAR format: Missing required METAR/SPECI identifier or station code\n",
      "          METAR: 202301301700 METAR VEPT 301700Z 28004KT 1800 BR FEW018 SCT100 21/17 Q1016 NOSIG=...\n",
      "[WARNING] No station code found in METAR: 202301301700 METAR VEPT 301700Z 28004KT 1800 BR FE...\n",
      "[WARNING] [Line 1428] Invalid METAR format: Missing required METAR/SPECI identifier or station code\n",
      "          METAR: 202301301730 METAR VEPT 301730Z 28004KT 1600 BR FEW018 SCT100 20/17 Q1016 NOSIG=...\n",
      "[WARNING] No station code found in METAR: 202301301730 METAR VEPT 301730Z 28004KT 1600 BR FE...\n",
      "[WARNING] [Line 1429] Invalid METAR format: Missing required METAR/SPECI identifier or station code\n",
      "          METAR: 202301301800 METAR VEPT 301800Z 28004KT 1600 BR FEW018 SCT100 20/17 Q1015 NOSIG=...\n",
      "[WARNING] No station code found in METAR: 202301301800 METAR VEPT 301800Z 28004KT 1600 BR FE...\n",
      "[WARNING] [Line 1430] Invalid METAR format: Missing required METAR/SPECI identifier or station code\n",
      "          METAR: 202301301830 METAR VEPT 301830Z 27005KT 1600 BR FEW018 SCT100 19/16 Q1015 BECMG ...\n",
      "[WARNING] No station code found in METAR: 202301301830 METAR VEPT 301830Z 27005KT 1600 BR FE...\n",
      "[WARNING] [Line 1431] Invalid METAR format: Missing required METAR/SPECI identifier or station code\n",
      "          METAR: 202301301900 METAR VEPT 301900Z 27004KT 1500 R25/2000 BR FEW018 SCT100 19/16 Q10...\n",
      "[WARNING] No station code found in METAR: 202301301900 METAR VEPT 301900Z 27004KT 1500 R25/2...\n",
      "[WARNING] [Line 1432] Invalid METAR format: Missing required METAR/SPECI identifier or station code\n",
      "          METAR: 202301301930 METAR VEPT 301930Z 29001KT 1400 R25/2000 BR FEW018 SCT100 19/17 Q10...\n",
      "[WARNING] No station code found in METAR: 202301301930 METAR VEPT 301930Z 29001KT 1400 R25/2...\n",
      "[WARNING] [Line 1433] Invalid METAR format: Missing required METAR/SPECI identifier or station code\n",
      "          METAR: 202301302000 METAR VEPT 302000Z 26005KT 1400 R25/2000 BR SCT018 BKN100 19/17 Q10...\n",
      "[WARNING] No station code found in METAR: 202301302000 METAR VEPT 302000Z 26005KT 1400 R25/2...\n",
      "[WARNING] [Line 1434] Invalid METAR format: Missing required METAR/SPECI identifier or station code\n",
      "          METAR: 202301302030 METAR VEPT 302030Z 26005KT 1300 R25/2000 BR SCT018 BKN100 19/17 Q10...\n",
      "[WARNING] No station code found in METAR: 202301302030 METAR VEPT 302030Z 26005KT 1300 R25/2...\n",
      "[WARNING] [Line 1435] Invalid METAR format: Missing required METAR/SPECI identifier or station code\n",
      "          METAR: 202301302100 METAR VEPT 302100Z 23006KT 1200 R25/2000 MIFG SCT018 BKN100 18/17 Q...\n",
      "[WARNING] No station code found in METAR: 202301302100 METAR VEPT 302100Z 23006KT 1200 R25/2...\n",
      "[WARNING] [Line 1436] Invalid METAR format: Missing required METAR/SPECI identifier or station code\n",
      "          METAR: 202301302130 METAR VEPT 302130Z 23006KT 1200 R25/2000 MIFG SCT018 BKN100 18/17 Q...\n",
      "[WARNING] No station code found in METAR: 202301302130 METAR VEPT 302130Z 23006KT 1200 R25/2...\n",
      "[WARNING] [Line 1437] Invalid METAR format: Missing required METAR/SPECI identifier or station code\n",
      "          METAR: 202301302200 METAR VEPT 302200Z 26006KT 1200 R25/2000 MIFG SCT018 BKN100 18/16 Q...\n",
      "[WARNING] No station code found in METAR: 202301302200 METAR VEPT 302200Z 26006KT 1200 R25/2...\n",
      "[WARNING] [Line 1438] Invalid METAR format: Missing required METAR/SPECI identifier or station code\n",
      "          METAR: 202301302230 METAR VEPT 302230Z 25005KT 1200 R25/2000 MIFG SCT018 BKN100 18/16 Q...\n",
      "[WARNING] No station code found in METAR: 202301302230 METAR VEPT 302230Z 25005KT 1200 R25/2...\n",
      "[WARNING] [Line 1439] Invalid METAR format: Missing required METAR/SPECI identifier or station code\n",
      "          METAR: 202301302300 METAR VEPT 302300Z 24004KT 1100 R25/2000 MIFG SCT018 BKN100 18/16 Q...\n",
      "[WARNING] No station code found in METAR: 202301302300 METAR VEPT 302300Z 24004KT 1100 R25/2...\n",
      "[WARNING] [Line 1440] Invalid METAR format: Missing required METAR/SPECI identifier or station code\n",
      "          METAR: 202301302330 METAR VEPT 302330Z 25004KT 1100 R25/2000 MIFG SCT018 BKN100 18/16 Q...\n",
      "[WARNING] No station code found in METAR: 202301302330 METAR VEPT 302330Z 25004KT 1100 R25/2...\n",
      "[WARNING] [Line 1441] Invalid METAR format: Missing required METAR/SPECI identifier or station code\n",
      "          METAR: 202301310000 METAR VEPT 310000Z 23004KT 1100 R25/2000 MIFG SCT018 BKN100 18/17 Q...\n",
      "[WARNING] No station code found in METAR: 202301310000 METAR VEPT 310000Z 23004KT 1100 R25/2...\n",
      "[WARNING] [Line 1442] Invalid METAR format: Missing required METAR/SPECI identifier or station code\n",
      "          METAR: 202301310030 METAR VEPT 310030Z 23005KT 1000 R25/2000 MIFG SCT018 BKN100 18/17 Q...\n",
      "[WARNING] No station code found in METAR: 202301310030 METAR VEPT 310030Z 23005KT 1000 R25/2...\n",
      "[WARNING] [Line 1443] Invalid METAR format: Missing required METAR/SPECI identifier or station code\n",
      "          METAR: 202301310100 METAR VEPT 310100Z 24004KT 1000 R25/2000 MIFG SCT018 BKN100 18/17 Q...\n",
      "[WARNING] No station code found in METAR: 202301310100 METAR VEPT 310100Z 24004KT 1000 R25/2...\n",
      "[WARNING] [Line 1444] Invalid METAR format: Missing required METAR/SPECI identifier or station code\n",
      "          METAR: 202301310130 METAR VEPT 310130Z 26006KT 1000 R25/1600 MIFG SCT018 BKN100 18/17 Q...\n",
      "[WARNING] No station code found in METAR: 202301310130 METAR VEPT 310130Z 26006KT 1000 R25/1...\n",
      "[WARNING] [Line 1445] Invalid METAR format: Missing required METAR/SPECI identifier or station code\n",
      "          METAR: 202301310200 METAR VEPT 310200Z 26005KT 1100 R25/1400 BR SCT018 BKN100 18/17 Q10...\n",
      "[WARNING] No station code found in METAR: 202301310200 METAR VEPT 310200Z 26005KT 1100 R25/1...\n",
      "[WARNING] [Line 1446] Invalid METAR format: Missing required METAR/SPECI identifier or station code\n",
      "          METAR: 202301310230 METAR VEPT 310230Z 26006KT 1100 R25/1300 BR SCT018 BKN100 19/17 Q10...\n",
      "[WARNING] No station code found in METAR: 202301310230 METAR VEPT 310230Z 26006KT 1100 R25/1...\n",
      "[WARNING] [Line 1447] Invalid METAR format: Missing required METAR/SPECI identifier or station code\n",
      "          METAR: 202301310300 METAR VEPT 310300Z 27008KT 1100 R25/1200 BR SCT018 BKN100 19/17 Q10...\n",
      "[WARNING] No station code found in METAR: 202301310300 METAR VEPT 310300Z 27008KT 1100 R25/1...\n",
      "[WARNING] [Line 1448] Invalid METAR format: Missing required METAR/SPECI identifier or station code\n",
      "          METAR: 202301310330 METAR VEPT 310330Z 28009KT 1200 R25/1300 BR FEW018 SCT100 19/16 Q10...\n",
      "[WARNING] No station code found in METAR: 202301310330 METAR VEPT 310330Z 28009KT 1200 R25/1...\n",
      "[WARNING] [Line 1449] Invalid METAR format: Missing required METAR/SPECI identifier or station code\n",
      "          METAR: 202301310400 METAR VEPT 310400Z 28008KT 1600 BR SCT100 21/16 Q1016 NOSIG=...\n",
      "[WARNING] No station code found in METAR: 202301310400 METAR VEPT 310400Z 28008KT 1600 BR SC...\n",
      "[WARNING] [Line 1450] Invalid METAR format: Missing required METAR/SPECI identifier or station code\n",
      "          METAR: 202301310430 METAR VEPT 310430Z 29009KT 1600 HZ SCT100 22/17 Q1016 NOSIG=...\n",
      "[WARNING] No station code found in METAR: 202301310430 METAR VEPT 310430Z 29009KT 1600 HZ SC...\n",
      "[WARNING] [Line 1451] Invalid METAR format: Missing required METAR/SPECI identifier or station code\n",
      "          METAR: 202301310500 METAR VEPT 310500Z 30009KT 2000 HZ FEW100 23/16 Q1016 NOSIG=...\n",
      "[WARNING] No station code found in METAR: 202301310500 METAR VEPT 310500Z 30009KT 2000 HZ FE...\n",
      "[WARNING] [Line 1452] Invalid METAR format: Missing required METAR/SPECI identifier or station code\n",
      "          METAR: 202301310530 METAR VEPT 310530Z 29007KT 2000 HZ NSC 24/16 Q1015 NOSIG=...\n",
      "[WARNING] No station code found in METAR: 202301310530 METAR VEPT 310530Z 29007KT 2000 HZ NS...\n",
      "[WARNING] [Line 1453] Invalid METAR format: Missing required METAR/SPECI identifier or station code\n",
      "          METAR: 202301310600 METAR VEPT 310600Z 30009KT 2500 HZ NSC 25/16 Q1015 NOSIG=...\n",
      "[WARNING] No station code found in METAR: 202301310600 METAR VEPT 310600Z 30009KT 2500 HZ NS...\n",
      "[WARNING] [Line 1454] Invalid METAR format: Missing required METAR/SPECI identifier or station code\n",
      "          METAR: 202301310630 METAR VEPT 310630Z 30008KT 2500 HZ NSC 25/16 Q1014 BECMG 3000 HZ=...\n",
      "[WARNING] No station code found in METAR: 202301310630 METAR VEPT 310630Z 30008KT 2500 HZ NS...\n",
      "[WARNING] [Line 1455] Invalid METAR format: Missing required METAR/SPECI identifier or station code\n",
      "          METAR: 202301310700 METAR VEPT 310700Z 29009KT 3000 HZ FEW100 26/16 Q1014 NOSIG=...\n",
      "[WARNING] No station code found in METAR: 202301310700 METAR VEPT 310700Z 29009KT 3000 HZ FE...\n",
      "[WARNING] [Line 1456] Invalid METAR format: Missing required METAR/SPECI identifier or station code\n",
      "          METAR: 202301310730 METAR VEPT 310730Z 28009KT 3500 HZ FEW100 26/16 Q1013 NOSIG=...\n",
      "[WARNING] No station code found in METAR: 202301310730 METAR VEPT 310730Z 28009KT 3500 HZ FE...\n",
      "[WARNING] [Line 1457] Invalid METAR format: Missing required METAR/SPECI identifier or station code\n",
      "          METAR: 202301310800 METAR VEPT 310800Z 26010KT 4000 HZ FEW100 26/16 Q1013 NOSIG=...\n",
      "[WARNING] No station code found in METAR: 202301310800 METAR VEPT 310800Z 26010KT 4000 HZ FE...\n",
      "[WARNING] [Line 1458] Invalid METAR format: Missing required METAR/SPECI identifier or station code\n",
      "          METAR: 202301310830 METAR VEPT 310830Z 26008KT 4000 HZ FEW100 27/16 Q1012 NOSIG=...\n",
      "[WARNING] No station code found in METAR: 202301310830 METAR VEPT 310830Z 26008KT 4000 HZ FE...\n",
      "[WARNING] [Line 1459] Invalid METAR format: Missing required METAR/SPECI identifier or station code\n",
      "          METAR: 202301310900 METAR VEPT 310900Z 25006KT 4000 HZ FEW100 28/17 Q1012 NOSIG=...\n",
      "[WARNING] No station code found in METAR: 202301310900 METAR VEPT 310900Z 25006KT 4000 HZ FE...\n",
      "[WARNING] [Line 1460] Invalid METAR format: Missing required METAR/SPECI identifier or station code\n",
      "          METAR: 202301310930 METAR VEPT 310930Z 29007KT 4000 HZ FEW100 26/16 Q1012 NOSIG=...\n",
      "[WARNING] No station code found in METAR: 202301310930 METAR VEPT 310930Z 29007KT 4000 HZ FE...\n",
      "[WARNING] [Line 1461] Invalid METAR format: Missing required METAR/SPECI identifier or station code\n",
      "          METAR: 202301311000 METAR VEPT 311000Z 26006KT 4000 HZ NSC 26/17 Q1011 NOSIG=...\n",
      "[WARNING] No station code found in METAR: 202301311000 METAR VEPT 311000Z 26006KT 4000 HZ NS...\n",
      "[WARNING] [Line 1462] Invalid METAR format: Missing required METAR/SPECI identifier or station code\n",
      "          METAR: 202301311030 METAR VEPT 311030Z 26010KT 4000 HZ NSC 26/17 Q1011 NOSIG=...\n",
      "[WARNING] No station code found in METAR: 202301311030 METAR VEPT 311030Z 26010KT 4000 HZ NS...\n",
      "[WARNING] [Line 1463] Invalid METAR format: Missing required METAR/SPECI identifier or station code\n",
      "          METAR: 202301311100 METAR VEPT 311100Z 26005KT 4000 HZ NSC 26/17 Q1011 NOSIG=...\n",
      "[WARNING] No station code found in METAR: 202301311100 METAR VEPT 311100Z 26005KT 4000 HZ NS...\n",
      "[WARNING] [Line 1464] Invalid METAR format: Missing required METAR/SPECI identifier or station code\n",
      "          METAR: 202301311130 METAR VEPT 311130Z 25005KT 3500 HZ NSC 25/17 Q1011 BECMG 3000 HZ=...\n",
      "[WARNING] No station code found in METAR: 202301311130 METAR VEPT 311130Z 25005KT 3500 HZ NS...\n",
      "[WARNING] [Line 1465] Invalid METAR format: Missing required METAR/SPECI identifier or station code\n",
      "          METAR: 202301311200 METAR COR VEPT 311200Z 27003KT 3000 HZ NSC 25/18 Q1012 NOSIG=...\n",
      "[WARNING] No station code found in METAR: 202301311200 METAR COR VEPT 311200Z 27003KT 3000 H...\n",
      "[WARNING] [Line 1466] Invalid METAR format: Missing required METAR/SPECI identifier or station code\n",
      "          METAR: 202301311230 METAR VEPT 311230Z 26004KT 3000 HZ NSC 24/18 Q1012 NOSIG=...\n",
      "[WARNING] No station code found in METAR: 202301311230 METAR VEPT 311230Z 26004KT 3000 HZ NS...\n",
      "[WARNING] [Line 1467] Invalid METAR format: Missing required METAR/SPECI identifier or station code\n",
      "          METAR: 202301311300 METAR VEPT 311300Z 25003KT 3000 HZ NSC 24/18 Q1012 NOSIG=...\n",
      "[WARNING] No station code found in METAR: 202301311300 METAR VEPT 311300Z 25003KT 3000 HZ NS...\n",
      "[WARNING] [Line 1468] Invalid METAR format: Missing required METAR/SPECI identifier or station code\n",
      "          METAR: 202301311330 METAR VEPT 311330Z 25002KT 3000 BR NSC 23/18 Q1013 NOSIG=...\n",
      "[WARNING] No station code found in METAR: 202301311330 METAR VEPT 311330Z 25002KT 3000 BR NS...\n",
      "[WARNING] [Line 1469] Invalid METAR format: Missing required METAR/SPECI identifier or station code\n",
      "          METAR: 202301311400 METAR VEPT 311400Z 28005KT 3000 BR NSC 23/18 Q1013 NOSIG=...\n",
      "[WARNING] No station code found in METAR: 202301311400 METAR VEPT 311400Z 28005KT 3000 BR NS...\n",
      "[WARNING] [Line 1470] Invalid METAR format: Missing required METAR/SPECI identifier or station code\n",
      "          METAR: 202301311430 METAR VEPT 311430Z 28005KT 3000 BR NSC 23/18 Q1013 NOSIG=...\n",
      "[WARNING] No station code found in METAR: 202301311430 METAR VEPT 311430Z 28005KT 3000 BR NS...\n",
      "[WARNING] [Line 1471] Invalid METAR format: Missing required METAR/SPECI identifier or station code\n",
      "          METAR: 202301311500 METAR VEPT 311500Z 28005KT 2500 BR NSC 22/18 Q1013 NOSIG=...\n",
      "[WARNING] No station code found in METAR: 202301311500 METAR VEPT 311500Z 28005KT 2500 BR NS...\n",
      "[WARNING] [Line 1472] Invalid METAR format: Missing required METAR/SPECI identifier or station code\n",
      "          METAR: 202301311530 METAR VEPT 311530Z 28005KT 2500 BR NSC 22/17 Q1014 NOSIG=...\n",
      "[WARNING] No station code found in METAR: 202301311530 METAR VEPT 311530Z 28005KT 2500 BR NS...\n",
      "[WARNING] [Line 1473] Invalid METAR format: Missing required METAR/SPECI identifier or station code\n",
      "          METAR: 202301311600 METAR VEPT 311600Z 28005KT 2500 BR NSC 22/18 Q1014 NOSIG=...\n",
      "[WARNING] No station code found in METAR: 202301311600 METAR VEPT 311600Z 28005KT 2500 BR NS...\n",
      "[WARNING] [Line 1474] Invalid METAR format: Missing required METAR/SPECI identifier or station code\n",
      "          METAR: 202301311630 METAR VEPT 311630Z 28005KT 2500 BR NSC 22/18 Q1014 NOSIG=...\n",
      "[WARNING] No station code found in METAR: 202301311630 METAR VEPT 311630Z 28005KT 2500 BR NS...\n",
      "[WARNING] [Line 1475] Invalid METAR format: Missing required METAR/SPECI identifier or station code\n",
      "          METAR: 202301311700 METAR VEPT 311700Z 27005KT 2500 BR NSC 21/18 Q1014 NOSIG=...\n",
      "[WARNING] No station code found in METAR: 202301311700 METAR VEPT 311700Z 27005KT 2500 BR NS...\n",
      "[WARNING] [Line 1476] Invalid METAR format: Missing required METAR/SPECI identifier or station code\n",
      "          METAR: 202301311730 METAR VEPT 311730Z 27005KT 2500 BR NSC 21/18 Q1014 NOSIG=...\n",
      "[WARNING] No station code found in METAR: 202301311730 METAR VEPT 311730Z 27005KT 2500 BR NS...\n",
      "[WARNING] [Line 1477] Invalid METAR format: Missing required METAR/SPECI identifier or station code\n",
      "          METAR: 202301311800 METAR VEPT 311800Z 27005KT 2000 BR NSC 21/18 Q1014 NOSIG=...\n",
      "[WARNING] No station code found in METAR: 202301311800 METAR VEPT 311800Z 27005KT 2000 BR NS...\n",
      "[WARNING] [Line 1478] Invalid METAR format: Missing required METAR/SPECI identifier or station code\n",
      "          METAR: 202301311830 METAR VEPT 311830Z 27005KT 2000 BR NSC 20/18 Q1014 NOSIG=...\n",
      "[WARNING] No station code found in METAR: 202301311830 METAR VEPT 311830Z 27005KT 2000 BR NS...\n",
      "[WARNING] [Line 1479] Invalid METAR format: Missing required METAR/SPECI identifier or station code\n",
      "          METAR: 202301311900 METAR VEPT 311900Z 27005KT 2000 BR NSC 20/18 Q1014 NOSIG=...\n",
      "[WARNING] No station code found in METAR: 202301311900 METAR VEPT 311900Z 27005KT 2000 BR NS...\n",
      "[WARNING] [Line 1480] Invalid METAR format: Missing required METAR/SPECI identifier or station code\n",
      "          METAR: 202301311930 METAR VEPT 311930Z 27005KT 2000 BR NSC 20/18 Q1014 NOSIG=...\n",
      "[WARNING] No station code found in METAR: 202301311930 METAR VEPT 311930Z 27005KT 2000 BR NS...\n",
      "[WARNING] [Line 1481] Invalid METAR format: Missing required METAR/SPECI identifier or station code\n",
      "          METAR: 202301312000 METAR VEPT 312000Z 27007KT 2000 BR NSC 19/17 Q1014 NOSIG=...\n",
      "[WARNING] No station code found in METAR: 202301312000 METAR VEPT 312000Z 27007KT 2000 BR NS...\n",
      "[WARNING] [Line 1482] Invalid METAR format: Missing required METAR/SPECI identifier or station code\n",
      "          METAR: 202301312030 METAR VEPT 312030Z 27007KT 2000 BR NSC 19/17 Q1013 NOSIG=...\n",
      "[WARNING] No station code found in METAR: 202301312030 METAR VEPT 312030Z 27007KT 2000 BR NS...\n",
      "[WARNING] [Line 1483] Invalid METAR format: Missing required METAR/SPECI identifier or station code\n",
      "          METAR: 202301312100 METAR VEPT 312100Z 27007KT 2000 BR NSC 18/17 Q1013 NOSIG=...\n",
      "[WARNING] No station code found in METAR: 202301312100 METAR VEPT 312100Z 27007KT 2000 BR NS...\n",
      "[WARNING] [Line 1484] Invalid METAR format: Missing required METAR/SPECI identifier or station code\n",
      "          METAR: 202301312130 METAR VEPT 312130Z 27007KT 2000 BR NSC 18/17 Q1013 NOSIG=...\n",
      "[WARNING] No station code found in METAR: 202301312130 METAR VEPT 312130Z 27007KT 2000 BR NS...\n",
      "[WARNING] [Line 1485] Invalid METAR format: Missing required METAR/SPECI identifier or station code\n",
      "          METAR: 202301312200 METAR VEPT 312200Z 27007KT 2000 BR NSC 18/17 Q1013 NOSIG=...\n",
      "[WARNING] No station code found in METAR: 202301312200 METAR VEPT 312200Z 27007KT 2000 BR NS...\n",
      "[WARNING] [Line 1486] Invalid METAR format: Missing required METAR/SPECI identifier or station code\n",
      "          METAR: 202301312230 METAR VEPT 312230Z 26005KT 2000 BR NSC 18/17 Q1013 NOSIG=...\n",
      "[WARNING] No station code found in METAR: 202301312230 METAR VEPT 312230Z 26005KT 2000 BR NS...\n",
      "[WARNING] [Line 1487] Invalid METAR format: Missing required METAR/SPECI identifier or station code\n",
      "          METAR: 202301312300 METAR VEPT 312300Z 26008KT 2000 BR NSC 17/16 Q1013 NOSIG=...\n",
      "[WARNING] No station code found in METAR: 202301312300 METAR VEPT 312300Z 26008KT 2000 BR NS...\n",
      "[WARNING] [Line 1488] Invalid METAR format: Missing required METAR/SPECI identifier or station code\n",
      "          METAR: 202301312330 METAR VEPT 312330Z 26009KT 2000 BR NSC 17/16 Q1013 BECMG 1500 BR=...\n",
      "[WARNING] No station code found in METAR: 202301312330 METAR VEPT 312330Z 26009KT 2000 BR NS...\n",
      "[WARNING] [Line 1489] Invalid METAR format: Missing required METAR/SPECI identifier or station code\n",
      "          METAR: 202512230500 METAR VEPT 230500Z 24005KT 0350 R25/0600 R07/0600 FG VV/// 12/11 Q1...\n",
      "[WARNING] No station code found in METAR: 202512230500 METAR VEPT 230500Z 24005KT 0350 R25/0...\n",
      "\n",
      "[STEP 3] Creating DataFrame...\n",
      "[STEP 4] Saving decoded METARs to CSV...\n",
      "\n",
      "======================================================================\n",
      "DECODING COMPLETE\n",
      "======================================================================\n",
      "Input file:        J:\\Anand's Research\\TAF Veri\\PATNA\\METAR\\2023\\1.txt\n",
      "Output file:       J:\\Anand's Research\\TAF Veri\\PATNA\\METAR\\2023\\1.csv\n",
      "Total METARs:      1489\n",
      "  ✓ Successful:    0\n",
      "  ⚠ Warnings:      1489\n",
      "  ✗ Errors:        0\n",
      "Total rows saved:  1489\n",
      "======================================================================\n",
      "\n",
      "DATA STATISTICS:\n",
      "  Unique stations: 0\n",
      "  Date range:      2023-01-01 00:00:00 to 2023-01-31 23:30:00\n",
      "\n",
      "  Missing values:\n",
      "    STATION: 1489 (100.0%)\n",
      "    WIND_GUST: 1489 (100.0%)\n",
      "    CLOUDS: 925 (62.1%)\n",
      "    WX1_INT: 2 (0.1%)\n",
      "    WX1_DESC: 2 (0.1%)\n",
      "    WX1_PHEN: 2 (0.1%)\n",
      "    WX2_INT: 1307 (87.8%)\n",
      "    WX2_DESC: 1307 (87.8%)\n",
      "    WX2_PHEN: 1307 (87.8%)\n",
      "\n",
      "[SUCCESS] Process completed successfully!\n"
     ]
    }
   ],
   "source": [
    "# =====================================================================\n",
    "#   METAR DECODER - Enhanced with Error Checking\n",
    "# =====================================================================\n",
    "import os\n",
    "import re\n",
    "import pandas as pd\n",
    "from datetime import datetime\n",
    "\n",
    "# =====================================================================\n",
    "#   CONFIG\n",
    "# =====================================================================\n",
    "metar_file = r\"J:\\Anand's Research\\TAF Veri\\PATNA\\METAR\\2023\\1.txt\"\n",
    "output_csv = r\"J:\\Anand's Research\\TAF Veri\\PATNA\\METAR\\2023\\1.csv\"\n",
    "\n",
    "# =====================================================================\n",
    "#   READ METAR FILE\n",
    "# =====================================================================\n",
    "def read_metar_file(filepath):\n",
    "    \"\"\"Read METAR file with validation and error handling.\"\"\"\n",
    "    if not os.path.exists(filepath):\n",
    "        raise FileNotFoundError(f\"METAR file not found: {filepath}\")\n",
    "    \n",
    "    if not os.path.isfile(filepath):\n",
    "        raise ValueError(f\"Path is not a file: {filepath}\")\n",
    "    \n",
    "    try:\n",
    "        with open(filepath, \"r\", encoding=\"utf-8\") as f:\n",
    "            lines = [line.strip() for line in f.readlines() if line.strip()]\n",
    "    except UnicodeDecodeError:\n",
    "        print(\"[WARNING] UTF-8 decode failed, trying with 'latin-1' encoding\")\n",
    "        with open(filepath, \"r\", encoding=\"latin-1\") as f:\n",
    "            lines = [line.strip() for line in f.readlines() if line.strip()]\n",
    "    \n",
    "    if not lines:\n",
    "        raise ValueError(f\"METAR file is empty or contains no valid lines: {filepath}\")\n",
    "    \n",
    "    print(f\"[INFO] Successfully read {len(lines)} METAR line(s) from file\")\n",
    "    return lines\n",
    "\n",
    "# =====================================================================\n",
    "#   METAR DECODER FUNCTIONS\n",
    "# =====================================================================\n",
    "\n",
    "def decode_station(text):\n",
    "    \"\"\"Extract station identifier (ICAO code) from METAR.\"\"\"\n",
    "    if not text or not isinstance(text, str):\n",
    "        return None\n",
    "    \n",
    "    m = re.search(r\"^(METAR|SPECI)?\\s*([A-Z]{4})\", text)\n",
    "    if m:\n",
    "        station = m.group(2)\n",
    "        if len(station) != 4:\n",
    "            print(f\"[WARNING] Invalid station code length: {station}\")\n",
    "        return station\n",
    "    \n",
    "    print(f\"[WARNING] No station code found in METAR: {text[:50]}...\")\n",
    "    return None\n",
    "\n",
    "\n",
    "def decode_datetime(text):\n",
    "    \"\"\"Extract observation datetime from METAR.\"\"\"\n",
    "    if not text or not isinstance(text, str):\n",
    "        return None\n",
    "    \n",
    "    m = re.search(r\"\\b(\\d{2})(\\d{2})(\\d{2})Z\\b\", text)\n",
    "    if not m:\n",
    "        print(f\"[WARNING] No valid datetime found in METAR: {text[:50]}...\")\n",
    "        return None\n",
    "\n",
    "    day = int(m.group(1))\n",
    "    hour = int(m.group(2))\n",
    "    minute = int(m.group(3))\n",
    "    \n",
    "    # Validate day, hour, minute\n",
    "    if not (1 <= day <= 31):\n",
    "        print(f\"[WARNING] Invalid day in METAR datetime: {day}\")\n",
    "        return None\n",
    "    if not (0 <= hour <= 23):\n",
    "        print(f\"[WARNING] Invalid hour in METAR datetime: {hour}\")\n",
    "        return None\n",
    "    if not (0 <= minute <= 59):\n",
    "        print(f\"[WARNING] Invalid minute in METAR datetime: {minute}\")\n",
    "        return None\n",
    "    \n",
    "    try:\n",
    "        # Month and year fixed for January 2023\n",
    "        return datetime(2023, 1, day, hour, minute)\n",
    "    except ValueError as e:\n",
    "        print(f\"[WARNING] Failed to create datetime: {e}\")\n",
    "        return None\n",
    "\n",
    "\n",
    "def decode_wind(text):\n",
    "    \"\"\"Extract wind direction, speed, and gust from METAR.\"\"\"\n",
    "    if not text or not isinstance(text, str):\n",
    "        return None, None, None\n",
    "    \n",
    "    m = re.search(r\"\\b((\\d{3})|VRB)(\\d{2,3})(G(\\d{2,3}))?KT\\b\", text)\n",
    "    if not m:\n",
    "        return None, None, None\n",
    "\n",
    "    direction = m.group(1)\n",
    "    speed = m.group(3)\n",
    "    gust = m.group(5) if m.group(5) else None\n",
    "    \n",
    "    # Validate wind direction (if not VRB)\n",
    "    if direction != \"VRB\":\n",
    "        wind_dir_int = int(direction)\n",
    "        if not (0 <= wind_dir_int <= 360):\n",
    "            print(f\"[WARNING] Invalid wind direction: {wind_dir_int}°\")\n",
    "    \n",
    "    # Validate wind speed\n",
    "    speed_int = int(speed)\n",
    "    if speed_int > 150:\n",
    "        print(f\"[WARNING] Unusually high wind speed: {speed_int} KT\")\n",
    "    \n",
    "    # Validate gust\n",
    "    if gust:\n",
    "        gust_int = int(gust)\n",
    "        if gust_int > 200:\n",
    "            print(f\"[WARNING] Unusually high wind gust: {gust_int} KT\")\n",
    "        if speed_int > 0 and gust_int <= speed_int:\n",
    "            print(f\"[WARNING] Gust speed ({gust_int}) not greater than wind speed ({speed_int})\")\n",
    "\n",
    "    return direction, speed, gust\n",
    "\n",
    "\n",
    "def decode_visibility(text):\n",
    "    \"\"\"Extract visibility in meters from METAR.\"\"\"\n",
    "    if not text or not isinstance(text, str):\n",
    "        return None\n",
    "    \n",
    "    # Look for 4-digit visibility\n",
    "    m = re.search(r\"\\b(\\d{4})\\b\", text)\n",
    "    if m:\n",
    "        vis = int(m.group(1))\n",
    "        if vis > 9999:\n",
    "            print(f\"[WARNING] Visibility exceeds maximum reporting value: {vis} m\")\n",
    "        return f\"{m.group(1)} m\"\n",
    "    \n",
    "    return None\n",
    "\n",
    "\n",
    "def decode_weather_groups(text):\n",
    "    \"\"\"Extract weather phenomena (intensity, descriptor, phenomenon).\"\"\"\n",
    "    if not text or not isinstance(text, str):\n",
    "        return {}\n",
    "    \n",
    "    # Pattern for weather groups: [intensity][descriptor][phenomenon]\n",
    "    pattern = r\"(\\+|\\-|\\bVC)?(TS|SH|FZ|BL|DR|MI|PR|BC)?(DZ|RA|SN|SG|IC|PL|GR|GS|UP|BR|FG|FU|VA|DU|SA|HZ|PY|PO|SQ|FC|SS|DS)\"\n",
    "    matches = re.findall(pattern, text)\n",
    "\n",
    "    if not matches:\n",
    "        return {}\n",
    "    \n",
    "    wx = {}\n",
    "    for i, (inten, desc, phen) in enumerate(matches):\n",
    "        idx = i + 1\n",
    "        wx[f\"WX{idx}_INT\"] = inten if inten else \"\"\n",
    "        wx[f\"WX{idx}_DESC\"] = desc if desc else \"\"\n",
    "        wx[f\"WX{idx}_PHEN\"] = phen\n",
    "        \n",
    "        # Validate combinations\n",
    "        if not phen:\n",
    "            print(f\"[WARNING] Weather group {idx} missing phenomenon\")\n",
    "\n",
    "    return wx\n",
    "\n",
    "\n",
    "def decode_clouds(text):\n",
    "    \"\"\"Extract cloud layer information from METAR.\"\"\"\n",
    "    if not text or not isinstance(text, str):\n",
    "        return None\n",
    "    \n",
    "    clouds = re.findall(r\"\\b(FEW|SCT|BKN|OVC)(\\d{3})(CB|TCU)?\\b\", text)\n",
    "    \n",
    "    if clouds:\n",
    "        cloud_list = []\n",
    "        for amount, height, type_code in clouds:\n",
    "            cloud_str = amount + height\n",
    "            if type_code:\n",
    "                cloud_str += type_code\n",
    "            cloud_list.append(cloud_str)\n",
    "            \n",
    "            # Validate cloud height\n",
    "            height_int = int(height)\n",
    "            if height_int > 500:\n",
    "                print(f\"[WARNING] Unusually high cloud base: {height_int}00 feet\")\n",
    "        \n",
    "        return \", \".join(cloud_list)\n",
    "    \n",
    "    return None\n",
    "\n",
    "\n",
    "def decode_temp_dew(text):\n",
    "    \"\"\"Extract temperature and dewpoint from METAR.\"\"\"\n",
    "    if not text or not isinstance(text, str):\n",
    "        return None, None\n",
    "    \n",
    "    m = re.search(r\"\\b(M?\\d{2})/(M?\\d{2})\\b\", text)\n",
    "    if not m:\n",
    "        return None, None\n",
    "\n",
    "    def convert(val):\n",
    "        \"\"\"Convert temperature string to integer (M prefix = negative).\"\"\"\n",
    "        if not val:\n",
    "            return None\n",
    "        return -int(val[1:]) if val.startswith('M') else int(val)\n",
    "\n",
    "    temp = convert(m.group(1))\n",
    "    dewpoint = convert(m.group(2))\n",
    "    \n",
    "    # Validate temperature range\n",
    "    if temp is not None:\n",
    "        if temp < -80 or temp > 60:\n",
    "            print(f\"[WARNING] Temperature outside normal range: {temp}°C\")\n",
    "    \n",
    "    if dewpoint is not None:\n",
    "        if dewpoint < -80 or dewpoint > 50:\n",
    "            print(f\"[WARNING] Dewpoint outside normal range: {dewpoint}°C\")\n",
    "    \n",
    "    # Validate dewpoint <= temperature\n",
    "    if temp is not None and dewpoint is not None:\n",
    "        if dewpoint > temp:\n",
    "            print(f\"[WARNING] Dewpoint ({dewpoint}°C) greater than temperature ({temp}°C)\")\n",
    "    \n",
    "    return temp, dewpoint\n",
    "\n",
    "\n",
    "def decode_pressure(text):\n",
    "    \"\"\"Extract QNH pressure from METAR.\"\"\"\n",
    "    if not text or not isinstance(text, str):\n",
    "        return None\n",
    "    \n",
    "    m = re.search(r\"\\bQ(\\d{4})\\b\", text)\n",
    "    if m:\n",
    "        pressure = int(m.group(1))\n",
    "        \n",
    "        # Validate pressure range (typical range: 950-1050 hPa)\n",
    "        if pressure < 900 or pressure > 1100:\n",
    "            print(f\"[WARNING] Pressure outside normal range: {pressure} hPa\")\n",
    "        \n",
    "        return pressure\n",
    "    \n",
    "    return None\n",
    "\n",
    "\n",
    "def validate_metar_format(metar):\n",
    "    \"\"\"Perform basic validation on METAR format.\"\"\"\n",
    "    if not metar or not isinstance(metar, str):\n",
    "        return False, \"Empty or invalid METAR text\"\n",
    "    \n",
    "    if len(metar) < 20:\n",
    "        return False, f\"METAR too short (length: {len(metar)})\"\n",
    "    \n",
    "    # Check for METAR or SPECI identifier\n",
    "    if not re.search(r\"^(METAR|SPECI)\\s+[A-Z]{4}\", metar):\n",
    "        # Some METARs may not have METAR/SPECI prefix\n",
    "        if not re.search(r\"^[A-Z]{4}\\s+\\d{6}Z\", metar):\n",
    "            return False, \"Missing required METAR/SPECI identifier or station code\"\n",
    "    \n",
    "    # Check for datetime group\n",
    "    if not re.search(r\"\\d{6}Z\", metar):\n",
    "        return False, \"Missing datetime group (DDHHMM Z)\"\n",
    "    \n",
    "    return True, \"Valid format\"\n",
    "\n",
    "# =====================================================================\n",
    "#   DECODE A SINGLE METAR\n",
    "# =====================================================================\n",
    "def decode_metar(metar, line_number=None):\n",
    "    \"\"\"Decode a single METAR report with comprehensive error handling.\"\"\"\n",
    "    \n",
    "    # Validate METAR format\n",
    "    is_valid, msg = validate_metar_format(metar)\n",
    "    if not is_valid:\n",
    "        prefix = f\"[Line {line_number}] \" if line_number else \"\"\n",
    "        print(f\"[WARNING] {prefix}Invalid METAR format: {msg}\")\n",
    "        print(f\"          METAR: {metar[:80]}...\")\n",
    "    \n",
    "    # Extract all components\n",
    "    try:\n",
    "        wind_dir, wind_speed, wind_gust = decode_wind(metar)\n",
    "        temp, dewpoint = decode_temp_dew(metar)\n",
    "        \n",
    "        decoded = {\n",
    "            \"RAW_METAR\": metar,\n",
    "            \"STATION\": decode_station(metar),\n",
    "            \"DATETIME\": decode_datetime(metar),\n",
    "            \"WIND_DIR\": wind_dir,\n",
    "            \"WIND_SPEED\": wind_speed,\n",
    "            \"WIND_GUST\": wind_gust,\n",
    "            \"VISIBILITY\": decode_visibility(metar),\n",
    "            \"CLOUDS\": decode_clouds(metar),\n",
    "            \"TEMPERATURE\": temp,\n",
    "            \"DEWPOINT\": dewpoint,\n",
    "            \"PRESSURE_QNH\": decode_pressure(metar)\n",
    "        }\n",
    "        \n",
    "        # Add weather groups\n",
    "        decoded.update(decode_weather_groups(metar))\n",
    "        \n",
    "        return decoded\n",
    "        \n",
    "    except Exception as e:\n",
    "        prefix = f\"[Line {line_number}] \" if line_number else \"\"\n",
    "        print(f\"[ERROR] {prefix}Failed to decode METAR: {e}\")\n",
    "        print(f\"        METAR: {metar[:80]}...\")\n",
    "        \n",
    "        # Return minimal decoded structure\n",
    "        return {\n",
    "            \"RAW_METAR\": metar,\n",
    "            \"STATION\": None,\n",
    "            \"DATETIME\": None,\n",
    "            \"WIND_DIR\": None,\n",
    "            \"WIND_SPEED\": None,\n",
    "            \"WIND_GUST\": None,\n",
    "            \"VISIBILITY\": None,\n",
    "            \"CLOUDS\": None,\n",
    "            \"TEMPERATURE\": None,\n",
    "            \"DEWPOINT\": None,\n",
    "            \"PRESSURE_QNH\": None\n",
    "        }\n",
    "\n",
    "# =====================================================================\n",
    "#   MAIN PROCESS\n",
    "# =====================================================================\n",
    "if __name__ == \"__main__\":\n",
    "    print(\"=\" * 70)\n",
    "    print(\"METAR DECODER - Enhanced with Error Checking\")\n",
    "    print(\"=\" * 70)\n",
    "    \n",
    "    try:\n",
    "        # Read METAR file\n",
    "        print(\"\\n[STEP 1] Reading METAR file...\")\n",
    "        metar_list = read_metar_file(metar_file)\n",
    "        print(f\"[INFO] Total METARs loaded: {len(metar_list)}\")\n",
    "        \n",
    "        # Decode all METARs\n",
    "        print(f\"\\n[STEP 2] Decoding {len(metar_list)} METAR report(s)...\")\n",
    "        print(\"-\" * 70)\n",
    "        \n",
    "        decoded_rows = []\n",
    "        success_count = 0\n",
    "        warning_count = 0\n",
    "        error_count = 0\n",
    "        \n",
    "        for i, metar in enumerate(metar_list, start=1):\n",
    "            if i % 100 == 0:\n",
    "                print(f\"[PROGRESS] Processed {i}/{len(metar_list)} METARs...\")\n",
    "            \n",
    "            try:\n",
    "                decoded = decode_metar(metar, line_number=i)\n",
    "                decoded_rows.append(decoded)\n",
    "                \n",
    "                # Check if decoding was successful\n",
    "                if decoded.get('STATION') and decoded.get('DATETIME'):\n",
    "                    success_count += 1\n",
    "                else:\n",
    "                    warning_count += 1\n",
    "                    \n",
    "            except Exception as e:\n",
    "                print(f\"[ERROR] Failed to process METAR #{i}: {e}\")\n",
    "                error_count += 1\n",
    "                # Add empty row to maintain alignment\n",
    "                decoded_rows.append({\n",
    "                    \"RAW_METAR\": metar,\n",
    "                    \"STATION\": None,\n",
    "                    \"DATETIME\": None\n",
    "                })\n",
    "        \n",
    "        # Create DataFrame\n",
    "        print(f\"\\n[STEP 3] Creating DataFrame...\")\n",
    "        df = pd.DataFrame(decoded_rows)\n",
    "        \n",
    "        # Validate DataFrame\n",
    "        if df.empty:\n",
    "            raise ValueError(\"No data to save - all METARs failed to decode\")\n",
    "        \n",
    "        # Check for output directory\n",
    "        output_dir = os.path.dirname(output_csv)\n",
    "        if output_dir and not os.path.exists(output_dir):\n",
    "            print(f\"[INFO] Creating output directory: {output_dir}\")\n",
    "            os.makedirs(output_dir, exist_ok=True)\n",
    "        \n",
    "        # Save to CSV\n",
    "        print(f\"[STEP 4] Saving decoded METARs to CSV...\")\n",
    "        df.to_csv(output_csv, index=False, encoding=\"utf-8\")\n",
    "        \n",
    "        # Summary\n",
    "        print(\"\\n\" + \"=\" * 70)\n",
    "        print(\"DECODING COMPLETE\")\n",
    "        print(\"=\" * 70)\n",
    "        print(f\"Input file:        {metar_file}\")\n",
    "        print(f\"Output file:       {output_csv}\")\n",
    "        print(f\"Total METARs:      {len(metar_list)}\")\n",
    "        print(f\"  ✓ Successful:    {success_count}\")\n",
    "        print(f\"  ⚠ Warnings:      {warning_count}\")\n",
    "        print(f\"  ✗ Errors:        {error_count}\")\n",
    "        print(f\"Total rows saved:  {len(df)}\")\n",
    "        print(\"=\" * 70)\n",
    "        \n",
    "        # Additional statistics\n",
    "        if not df.empty:\n",
    "            print(\"\\nDATA STATISTICS:\")\n",
    "            print(f\"  Unique stations: {df['STATION'].nunique()}\")\n",
    "            print(f\"  Date range:      {df['DATETIME'].min()} to {df['DATETIME'].max()}\")\n",
    "            \n",
    "            # Count missing values\n",
    "            missing = df.isnull().sum()\n",
    "            if missing.sum() > 0:\n",
    "                print(\"\\n  Missing values:\")\n",
    "                for col, count in missing[missing > 0].items():\n",
    "                    if col != 'RAW_METAR':\n",
    "                        print(f\"    {col}: {count} ({count/len(df)*100:.1f}%)\")\n",
    "        \n",
    "        print(\"\\n[SUCCESS] Process completed successfully!\")\n",
    "        \n",
    "    except FileNotFoundError as e:\n",
    "        print(f\"\\n[FATAL ERROR] {e}\")\n",
    "        print(\"Please check the input file path.\")\n",
    "        exit(1)\n",
    "        \n",
    "    except ValueError as e:\n",
    "        print(f\"\\n[FATAL ERROR] {e}\")\n",
    "        exit(1)\n",
    "        \n",
    "    except Exception as e:\n",
    "        print(f\"\\n[FATAL ERROR] Unexpected error: {e}\")\n",
    "        import traceback\n",
    "        traceback.print_exc()\n",
    "        exit(1)"
   ]
  },
  {
   "cell_type": "code",
   "execution_count": 3,
   "id": "90ac5de2-033d-423d-a567-4e4f21bbb484",
   "metadata": {},
   "outputs": [
    {
     "name": "stdout",
     "output_type": "stream",
     "text": [
      "======================================================================\n",
      "METAR DECODER - Enhanced with Error Checking\n",
      "======================================================================\n",
      "\n",
      "[STEP 1] Reading METAR file...\n",
      "[INFO] Successfully read 1489 METAR line(s) from file\n",
      "[INFO] Total METARs loaded: 1489\n",
      "\n",
      "[STEP 2] Decoding 1489 METAR report(s)...\n",
      "----------------------------------------------------------------------\n",
      "[PROGRESS] Processed 100/1489 METARs...\n",
      "[PROGRESS] Processed 200/1489 METARs...\n",
      "[PROGRESS] Processed 300/1489 METARs...\n",
      "[PROGRESS] Processed 400/1489 METARs...\n",
      "[PROGRESS] Processed 500/1489 METARs...\n",
      "[PROGRESS] Processed 600/1489 METARs...\n",
      "[PROGRESS] Processed 700/1489 METARs...\n",
      "[PROGRESS] Processed 800/1489 METARs...\n",
      "[PROGRESS] Processed 900/1489 METARs...\n",
      "[PROGRESS] Processed 1000/1489 METARs...\n",
      "[PROGRESS] Processed 1100/1489 METARs...\n",
      "[PROGRESS] Processed 1200/1489 METARs...\n",
      "[PROGRESS] Processed 1300/1489 METARs...\n",
      "[PROGRESS] Processed 1400/1489 METARs...\n",
      "\n",
      "[STEP 3] Creating DataFrame...\n",
      "[STEP 4] Saving decoded METARs to CSV...\n",
      "\n",
      "======================================================================\n",
      "DECODING COMPLETE\n",
      "======================================================================\n",
      "Input file:        J:\\Anand's Research\\TAF Veri\\PATNA\\METAR\\2023\\1.txt\n",
      "Output file:       J:\\Anand's Research\\TAF Veri\\PATNA\\METAR\\2023\\1.csv\n",
      "Total METARs:      1489\n",
      "  ✓ Successful:    1489\n",
      "  ⚠ Warnings:      0\n",
      "  ✗ Errors:        0\n",
      "Total rows saved:  1489\n",
      "======================================================================\n",
      "\n",
      "DATA STATISTICS:\n",
      "  Unique stations: 1\n",
      "  Date range:      2023-01-01 00:00:00 to 2023-01-31 23:30:00\n",
      "\n",
      "  Missing values:\n",
      "    WIND_GUST: 1489 (100.0%)\n",
      "    CLOUDS: 925 (62.1%)\n",
      "    WX1_INT: 2 (0.1%)\n",
      "    WX1_DESC: 2 (0.1%)\n",
      "    WX1_PHEN: 2 (0.1%)\n",
      "    WX2_INT: 1307 (87.8%)\n",
      "    WX2_DESC: 1307 (87.8%)\n",
      "    WX2_PHEN: 1307 (87.8%)\n",
      "\n",
      "[SUCCESS] Process completed successfully!\n"
     ]
    }
   ],
   "source": [
    "# =====================================================================\n",
    "#   METAR DECODER - Enhanced with Error Checking\n",
    "# =====================================================================\n",
    "import os\n",
    "import re\n",
    "import pandas as pd\n",
    "from datetime import datetime\n",
    "\n",
    "# =====================================================================\n",
    "#   CONFIG\n",
    "# =====================================================================\n",
    "metar_file = r\"J:\\Anand's Research\\TAF Veri\\PATNA\\METAR\\2023\\1.txt\"\n",
    "output_csv = r\"J:\\Anand's Research\\TAF Veri\\PATNA\\METAR\\2023\\1.csv\"\n",
    "\n",
    "# =====================================================================\n",
    "#   READ METAR FILE\n",
    "# =====================================================================\n",
    "def read_metar_file(filepath):\n",
    "    \"\"\"Read METAR file with validation and error handling.\"\"\"\n",
    "    if not os.path.exists(filepath):\n",
    "        raise FileNotFoundError(f\"METAR file not found: {filepath}\")\n",
    "    \n",
    "    if not os.path.isfile(filepath):\n",
    "        raise ValueError(f\"Path is not a file: {filepath}\")\n",
    "    \n",
    "    try:\n",
    "        with open(filepath, \"r\", encoding=\"utf-8\") as f:\n",
    "            lines = [line.strip() for line in f.readlines() if line.strip()]\n",
    "    except UnicodeDecodeError:\n",
    "        print(\"[WARNING] UTF-8 decode failed, trying with 'latin-1' encoding\")\n",
    "        with open(filepath, \"r\", encoding=\"latin-1\") as f:\n",
    "            lines = [line.strip() for line in f.readlines() if line.strip()]\n",
    "    \n",
    "    if not lines:\n",
    "        raise ValueError(f\"METAR file is empty or contains no valid lines: {filepath}\")\n",
    "    \n",
    "    print(f\"[INFO] Successfully read {len(lines)} METAR line(s) from file\")\n",
    "    return lines\n",
    "\n",
    "# =====================================================================\n",
    "#   METAR DECODER FUNCTIONS\n",
    "# =====================================================================\n",
    "\n",
    "def decode_station(text):\n",
    "    \"\"\"Extract station identifier (ICAO code) from METAR.\"\"\"\n",
    "    if not text or not isinstance(text, str):\n",
    "        return None\n",
    "    \n",
    "    # First try: standard format with optional timestamp prefix\n",
    "    # Format: [YYYYMMDDHHMM] [METAR|SPECI] [COR] STATION\n",
    "    m = re.search(r\"(?:\\d{12}\\s+)?(?:METAR|SPECI)?\\s*(?:COR\\s+)?([A-Z]{4})\\s+\\d{6}Z\", text)\n",
    "    if m:\n",
    "        station = m.group(1)\n",
    "        if len(station) != 4:\n",
    "            print(f\"[WARNING] Invalid station code length: {station}\")\n",
    "        return station\n",
    "    \n",
    "    # Second try: simpler pattern\n",
    "    m = re.search(r\"\\b([A-Z]{4})\\s+\\d{6}Z\", text)\n",
    "    if m:\n",
    "        station = m.group(1)\n",
    "        return station\n",
    "    \n",
    "    print(f\"[WARNING] No station code found in METAR: {text[:50]}...\")\n",
    "    return None\n",
    "\n",
    "\n",
    "def decode_datetime(text):\n",
    "    \"\"\"Extract observation datetime from METAR.\"\"\"\n",
    "    if not text or not isinstance(text, str):\n",
    "        return None\n",
    "    \n",
    "    m = re.search(r\"\\b(\\d{2})(\\d{2})(\\d{2})Z\\b\", text)\n",
    "    if not m:\n",
    "        print(f\"[WARNING] No valid datetime found in METAR: {text[:50]}...\")\n",
    "        return None\n",
    "\n",
    "    day = int(m.group(1))\n",
    "    hour = int(m.group(2))\n",
    "    minute = int(m.group(3))\n",
    "    \n",
    "    # Validate day, hour, minute\n",
    "    if not (1 <= day <= 31):\n",
    "        print(f\"[WARNING] Invalid day in METAR datetime: {day}\")\n",
    "        return None\n",
    "    if not (0 <= hour <= 23):\n",
    "        print(f\"[WARNING] Invalid hour in METAR datetime: {hour}\")\n",
    "        return None\n",
    "    if not (0 <= minute <= 59):\n",
    "        print(f\"[WARNING] Invalid minute in METAR datetime: {minute}\")\n",
    "        return None\n",
    "    \n",
    "    try:\n",
    "        # Month and year fixed for January 2023\n",
    "        return datetime(2023, 1, day, hour, minute)\n",
    "    except ValueError as e:\n",
    "        print(f\"[WARNING] Failed to create datetime: {e}\")\n",
    "        return None\n",
    "\n",
    "\n",
    "def decode_wind(text):\n",
    "    \"\"\"Extract wind direction, speed, and gust from METAR.\"\"\"\n",
    "    if not text or not isinstance(text, str):\n",
    "        return None, None, None\n",
    "    \n",
    "    m = re.search(r\"\\b((\\d{3})|VRB)(\\d{2,3})(G(\\d{2,3}))?KT\\b\", text)\n",
    "    if not m:\n",
    "        return None, None, None\n",
    "\n",
    "    direction = m.group(1)\n",
    "    speed = m.group(3)\n",
    "    gust = m.group(5) if m.group(5) else None\n",
    "    \n",
    "    # Validate wind direction (if not VRB)\n",
    "    if direction != \"VRB\":\n",
    "        wind_dir_int = int(direction)\n",
    "        if not (0 <= wind_dir_int <= 360):\n",
    "            print(f\"[WARNING] Invalid wind direction: {wind_dir_int}°\")\n",
    "    \n",
    "    # Validate wind speed\n",
    "    speed_int = int(speed)\n",
    "    if speed_int > 150:\n",
    "        print(f\"[WARNING] Unusually high wind speed: {speed_int} KT\")\n",
    "    \n",
    "    # Validate gust\n",
    "    if gust:\n",
    "        gust_int = int(gust)\n",
    "        if gust_int > 200:\n",
    "            print(f\"[WARNING] Unusually high wind gust: {gust_int} KT\")\n",
    "        if speed_int > 0 and gust_int <= speed_int:\n",
    "            print(f\"[WARNING] Gust speed ({gust_int}) not greater than wind speed ({speed_int})\")\n",
    "\n",
    "    return direction, speed, gust\n",
    "\n",
    "\n",
    "def decode_visibility(text):\n",
    "    \"\"\"Extract visibility in meters from METAR.\"\"\"\n",
    "    if not text or not isinstance(text, str):\n",
    "        return None\n",
    "    \n",
    "    # Look for 4-digit visibility\n",
    "    m = re.search(r\"\\b(\\d{4})\\b\", text)\n",
    "    if m:\n",
    "        vis = int(m.group(1))\n",
    "        if vis > 9999:\n",
    "            print(f\"[WARNING] Visibility exceeds maximum reporting value: {vis} m\")\n",
    "        return f\"{m.group(1)} m\"\n",
    "    \n",
    "    return None\n",
    "\n",
    "\n",
    "def decode_weather_groups(text):\n",
    "    \"\"\"Extract weather phenomena (intensity, descriptor, phenomenon).\"\"\"\n",
    "    if not text or not isinstance(text, str):\n",
    "        return {}\n",
    "    \n",
    "    # Pattern for weather groups: [intensity][descriptor][phenomenon]\n",
    "    pattern = r\"(\\+|\\-|\\bVC)?(TS|SH|FZ|BL|DR|MI|PR|BC)?(DZ|RA|SN|SG|IC|PL|GR|GS|UP|BR|FG|FU|VA|DU|SA|HZ|PY|PO|SQ|FC|SS|DS)\"\n",
    "    matches = re.findall(pattern, text)\n",
    "\n",
    "    if not matches:\n",
    "        return {}\n",
    "    \n",
    "    wx = {}\n",
    "    for i, (inten, desc, phen) in enumerate(matches):\n",
    "        idx = i + 1\n",
    "        wx[f\"WX{idx}_INT\"] = inten if inten else \"\"\n",
    "        wx[f\"WX{idx}_DESC\"] = desc if desc else \"\"\n",
    "        wx[f\"WX{idx}_PHEN\"] = phen\n",
    "        \n",
    "        # Validate combinations\n",
    "        if not phen:\n",
    "            print(f\"[WARNING] Weather group {idx} missing phenomenon\")\n",
    "\n",
    "    return wx\n",
    "\n",
    "\n",
    "def decode_clouds(text):\n",
    "    \"\"\"Extract cloud layer information from METAR.\"\"\"\n",
    "    if not text or not isinstance(text, str):\n",
    "        return None\n",
    "    \n",
    "    clouds = re.findall(r\"\\b(FEW|SCT|BKN|OVC)(\\d{3})(CB|TCU)?\\b\", text)\n",
    "    \n",
    "    if clouds:\n",
    "        cloud_list = []\n",
    "        for amount, height, type_code in clouds:\n",
    "            cloud_str = amount + height\n",
    "            if type_code:\n",
    "                cloud_str += type_code\n",
    "            cloud_list.append(cloud_str)\n",
    "            \n",
    "            # Validate cloud height\n",
    "            height_int = int(height)\n",
    "            if height_int > 500:\n",
    "                print(f\"[WARNING] Unusually high cloud base: {height_int}00 feet\")\n",
    "        \n",
    "        return \", \".join(cloud_list)\n",
    "    \n",
    "    return None\n",
    "\n",
    "\n",
    "def decode_temp_dew(text):\n",
    "    \"\"\"Extract temperature and dewpoint from METAR.\"\"\"\n",
    "    if not text or not isinstance(text, str):\n",
    "        return None, None\n",
    "    \n",
    "    m = re.search(r\"\\b(M?\\d{2})/(M?\\d{2})\\b\", text)\n",
    "    if not m:\n",
    "        return None, None\n",
    "\n",
    "    def convert(val):\n",
    "        \"\"\"Convert temperature string to integer (M prefix = negative).\"\"\"\n",
    "        if not val:\n",
    "            return None\n",
    "        return -int(val[1:]) if val.startswith('M') else int(val)\n",
    "\n",
    "    temp = convert(m.group(1))\n",
    "    dewpoint = convert(m.group(2))\n",
    "    \n",
    "    # Validate temperature range\n",
    "    if temp is not None:\n",
    "        if temp < -80 or temp > 60:\n",
    "            print(f\"[WARNING] Temperature outside normal range: {temp}°C\")\n",
    "    \n",
    "    if dewpoint is not None:\n",
    "        if dewpoint < -80 or dewpoint > 50:\n",
    "            print(f\"[WARNING] Dewpoint outside normal range: {dewpoint}°C\")\n",
    "    \n",
    "    # Validate dewpoint <= temperature\n",
    "    if temp is not None and dewpoint is not None:\n",
    "        if dewpoint > temp:\n",
    "            print(f\"[WARNING] Dewpoint ({dewpoint}°C) greater than temperature ({temp}°C)\")\n",
    "    \n",
    "    return temp, dewpoint\n",
    "\n",
    "\n",
    "def decode_pressure(text):\n",
    "    \"\"\"Extract QNH pressure from METAR.\"\"\"\n",
    "    if not text or not isinstance(text, str):\n",
    "        return None\n",
    "    \n",
    "    m = re.search(r\"\\bQ(\\d{4})\\b\", text)\n",
    "    if m:\n",
    "        pressure = int(m.group(1))\n",
    "        \n",
    "        # Validate pressure range (typical range: 950-1050 hPa)\n",
    "        if pressure < 900 or pressure > 1100:\n",
    "            print(f\"[WARNING] Pressure outside normal range: {pressure} hPa\")\n",
    "        \n",
    "        return pressure\n",
    "    \n",
    "    return None\n",
    "\n",
    "\n",
    "def validate_metar_format(metar):\n",
    "    \"\"\"Perform basic validation on METAR format.\"\"\"\n",
    "    if not metar or not isinstance(metar, str):\n",
    "        return False, \"Empty or invalid METAR text\"\n",
    "    \n",
    "    if len(metar) < 20:\n",
    "        return False, f\"METAR too short (length: {len(metar)})\"\n",
    "    \n",
    "    # Check for datetime group (DDHHMM Z)\n",
    "    if not re.search(r\"\\d{6}Z\", metar):\n",
    "        return False, \"Missing datetime group (DDHHMM Z)\"\n",
    "    \n",
    "    # Check for station code (4 letters before datetime)\n",
    "    # Format: [YYYYMMDDHHMM] [METAR|SPECI] [COR] STATION DDHHMMZ\n",
    "    if not re.search(r\"[A-Z]{4}\\s+\\d{6}Z\", metar):\n",
    "        return False, \"Missing station code or invalid format\"\n",
    "    \n",
    "    return True, \"Valid format\"\n",
    "\n",
    "# =====================================================================\n",
    "#   DECODE A SINGLE METAR\n",
    "# =====================================================================\n",
    "def decode_metar(metar, line_number=None):\n",
    "    \"\"\"Decode a single METAR report with comprehensive error handling.\"\"\"\n",
    "    \n",
    "    # Validate METAR format\n",
    "    is_valid, msg = validate_metar_format(metar)\n",
    "    if not is_valid:\n",
    "        prefix = f\"[Line {line_number}] \" if line_number else \"\"\n",
    "        print(f\"[WARNING] {prefix}Invalid METAR format: {msg}\")\n",
    "        print(f\"          METAR: {metar[:80]}...\")\n",
    "    \n",
    "    # Extract all components\n",
    "    try:\n",
    "        wind_dir, wind_speed, wind_gust = decode_wind(metar)\n",
    "        temp, dewpoint = decode_temp_dew(metar)\n",
    "        \n",
    "        decoded = {\n",
    "            \"RAW_METAR\": metar,\n",
    "            \"STATION\": decode_station(metar),\n",
    "            \"DATETIME\": decode_datetime(metar),\n",
    "            \"WIND_DIR\": wind_dir,\n",
    "            \"WIND_SPEED\": wind_speed,\n",
    "            \"WIND_GUST\": wind_gust,\n",
    "            \"VISIBILITY\": decode_visibility(metar),\n",
    "            \"CLOUDS\": decode_clouds(metar),\n",
    "            \"TEMPERATURE\": temp,\n",
    "            \"DEWPOINT\": dewpoint,\n",
    "            \"PRESSURE_QNH\": decode_pressure(metar)\n",
    "        }\n",
    "        \n",
    "        # Add weather groups\n",
    "        decoded.update(decode_weather_groups(metar))\n",
    "        \n",
    "        return decoded\n",
    "        \n",
    "    except Exception as e:\n",
    "        prefix = f\"[Line {line_number}] \" if line_number else \"\"\n",
    "        print(f\"[ERROR] {prefix}Failed to decode METAR: {e}\")\n",
    "        print(f\"        METAR: {metar[:80]}...\")\n",
    "        \n",
    "        # Return minimal decoded structure\n",
    "        return {\n",
    "            \"RAW_METAR\": metar,\n",
    "            \"STATION\": None,\n",
    "            \"DATETIME\": None,\n",
    "            \"WIND_DIR\": None,\n",
    "            \"WIND_SPEED\": None,\n",
    "            \"WIND_GUST\": None,\n",
    "            \"VISIBILITY\": None,\n",
    "            \"CLOUDS\": None,\n",
    "            \"TEMPERATURE\": None,\n",
    "            \"DEWPOINT\": None,\n",
    "            \"PRESSURE_QNH\": None\n",
    "        }\n",
    "\n",
    "# =====================================================================\n",
    "#   MAIN PROCESS\n",
    "# =====================================================================\n",
    "if __name__ == \"__main__\":\n",
    "    print(\"=\" * 70)\n",
    "    print(\"METAR DECODER - Enhanced with Error Checking\")\n",
    "    print(\"=\" * 70)\n",
    "    \n",
    "    try:\n",
    "        # Read METAR file\n",
    "        print(\"\\n[STEP 1] Reading METAR file...\")\n",
    "        metar_list = read_metar_file(metar_file)\n",
    "        print(f\"[INFO] Total METARs loaded: {len(metar_list)}\")\n",
    "        \n",
    "        # Decode all METARs\n",
    "        print(f\"\\n[STEP 2] Decoding {len(metar_list)} METAR report(s)...\")\n",
    "        print(\"-\" * 70)\n",
    "        \n",
    "        decoded_rows = []\n",
    "        success_count = 0\n",
    "        warning_count = 0\n",
    "        error_count = 0\n",
    "        \n",
    "        for i, metar in enumerate(metar_list, start=1):\n",
    "            if i % 100 == 0:\n",
    "                print(f\"[PROGRESS] Processed {i}/{len(metar_list)} METARs...\")\n",
    "            \n",
    "            try:\n",
    "                decoded = decode_metar(metar, line_number=i)\n",
    "                decoded_rows.append(decoded)\n",
    "                \n",
    "                # Check if decoding was successful\n",
    "                if decoded.get('STATION') and decoded.get('DATETIME'):\n",
    "                    success_count += 1\n",
    "                else:\n",
    "                    warning_count += 1\n",
    "                    \n",
    "            except Exception as e:\n",
    "                print(f\"[ERROR] Failed to process METAR #{i}: {e}\")\n",
    "                error_count += 1\n",
    "                # Add empty row to maintain alignment\n",
    "                decoded_rows.append({\n",
    "                    \"RAW_METAR\": metar,\n",
    "                    \"STATION\": None,\n",
    "                    \"DATETIME\": None\n",
    "                })\n",
    "        \n",
    "        # Create DataFrame\n",
    "        print(f\"\\n[STEP 3] Creating DataFrame...\")\n",
    "        df = pd.DataFrame(decoded_rows)\n",
    "        \n",
    "        # Validate DataFrame\n",
    "        if df.empty:\n",
    "            raise ValueError(\"No data to save - all METARs failed to decode\")\n",
    "        \n",
    "        # Check for output directory\n",
    "        output_dir = os.path.dirname(output_csv)\n",
    "        if output_dir and not os.path.exists(output_dir):\n",
    "            print(f\"[INFO] Creating output directory: {output_dir}\")\n",
    "            os.makedirs(output_dir, exist_ok=True)\n",
    "        \n",
    "        # Save to CSV\n",
    "        print(f\"[STEP 4] Saving decoded METARs to CSV...\")\n",
    "        df.to_csv(output_csv, index=False, encoding=\"utf-8\")\n",
    "        \n",
    "        # Summary\n",
    "        print(\"\\n\" + \"=\" * 70)\n",
    "        print(\"DECODING COMPLETE\")\n",
    "        print(\"=\" * 70)\n",
    "        print(f\"Input file:        {metar_file}\")\n",
    "        print(f\"Output file:       {output_csv}\")\n",
    "        print(f\"Total METARs:      {len(metar_list)}\")\n",
    "        print(f\"  ✓ Successful:    {success_count}\")\n",
    "        print(f\"  ⚠ Warnings:      {warning_count}\")\n",
    "        print(f\"  ✗ Errors:        {error_count}\")\n",
    "        print(f\"Total rows saved:  {len(df)}\")\n",
    "        print(\"=\" * 70)\n",
    "        \n",
    "        # Additional statistics\n",
    "        if not df.empty:\n",
    "            print(\"\\nDATA STATISTICS:\")\n",
    "            print(f\"  Unique stations: {df['STATION'].nunique()}\")\n",
    "            print(f\"  Date range:      {df['DATETIME'].min()} to {df['DATETIME'].max()}\")\n",
    "            \n",
    "            # Count missing values\n",
    "            missing = df.isnull().sum()\n",
    "            if missing.sum() > 0:\n",
    "                print(\"\\n  Missing values:\")\n",
    "                for col, count in missing[missing > 0].items():\n",
    "                    if col != 'RAW_METAR':\n",
    "                        print(f\"    {col}: {count} ({count/len(df)*100:.1f}%)\")\n",
    "        \n",
    "        print(\"\\n[SUCCESS] Process completed successfully!\")\n",
    "        \n",
    "    except FileNotFoundError as e:\n",
    "        print(f\"\\n[FATAL ERROR] {e}\")\n",
    "        print(\"Please check the input file path.\")\n",
    "        exit(1)\n",
    "        \n",
    "    except ValueError as e:\n",
    "        print(f\"\\n[FATAL ERROR] {e}\")\n",
    "        exit(1)\n",
    "        \n",
    "    except Exception as e:\n",
    "        print(f\"\\n[FATAL ERROR] Unexpected error: {e}\")\n",
    "        import traceback\n",
    "        traceback.print_exc()\n",
    "        exit(1)"
   ]
  },
  {
   "cell_type": "code",
   "execution_count": 2,
   "id": "6b4e347d-e334-42bb-899a-4a6231cc7a2a",
   "metadata": {},
   "outputs": [
    {
     "name": "stdout",
     "output_type": "stream",
     "text": [
      "======================================================================\n",
      "TAF VERIFICATION - WMO/ICAO Annex 3 Criteria\n",
      "======================================================================\n",
      "\n",
      "[STEP 1] Loading data files...\n",
      "  TAF records loaded: 6\n",
      "  METAR records loaded: 1489\n",
      "  ✓ All required columns present\n",
      "\n",
      "[STEP 2] Parsing and normalizing data...\n",
      "  TAF periods after datetime parsing: 6\n",
      "  METAR observations after datetime parsing: 1489\n",
      "\n",
      "[STEP 3] Matching METAR observations to TAF periods...\n",
      "----------------------------------------------------------------------\n",
      "\n",
      "  ✓ Completed: 6 TAF periods, 30 total verifications\n",
      "\n",
      "======================================================================\n",
      "VERIFICATION STATISTICS (WMO/ICAO Criteria)\n",
      "======================================================================\n",
      "\n",
      "Total verifications: 30\n",
      "\n",
      "Wind Direction:\n",
      "  Verified: 30 | Accurate: 30 | Accuracy: 100.0%\n",
      "\n",
      "Wind Speed (±10 kt):\n",
      "  Verified: 30 | Accurate: 30 | Accuracy: 100.0%\n",
      "\n",
      "Visibility (ICAO Annex 3 criteria):\n",
      "  Verified: 30 | Accurate: 15 | Accuracy: 50.0%\n",
      "\n",
      "Weather Phenomena (occurrence-based):\n",
      "  Verified: 30 | Accurate: 30 | Accuracy: 100.0%\n",
      "\n",
      "Ceiling (ICAO threshold categories):\n",
      "  Verified: 30 | Accurate: 30 | Accuracy: 100.0%\n",
      "\n",
      "Clouds (amount + height matching):\n",
      "  Verified: 30 | Accurate: 30 | Accuracy: 100.0%\n",
      "\n",
      "----------------------------------------------------------------------\n",
      "OVERALL SUMMARY:\n",
      "  All elements accurate: 15/30 (50.0%)\n",
      "======================================================================\n",
      "\n",
      "[STEP 4] Saving results...\n",
      "  ✓ Results saved to: J:\\Anand's Research\\TAF Veri\\PATNA\\TAF_Verification_Results.csv\n",
      "  Total rows: 30\n",
      "\n",
      "[SUCCESS] TAF verification completed!\n"
     ]
    }
   ],
   "source": [
    "# =========================================================\n",
    "# TAF VERIFICATION - Following WMO/ICAO Annex 3 Criteria\n",
    "# Based on Austro Control TAF Verification Methodology\n",
    "# =========================================================\n",
    "import os\n",
    "import math\n",
    "import pandas as pd\n",
    "import numpy as np\n",
    "from datetime import datetime, timedelta\n",
    "\n",
    "# =========================================================\n",
    "# CONFIG: file paths\n",
    "# =========================================================\n",
    "taf_file = r\"J:\\Anand's Research\\TAF Veri\\PATNA\\LONG TAF\\2023\\Decoded TAF_1\\TAF_1_decoded.csv\"\n",
    "metar_file = r\"J:\\Anand's Research\\TAF Veri\\PATNA\\METAR\\2023\\1.csv\"\n",
    "output_file = r\"J:\\Anand's Research\\TAF Veri\\PATNA\\TAF_Verification_Results.csv\"\n",
    "\n",
    "# =========================================================\n",
    "# WMO/ICAO THRESHOLDS AND CRITERIA\n",
    "# =========================================================\n",
    "\n",
    "# Wind thresholds (knots) - ICAO Annex 3, Appendix 5\n",
    "WIND_SPEED_THRESHOLDS = [7, 15, 25, 35, 45, 55]\n",
    "WIND_DIR_THRESHOLD_DEGREES = 30  # Austro Control uses 30°, ICAO suggests 60°\n",
    "WIND_SPEED_THRESHOLD_MIN = 7  # Minimum speed for direction verification (kt)\n",
    "WIND_SPEED_TOLERANCE = 10  # ±10 kt for wind speed accuracy\n",
    "\n",
    "# Visibility thresholds (meters) - ICAO Annex 3\n",
    "VISIBILITY_THRESHOLDS = [150, 350, 600, 800, 1500, 3000, 5000, 9999]\n",
    "\n",
    "# Cloud ceiling thresholds (feet) - ICAO Annex 3\n",
    "CEILING_THRESHOLDS = [100, 200, 500, 1000, 1500]\n",
    "\n",
    "# Cloud amount hierarchy for matching\n",
    "CLOUD_AMOUNT_ORDER = {\"CLR\": 0, \"SKC\": 0, \"FEW\": 1, \"SCT\": 2, \"BKN\": 3, \"OVC\": 4, \"VV\": 5}\n",
    "\n",
    "# Weather phenomena classes (based on ICAO Annex 3)\n",
    "WEATHER_CLASSES = {\n",
    "    'NSW': 0,      # No significant weather\n",
    "    'FZFG': 1,     # Freezing fog\n",
    "    'RA': 2,       # Moderate/heavy rain (including showers)\n",
    "    'BLSN': 3,     # Drifting/blowing snow\n",
    "    'SN': 4,       # Moderate/heavy snow\n",
    "    'FZRA': 5,     # Freezing rain/drizzle\n",
    "    'TS': 6        # Thunderstorm\n",
    "}\n",
    "\n",
    "# =========================================================\n",
    "# HELPER FUNCTIONS\n",
    "# =========================================================\n",
    "\n",
    "def safe_float(x):\n",
    "    \"\"\"Safely convert to float, return NaN if not possible.\"\"\"\n",
    "    try:\n",
    "        if pd.isna(x):\n",
    "            return np.nan\n",
    "        return float(x)\n",
    "    except (ValueError, TypeError):\n",
    "        return np.nan\n",
    "\n",
    "def safe_int(x):\n",
    "    \"\"\"Safely convert to int, return None if not possible.\"\"\"\n",
    "    try:\n",
    "        if pd.isna(x):\n",
    "            return None\n",
    "        return int(float(x))\n",
    "    except (ValueError, TypeError):\n",
    "        return None\n",
    "\n",
    "# =========================================================\n",
    "# CLOUD PARSING FUNCTIONS\n",
    "# =========================================================\n",
    "\n",
    "def parse_cloud_layer(cloud_str):\n",
    "    \"\"\"\n",
    "    Parse a single cloud layer token like 'BKN030', 'FEW008CB', 'OVC///', 'CLR'.\n",
    "    Returns: (amount, height_feet, convective)\n",
    "    - amount: string like 'BKN', 'OVC', 'CLR', or None\n",
    "    - height_feet: integer height in feet, or None if not available\n",
    "    - convective: True if CB/TCU present, else False\n",
    "    \"\"\"\n",
    "    if not isinstance(cloud_str, str):\n",
    "        return None, None, False\n",
    "    \n",
    "    cloud_str = cloud_str.strip().upper()\n",
    "    if not cloud_str or cloud_str in ('NIL', ''):\n",
    "        return None, None, False\n",
    "    \n",
    "    # Special cases\n",
    "    if cloud_str in ('CLR', 'SKC', 'NSC', 'NCD', 'CAVOK'):\n",
    "        return 'CLR', None, False\n",
    "    \n",
    "    # Vertical visibility (obscured sky)\n",
    "    import re\n",
    "    vv_match = re.match(r'VV(\\d{3})', cloud_str)\n",
    "    if vv_match:\n",
    "        height = int(vv_match.group(1)) * 100  # Convert to feet\n",
    "        return 'VV', height, False\n",
    "    \n",
    "    # Standard cloud layer: AMT + height + optional CB/TCU\n",
    "    # Pattern: (FEW|SCT|BKN|OVC)(\\d{3})(CB|TCU)?\n",
    "    cloud_match = re.match(r'(FEW|SCT|BKN|OVC|NSC|NCD)(\\d{3}|\\/{2,3})(CB|TCU)?', cloud_str)\n",
    "    if cloud_match:\n",
    "        amount = cloud_match.group(1)\n",
    "        height_str = cloud_match.group(2)\n",
    "        convective_type = cloud_match.group(3)\n",
    "        \n",
    "        # Parse height\n",
    "        if '/' in height_str:\n",
    "            height_feet = None  # Height not available\n",
    "        else:\n",
    "            height_feet = int(height_str) * 100\n",
    "        \n",
    "        convective = bool(convective_type)\n",
    "        return amount, height_feet, convective\n",
    "    \n",
    "    # If no pattern matched, try to extract just amount\n",
    "    amt_match = re.match(r'(FEW|SCT|BKN|OVC|VV)', cloud_str)\n",
    "    if amt_match:\n",
    "        return amt_match.group(1), None, False\n",
    "    \n",
    "    return None, None, False\n",
    "\n",
    "def parse_cloud_field(cloud_field):\n",
    "    \"\"\"\n",
    "    Parse TAF or METAR clouds field into list of cloud layers.\n",
    "    Returns: List of tuples [(amount, height_feet, convective), ...]\n",
    "    \"\"\"\n",
    "    if pd.isna(cloud_field):\n",
    "        return []\n",
    "    \n",
    "    # Split by comma or space\n",
    "    cloud_str = str(cloud_field).replace(',', ' ')\n",
    "    tokens = cloud_str.split()\n",
    "    \n",
    "    layers = []\n",
    "    for token in tokens:\n",
    "        amount, height, conv = parse_cloud_layer(token)\n",
    "        if amount:  # Only add if we got a valid amount\n",
    "            layers.append((amount, height, conv))\n",
    "    \n",
    "    return layers\n",
    "\n",
    "def get_ceiling(cloud_layers):\n",
    "    \"\"\"\n",
    "    Get ceiling from cloud layers.\n",
    "    Ceiling is defined as lowest layer with BKN, OVC, or VV.\n",
    "    Returns: height in feet, or None if no ceiling\n",
    "    \"\"\"\n",
    "    if not cloud_layers:\n",
    "        return None\n",
    "    \n",
    "    for amount, height, conv in cloud_layers:\n",
    "        if amount in ('BKN', 'OVC', 'VV'):\n",
    "            return height\n",
    "    \n",
    "    return None\n",
    "\n",
    "def classify_ceiling(height_feet):\n",
    "    \"\"\"\n",
    "    Classify ceiling height into ICAO threshold categories.\n",
    "    Returns: threshold index (0 to len(CEILING_THRESHOLDS))\n",
    "    \"\"\"\n",
    "    if height_feet is None:\n",
    "        return len(CEILING_THRESHOLDS)  # No ceiling = highest category\n",
    "    \n",
    "    for i, threshold in enumerate(CEILING_THRESHOLDS):\n",
    "        if height_feet < threshold:\n",
    "            return i\n",
    "    \n",
    "    return len(CEILING_THRESHOLDS)\n",
    "\n",
    "# =========================================================\n",
    "# VISIBILITY FUNCTIONS\n",
    "# =========================================================\n",
    "\n",
    "def parse_visibility(vis_field):\n",
    "    \"\"\"\n",
    "    Parse visibility field to meters.\n",
    "    Handles: '5000', '5000 m', '9999', 'CAVOK', etc.\n",
    "    \"\"\"\n",
    "    if pd.isna(vis_field):\n",
    "        return None\n",
    "    \n",
    "    vis_str = str(vis_field).upper().strip()\n",
    "    \n",
    "    # CAVOK = visibility 10km or more\n",
    "    if 'CAVOK' in vis_str:\n",
    "        return 10000\n",
    "    \n",
    "    # Extract numeric value\n",
    "    import re\n",
    "    num_match = re.search(r'(\\d+)', vis_str)\n",
    "    if num_match:\n",
    "        vis_m = int(num_match.group(1))\n",
    "        return vis_m\n",
    "    \n",
    "    return None\n",
    "\n",
    "def classify_visibility(vis_meters):\n",
    "    \"\"\"\n",
    "    Classify visibility into ICAO threshold categories.\n",
    "    Returns: threshold index (0 to len(VISIBILITY_THRESHOLDS))\n",
    "    \"\"\"\n",
    "    if vis_meters is None:\n",
    "        return None\n",
    "    \n",
    "    for i, threshold in enumerate(VISIBILITY_THRESHOLDS):\n",
    "        if vis_meters <= threshold:\n",
    "            return i\n",
    "    \n",
    "    return len(VISIBILITY_THRESHOLDS)  # Above all thresholds\n",
    "\n",
    "def visibility_accurate_icao(forecast_m, observed_m):\n",
    "    \"\"\"\n",
    "    Check if visibility forecast is accurate per ICAO Annex 3 Amendment criteria.\n",
    "    - Visibility ≤ 800m: ±200m or ±50%\n",
    "    - Visibility > 800m: ±30% or ±1500m (whichever is greater)\n",
    "    \"\"\"\n",
    "    if forecast_m is None or observed_m is None:\n",
    "        return False\n",
    "    \n",
    "    forecast_m = float(forecast_m)\n",
    "    observed_m = float(observed_m)\n",
    "    \n",
    "    if forecast_m <= 800:\n",
    "        # Use ±200m tolerance\n",
    "        tolerance = 200\n",
    "    else:\n",
    "        # Use ±30% tolerance\n",
    "        tolerance = max(forecast_m * 0.30, 1500)\n",
    "    \n",
    "    return abs(forecast_m - observed_m) <= tolerance\n",
    "\n",
    "# =========================================================\n",
    "# WIND FUNCTIONS\n",
    "# =========================================================\n",
    "\n",
    "def parse_wind_direction(wd_field):\n",
    "    \"\"\"Parse wind direction, handling VRB.\"\"\"\n",
    "    if pd.isna(wd_field):\n",
    "        return None\n",
    "    \n",
    "    wd_str = str(wd_field).upper().strip()\n",
    "    if wd_str == 'VRB':\n",
    "        return 'VRB'\n",
    "    \n",
    "    try:\n",
    "        return int(float(wd_str))\n",
    "    except (ValueError, TypeError):\n",
    "        return None\n",
    "\n",
    "def wind_direction_accurate(forecast_dir, observed_dir, observed_speed):\n",
    "    \"\"\"\n",
    "    Check wind direction accuracy per ICAO criteria.\n",
    "    - Only verify if observed wind speed ≥ threshold (7 kt)\n",
    "    - Allow ±30° deviation (Austro Control) or ±60° (ICAO)\n",
    "    - VRB forecast = always accept\n",
    "    \"\"\"\n",
    "    if observed_speed is None or observed_speed < WIND_SPEED_THRESHOLD_MIN:\n",
    "        return True  # Direction not operationally significant at low speeds\n",
    "    \n",
    "    if forecast_dir is None:\n",
    "        return False\n",
    "    \n",
    "    if forecast_dir == 'VRB':\n",
    "        return True  # VRB forecast is always acceptable\n",
    "    \n",
    "    if observed_dir is None or observed_dir == 'VRB':\n",
    "        return False  # Can't verify against VRB observation\n",
    "    \n",
    "    try:\n",
    "        forecast_dir = float(forecast_dir)\n",
    "        observed_dir = float(observed_dir)\n",
    "    except (ValueError, TypeError):\n",
    "        return False\n",
    "    \n",
    "    # Calculate angular difference\n",
    "    diff = abs(forecast_dir - observed_dir)\n",
    "    if diff > 180:\n",
    "        diff = 360 - diff\n",
    "    \n",
    "    return diff <= WIND_DIR_THRESHOLD_DEGREES\n",
    "\n",
    "def classify_wind_speed(speed_kt):\n",
    "    \"\"\"\n",
    "    Classify wind speed into ICAO threshold categories.\n",
    "    Returns: threshold index (0 to len(WIND_SPEED_THRESHOLDS))\n",
    "    \"\"\"\n",
    "    if speed_kt is None:\n",
    "        return None\n",
    "    \n",
    "    for i, threshold in enumerate(WIND_SPEED_THRESHOLDS):\n",
    "        if speed_kt < threshold:\n",
    "            return i\n",
    "    \n",
    "    return len(WIND_SPEED_THRESHOLDS)\n",
    "\n",
    "def wind_speed_accurate(forecast_kt, observed_kt):\n",
    "    \"\"\"\n",
    "    Check wind speed accuracy: ±10 kt tolerance.\n",
    "    \"\"\"\n",
    "    if forecast_kt is None or observed_kt is None:\n",
    "        return False\n",
    "    \n",
    "    return abs(float(forecast_kt) - float(observed_kt)) <= WIND_SPEED_TOLERANCE\n",
    "\n",
    "# =========================================================\n",
    "# WEATHER PHENOMENA FUNCTIONS\n",
    "# =========================================================\n",
    "\n",
    "def parse_weather_phenomena(wx_field):\n",
    "    \"\"\"\n",
    "    Parse weather phenomena into standardized codes.\n",
    "    Returns: Set of weather codes present\n",
    "    \"\"\"\n",
    "    if pd.isna(wx_field):\n",
    "        return set()\n",
    "    \n",
    "    wx_str = str(wx_field).upper()\n",
    "    \n",
    "    # Check for no significant weather\n",
    "    if wx_str in ('NSW', 'NIL', '', 'NONE'):\n",
    "        return {'NSW'}\n",
    "    \n",
    "    wx_codes = set()\n",
    "    \n",
    "    # Check for significant phenomena\n",
    "    if 'FZFG' in wx_str:\n",
    "        wx_codes.add('FZFG')\n",
    "    if 'FZRA' in wx_str or 'FZDZ' in wx_str:\n",
    "        wx_codes.add('FZRA')\n",
    "    if 'TS' in wx_str:\n",
    "        wx_codes.add('TS')\n",
    "    if 'BLSN' in wx_str or 'DRSN' in wx_str:\n",
    "        wx_codes.add('BLSN')\n",
    "    \n",
    "    # Check for precipitation types\n",
    "    if any(x in wx_str for x in ['RA', 'SHRA', 'TSRA', '+RA', '-RA']):\n",
    "        wx_codes.add('RA')\n",
    "    if any(x in wx_str for x in ['SN', 'SHSN', 'TSSN', '+SN', '-SN']):\n",
    "        wx_codes.add('SN')\n",
    "    \n",
    "    if not wx_codes:\n",
    "        wx_codes.add('NSW')\n",
    "    \n",
    "    return wx_codes\n",
    "\n",
    "def combine_metar_weather(metar_row):\n",
    "    \"\"\"\n",
    "    Combine all METAR weather fields into single set.\n",
    "    \"\"\"\n",
    "    wx_set = set()\n",
    "    \n",
    "    # Combine all WX fields\n",
    "    for prefix in ['WX1', 'WX2', 'WX3', 'WX4']:\n",
    "        for suffix in ['_INT', '_DESC', '_PHEN']:\n",
    "            col = prefix + suffix\n",
    "            if col in metar_row.index:\n",
    "                val = metar_row[col]\n",
    "                if isinstance(val, str) and val.strip():\n",
    "                    wx_set.add(val.strip().upper())\n",
    "    \n",
    "    # Parse combined string\n",
    "    combined = ' '.join(wx_set)\n",
    "    return parse_weather_phenomena(combined)\n",
    "\n",
    "def weather_accurate(forecast_wx, observed_wx):\n",
    "    \"\"\"\n",
    "    Check if weather phenomena match.\n",
    "    Follows \"occurrence-based\" verification.\n",
    "    \"\"\"\n",
    "    # If both forecast no significant weather\n",
    "    if forecast_wx == {'NSW'} and observed_wx == {'NSW'}:\n",
    "        return True\n",
    "    \n",
    "    # If forecast has weather and observation has matching weather\n",
    "    if forecast_wx != {'NSW'} and observed_wx != {'NSW'}:\n",
    "        # Check for any overlap in phenomena\n",
    "        if forecast_wx & observed_wx:  # Set intersection\n",
    "            return True\n",
    "        # If forecast has TS and observation has any convective weather\n",
    "        if 'TS' in forecast_wx and any(x in observed_wx for x in ['TS', 'TSRA', 'TSSN']):\n",
    "            return True\n",
    "        return False\n",
    "    \n",
    "    # Mismatch: one has weather, other doesn't\n",
    "    return False\n",
    "\n",
    "# =========================================================\n",
    "# CLOUD VERIFICATION FUNCTIONS\n",
    "# =========================================================\n",
    "\n",
    "def clouds_accurate_ceiling(forecast_layers, observed_layers):\n",
    "    \"\"\"\n",
    "    Verify clouds based on ceiling criteria (ICAO Annex 3).\n",
    "    Uses lowest BKN/OVC/VV layer as ceiling.\n",
    "    \"\"\"\n",
    "    forecast_ceiling = get_ceiling(forecast_layers)\n",
    "    observed_ceiling = get_ceiling(observed_layers)\n",
    "    \n",
    "    # Classify ceilings\n",
    "    forecast_class = classify_ceiling(forecast_ceiling)\n",
    "    observed_class = classify_ceiling(observed_ceiling)\n",
    "    \n",
    "    # Allow one category difference\n",
    "    return abs(forecast_class - observed_class) <= 1\n",
    "\n",
    "def clouds_accurate_amount_and_height(forecast_layers, observed_layers):\n",
    "    \"\"\"\n",
    "    Verify clouds based on amount and height matching.\n",
    "    More detailed verification than ceiling-only.\n",
    "    \"\"\"\n",
    "    if not forecast_layers and not observed_layers:\n",
    "        return True  # Both clear\n",
    "    \n",
    "    if not forecast_layers:\n",
    "        # Forecast clear, check if observations are insignificant\n",
    "        for amt, _, _ in observed_layers:\n",
    "            if amt in ('BKN', 'OVC', 'VV'):\n",
    "                return False  # Observed ceiling but none forecast\n",
    "        return True\n",
    "    \n",
    "    if not observed_layers:\n",
    "        # Observed clear, check if forecast is insignificant\n",
    "        for amt, _, _ in forecast_layers:\n",
    "            if amt in ('BKN', 'OVC', 'VV'):\n",
    "                return False  # Forecast ceiling but none observed\n",
    "        return True\n",
    "    \n",
    "    # Match primary layer (usually lowest significant)\n",
    "    # Get first BKN/OVC layer from each\n",
    "    forecast_primary = None\n",
    "    for amt, height, conv in forecast_layers:\n",
    "        if amt in ('BKN', 'OVC', 'VV'):\n",
    "            forecast_primary = (amt, height)\n",
    "            break\n",
    "    \n",
    "    observed_primary = None\n",
    "    for amt, height, conv in observed_layers:\n",
    "        if amt in ('BKN', 'OVC', 'VV'):\n",
    "            observed_primary = (amt, height)\n",
    "            break\n",
    "    \n",
    "    if forecast_primary is None and observed_primary is None:\n",
    "        return True  # No significant layers in either\n",
    "    \n",
    "    if forecast_primary is None or observed_primary is None:\n",
    "        return False  # One has ceiling, other doesn't\n",
    "    \n",
    "    fcst_amt, fcst_height = forecast_primary\n",
    "    obs_amt, obs_height = observed_primary\n",
    "    \n",
    "    # Amount must be same or adjacent\n",
    "    if fcst_amt not in ('BKN', 'OVC', 'VV') or obs_amt not in ('BKN', 'OVC', 'VV'):\n",
    "        return False\n",
    "    \n",
    "    # Height tolerance\n",
    "    if fcst_height is None or obs_height is None:\n",
    "        # Can't verify height, accept based on amount\n",
    "        return True\n",
    "    \n",
    "    # ICAO tolerance: ±1 category\n",
    "    fcst_class = classify_ceiling(fcst_height)\n",
    "    obs_class = classify_ceiling(obs_height)\n",
    "    \n",
    "    return abs(fcst_class - obs_class) <= 1\n",
    "\n",
    "# =========================================================\n",
    "# DATA LOADING AND VALIDATION\n",
    "# =========================================================\n",
    "\n",
    "def load_and_validate_data():\n",
    "    \"\"\"Load TAF and METAR data with validation.\"\"\"\n",
    "    print(\"=\" * 70)\n",
    "    print(\"TAF VERIFICATION - WMO/ICAO Annex 3 Criteria\")\n",
    "    print(\"=\" * 70)\n",
    "    \n",
    "    # Load files\n",
    "    print(\"\\n[STEP 1] Loading data files...\")\n",
    "    \n",
    "    if not os.path.exists(taf_file):\n",
    "        raise FileNotFoundError(f\"TAF file not found: {taf_file}\")\n",
    "    if not os.path.exists(metar_file):\n",
    "        raise FileNotFoundError(f\"METAR file not found: {metar_file}\")\n",
    "    \n",
    "    taf_df = pd.read_csv(taf_file)\n",
    "    metar_df = pd.read_csv(metar_file)\n",
    "    \n",
    "    print(f\"  TAF records loaded: {len(taf_df)}\")\n",
    "    print(f\"  METAR records loaded: {len(metar_df)}\")\n",
    "    \n",
    "    # Validate required columns\n",
    "    taf_required = ['st_date', 'end_date', 'wind_dir', 'wind_spd', 'vis', 'weather', 'clouds']\n",
    "    metar_required = ['DATETIME', 'WIND_DIR', 'WIND_SPEED', 'VISIBILITY', 'CLOUDS']\n",
    "    \n",
    "    missing_taf = [c for c in taf_required if c not in taf_df.columns]\n",
    "    missing_metar = [c for c in metar_required if c not in metar_df.columns]\n",
    "    \n",
    "    if missing_taf:\n",
    "        raise ValueError(f\"Missing TAF columns: {', '.join(missing_taf)}\")\n",
    "    if missing_metar:\n",
    "        raise ValueError(f\"Missing METAR columns: {', '.join(missing_metar)}\")\n",
    "    \n",
    "    print(\"  ✓ All required columns present\")\n",
    "    \n",
    "    return taf_df, metar_df\n",
    "\n",
    "def prepare_dataframes(taf_df, metar_df):\n",
    "    \"\"\"Parse and normalize datetime and numeric fields.\"\"\"\n",
    "    print(\"\\n[STEP 2] Parsing and normalizing data...\")\n",
    "    \n",
    "    # TAF datetimes\n",
    "    taf_df['st_date'] = pd.to_datetime(taf_df['st_date'], dayfirst=True, errors='coerce')\n",
    "    taf_df['end_date'] = pd.to_datetime(taf_df['end_date'], dayfirst=True, errors='coerce')\n",
    "    \n",
    "    # METAR datetimes\n",
    "    metar_df['DATETIME'] = pd.to_datetime(metar_df['DATETIME'], errors='coerce')\n",
    "    \n",
    "    # Remove rows with invalid datetimes\n",
    "    taf_df = taf_df.dropna(subset=['st_date', 'end_date'])\n",
    "    metar_df = metar_df.dropna(subset=['DATETIME'])\n",
    "    \n",
    "    print(f\"  TAF periods after datetime parsing: {len(taf_df)}\")\n",
    "    print(f\"  METAR observations after datetime parsing: {len(metar_df)}\")\n",
    "    \n",
    "    return taf_df, metar_df\n",
    "\n",
    "# =========================================================\n",
    "# MAIN VERIFICATION LOOP\n",
    "# =========================================================\n",
    "\n",
    "def verify_taf_against_metar():\n",
    "    \"\"\"Main verification function.\"\"\"\n",
    "    \n",
    "    # Load data\n",
    "    try:\n",
    "        taf_df, metar_df = load_and_validate_data()\n",
    "        taf_df, metar_df = prepare_dataframes(taf_df, metar_df)\n",
    "    except Exception as e:\n",
    "        print(f\"\\n[ERROR] Data loading failed: {e}\")\n",
    "        return\n",
    "    \n",
    "    print(\"\\n[STEP 3] Matching METAR observations to TAF periods...\")\n",
    "    print(\"-\" * 70)\n",
    "    \n",
    "    all_verifications = []\n",
    "    taf_periods_processed = 0\n",
    "    metars_matched = 0\n",
    "    \n",
    "    # Process each TAF period\n",
    "    for idx, taf_row in taf_df.iterrows():\n",
    "        taf_start = taf_row['st_date']\n",
    "        taf_end = taf_row['end_date']\n",
    "        \n",
    "        # Find METARs within this TAF period\n",
    "        mask = (metar_df['DATETIME'] >= taf_start) & (metar_df['DATETIME'] <= taf_end)\n",
    "        matching_metars = metar_df[mask]\n",
    "        \n",
    "        if matching_metars.empty:\n",
    "            continue\n",
    "        \n",
    "        taf_periods_processed += 1\n",
    "        \n",
    "        # Parse TAF forecast elements\n",
    "        taf_wind_dir = parse_wind_direction(taf_row.get('wind_dir'))\n",
    "        taf_wind_spd = safe_float(taf_row.get('wind_spd'))\n",
    "        taf_vis = parse_visibility(taf_row.get('vis'))\n",
    "        taf_weather = parse_weather_phenomena(taf_row.get('weather'))\n",
    "        taf_clouds = parse_cloud_field(taf_row.get('clouds'))\n",
    "        taf_ceiling = get_ceiling(taf_clouds)\n",
    "        \n",
    "        # Process each matching METAR\n",
    "        for _, metar_row in matching_metars.iterrows():\n",
    "            metars_matched += 1\n",
    "            \n",
    "            # Parse METAR observed elements\n",
    "            obs_wind_dir = parse_wind_direction(metar_row.get('WIND_DIR'))\n",
    "            obs_wind_spd = safe_float(metar_row.get('WIND_SPEED'))\n",
    "            obs_vis = parse_visibility(metar_row.get('VISIBILITY'))\n",
    "            obs_weather = combine_metar_weather(metar_row)\n",
    "            obs_clouds = parse_cloud_field(metar_row.get('CLOUDS'))\n",
    "            obs_ceiling = get_ceiling(obs_clouds)\n",
    "            \n",
    "            # Perform verification checks\n",
    "            wd_ok = wind_direction_accurate(taf_wind_dir, obs_wind_dir, obs_wind_spd)\n",
    "            ws_ok = wind_speed_accurate(taf_wind_spd, obs_wind_spd)\n",
    "            vis_ok = visibility_accurate_icao(taf_vis, obs_vis)\n",
    "            wx_ok = weather_accurate(taf_weather, obs_weather)\n",
    "            cloud_ceiling_ok = clouds_accurate_ceiling(taf_clouds, obs_clouds)\n",
    "            cloud_detail_ok = clouds_accurate_amount_and_height(taf_clouds, obs_clouds)\n",
    "            \n",
    "            # Record verification result\n",
    "            verification_row = {\n",
    "                # TAF period info\n",
    "                'TAF_START': taf_start,\n",
    "                'TAF_END': taf_end,\n",
    "                'TAF_GROUP': taf_row.get('group', 'INITIAL'),\n",
    "                \n",
    "                # Observation time\n",
    "                'OBS_DATETIME': metar_row['DATETIME'],\n",
    "                \n",
    "                # Wind - Forecast\n",
    "                'FCST_WIND_DIR': taf_wind_dir,\n",
    "                'FCST_WIND_SPD_KT': taf_wind_spd,\n",
    "                \n",
    "                # Wind - Observed\n",
    "                'OBS_WIND_DIR': obs_wind_dir,\n",
    "                'OBS_WIND_SPD_KT': obs_wind_spd,\n",
    "                \n",
    "                # Wind - Verification\n",
    "                'WIND_DIR_ACCURATE': wd_ok,\n",
    "                'WIND_SPD_ACCURATE': ws_ok,\n",
    "                \n",
    "                # Visibility - Forecast\n",
    "                'FCST_VIS_M': taf_vis,\n",
    "                'FCST_VIS_CLASS': classify_visibility(taf_vis),\n",
    "                \n",
    "                # Visibility - Observed\n",
    "                'OBS_VIS_M': obs_vis,\n",
    "                'OBS_VIS_CLASS': classify_visibility(obs_vis),\n",
    "                \n",
    "                # Visibility - Verification\n",
    "                'VIS_ACCURATE': vis_ok,\n",
    "                \n",
    "                # Weather - Forecast\n",
    "                'FCST_WEATHER': ', '.join(sorted(taf_weather)),\n",
    "                \n",
    "                # Weather - Observed\n",
    "                'OBS_WEATHER': ', '.join(sorted(obs_weather)),\n",
    "                \n",
    "                # Weather - Verification\n",
    "                'WEATHER_ACCURATE': wx_ok,\n",
    "                \n",
    "                # Clouds - Forecast\n",
    "                'FCST_CLOUDS': taf_row.get('clouds', ''),\n",
    "                'FCST_CEILING_FT': taf_ceiling,\n",
    "                'FCST_CEILING_CLASS': classify_ceiling(taf_ceiling),\n",
    "                \n",
    "                # Clouds - Observed\n",
    "                'OBS_CLOUDS': metar_row.get('CLOUDS', ''),\n",
    "                'OBS_CEILING_FT': obs_ceiling,\n",
    "                'OBS_CEILING_CLASS': classify_ceiling(obs_ceiling),\n",
    "                \n",
    "                # Clouds - Verification\n",
    "                'CEILING_ACCURATE': cloud_ceiling_ok,\n",
    "                'CLOUDS_ACCURATE_DETAIL': cloud_detail_ok,\n",
    "            }\n",
    "            \n",
    "            all_verifications.append(verification_row)\n",
    "        \n",
    "        # Progress indicator\n",
    "        if taf_periods_processed % 10 == 0:\n",
    "            print(f\"  Processed {taf_periods_processed} TAF periods, {metars_matched} METAR matches...\")\n",
    "    \n",
    "    print(f\"\\n  ✓ Completed: {taf_periods_processed} TAF periods, {metars_matched} total verifications\")\n",
    "    \n",
    "    # Create results DataFrame\n",
    "    if not all_verifications:\n",
    "        print(\"\\n[WARNING] No matching METAR observations found for any TAF period!\")\n",
    "        return pd.DataFrame()\n",
    "    \n",
    "    results_df = pd.DataFrame(all_verifications)\n",
    "    \n",
    "    # Calculate and display accuracy statistics\n",
    "    print_verification_statistics(results_df)\n",
    "    \n",
    "    # Save results\n",
    "    save_results(results_df)\n",
    "    \n",
    "    return results_df\n",
    "\n",
    "# =========================================================\n",
    "# STATISTICS AND REPORTING\n",
    "# =========================================================\n",
    "\n",
    "def print_verification_statistics(results_df):\n",
    "    \"\"\"Calculate and print verification statistics.\"\"\"\n",
    "    print(\"\\n\" + \"=\" * 70)\n",
    "    print(\"VERIFICATION STATISTICS (WMO/ICAO Criteria)\")\n",
    "    print(\"=\" * 70)\n",
    "    \n",
    "    total = len(results_df)\n",
    "    \n",
    "    if total == 0:\n",
    "        print(\"No verifications to analyze.\")\n",
    "        return\n",
    "    \n",
    "    print(f\"\\nTotal verifications: {total}\")\n",
    "    \n",
    "    # Wind Direction\n",
    "    wd_count = results_df['WIND_DIR_ACCURATE'].notna().sum()\n",
    "    wd_accurate = results_df['WIND_DIR_ACCURATE'].sum()\n",
    "    wd_pct = (wd_accurate / wd_count * 100) if wd_count > 0 else 0\n",
    "    print(f\"\\nWind Direction:\")\n",
    "    print(f\"  Verified: {wd_count} | Accurate: {wd_accurate} | Accuracy: {wd_pct:.1f}%\")\n",
    "    \n",
    "    # Wind Speed\n",
    "    ws_count = results_df['WIND_SPD_ACCURATE'].notna().sum()\n",
    "    ws_accurate = results_df['WIND_SPD_ACCURATE'].sum()\n",
    "    ws_pct = (ws_accurate / ws_count * 100) if ws_count > 0 else 0\n",
    "    print(f\"\\nWind Speed (±10 kt):\")\n",
    "    print(f\"  Verified: {ws_count} | Accurate: {ws_accurate} | Accuracy: {ws_pct:.1f}%\")\n",
    "    \n",
    "    # Visibility\n",
    "    vis_count = results_df['VIS_ACCURATE'].notna().sum()\n",
    "    vis_accurate = results_df['VIS_ACCURATE'].sum()\n",
    "    vis_pct = (vis_accurate / vis_count * 100) if vis_count > 0 else 0\n",
    "    print(f\"\\nVisibility (ICAO Annex 3 criteria):\")\n",
    "    print(f\"  Verified: {vis_count} | Accurate: {vis_accurate} | Accuracy: {vis_pct:.1f}%\")\n",
    "    \n",
    "    # Weather\n",
    "    wx_count = results_df['WEATHER_ACCURATE'].notna().sum()\n",
    "    wx_accurate = results_df['WEATHER_ACCURATE'].sum()\n",
    "    wx_pct = (wx_accurate / wx_count * 100) if wx_count > 0 else 0\n",
    "    print(f\"\\nWeather Phenomena (occurrence-based):\")\n",
    "    print(f\"  Verified: {wx_count} | Accurate: {wx_accurate} | Accuracy: {wx_pct:.1f}%\")\n",
    "    \n",
    "    # Ceiling\n",
    "    ceiling_count = results_df['CEILING_ACCURATE'].notna().sum()\n",
    "    ceiling_accurate = results_df['CEILING_ACCURATE'].sum()\n",
    "    ceiling_pct = (ceiling_accurate / ceiling_count * 100) if ceiling_count > 0 else 0\n",
    "    print(f\"\\nCeiling (ICAO threshold categories):\")\n",
    "    print(f\"  Verified: {ceiling_count} | Accurate: {ceiling_accurate} | Accuracy: {ceiling_pct:.1f}%\")\n",
    "    \n",
    "    # Clouds (detailed)\n",
    "    cloud_count = results_df['CLOUDS_ACCURATE_DETAIL'].notna().sum()\n",
    "    cloud_accurate = results_df['CLOUDS_ACCURATE_DETAIL'].sum()\n",
    "    cloud_pct = (cloud_accurate / cloud_count * 100) if cloud_count > 0 else 0\n",
    "    print(f\"\\nClouds (amount + height matching):\")\n",
    "    print(f\"  Verified: {cloud_count} | Accurate: {cloud_accurate} | Accuracy: {cloud_pct:.1f}%\")\n",
    "    \n",
    "    # Overall\n",
    "    print(f\"\\n\" + \"-\" * 70)\n",
    "    print(\"OVERALL SUMMARY:\")\n",
    "    accuracy_cols = ['WIND_DIR_ACCURATE', 'WIND_SPD_ACCURATE', 'VIS_ACCURATE', \n",
    "                     'WEATHER_ACCURATE', 'CEILING_ACCURATE']\n",
    "    overall_accurate = results_df[accuracy_cols].all(axis=1).sum()\n",
    "    overall_pct = (overall_accurate / total * 100)\n",
    "    print(f\"  All elements accurate: {overall_accurate}/{total} ({overall_pct:.1f}%)\")\n",
    "    print(\"=\" * 70)\n",
    "\n",
    "def save_results(results_df):\n",
    "    \"\"\"Save verification results to CSV.\"\"\"\n",
    "    print(f\"\\n[STEP 4] Saving results...\")\n",
    "    \n",
    "    try:\n",
    "        # Create output directory if needed\n",
    "        output_dir = os.path.dirname(output_file)\n",
    "        if output_dir and not os.path.exists(output_dir):\n",
    "            os.makedirs(output_dir, exist_ok=True)\n",
    "        \n",
    "        # Save to CSV\n",
    "        results_df.to_csv(output_file, index=False, encoding='utf-8')\n",
    "        print(f\"  ✓ Results saved to: {output_file}\")\n",
    "        print(f\"  Total rows: {len(results_df)}\")\n",
    "        \n",
    "    except Exception as e:\n",
    "        print(f\"  ✗ Failed to save results: {e}\")\n",
    "\n",
    "# =========================================================\n",
    "# MAIN EXECUTION\n",
    "# =========================================================\n",
    "\n",
    "if __name__ == \"__main__\":\n",
    "    try:\n",
    "        results = verify_taf_against_metar()\n",
    "        print(\"\\n[SUCCESS] TAF verification completed!\")\n",
    "        \n",
    "    except FileNotFoundError as e:\n",
    "        print(f\"\\n[ERROR] {e}\")\n",
    "        exit(1)\n",
    "    except Exception as e:\n",
    "        print(f\"\\n[ERROR] Unexpected error: {e}\")\n",
    "        import traceback\n",
    "        traceback.print_exc()\n",
    "        exit(1)"
   ]
  },
  {
   "cell_type": "code",
   "execution_count": null,
   "id": "5379b350-925e-4853-8b76-0a1b58429858",
   "metadata": {},
   "outputs": [],
   "source": []
  }
 ],
 "metadata": {
  "kernelspec": {
   "display_name": "Python 3 (ipykernel)",
   "language": "python",
   "name": "python3"
  },
  "language_info": {
   "codemirror_mode": {
    "name": "ipython",
    "version": 3
   },
   "file_extension": ".py",
   "mimetype": "text/x-python",
   "name": "python",
   "nbconvert_exporter": "python",
   "pygments_lexer": "ipython3",
   "version": "3.11.14"
  }
 },
 "nbformat": 4,
 "nbformat_minor": 5
}
