RAW_METAR,STATION,DATETIME,WIND_DIR,WIND_SPEED,WIND_GUST,VISIBILITY,CLOUDS,TEMPERATURE,DEWPOINT,PRESSURE_QNH,WX1_INT,WX1_DESC,WX1_PHEN,WX2_INT,WX2_DESC,WX2_PHEN,WX3_INT,WX3_DESC,WX3_PHEN
202512010000 METAR VEPT 010000Z 00000KT 1600 BR FEW018 SCT100 15/14 Q1014 NOSIG=,VEPT,01-12-2025 00:00,000,00,,1600 m,"FEW018, SCT100",15,14,1014,,,BR,,,,,,
202512010030 METAR VEPT 010030Z 27002KT 1600 BR FEW018 SCT100 14/13 Q1014 NOSIG=,VEPT,01-12-2025 00:30,270,02,,1600 m,"FEW018, SCT100",14,13,1014,,,BR,,,,,,
202512010100 METAR VEPT 010100Z 00000KT 1600 BR SCT018 BKN100 15/13 Q1015 BECMG 15 00 BR=,VEPT,01-12-2025 01:00,000,00,,1600 m,"SCT018, BKN100",15,13,1015,,,BR,,,BR,,,
202512010130 METAR VEPT 010130Z 27002KT 1600 BR SCT018 BKN100 16/13 Q1015 NOSIG=,VEPT,01-12-2025 01:30,270,02,,1600 m,"SCT018, BKN100",16,13,1015,,,BR,,,,,,
202512010200 METAR VEPT 010200Z 27004KT 1600 BR SCT020 BKN100 17/13 Q1016 NOSIG=,VEPT,01-12-2025 02:00,270,04,,1600 m,"SCT020, BKN100",17,13,1016,,,BR,,,,,,
202512010230 METAR VEPT 010230Z 26003KT 1800 BR FEW020 SCT100 18/14 Q1016 NOSIG=,VEPT,01-12-2025 02:30,260,03,,1800 m,"FEW020, SCT100",18,14,1016,,,BR,,,,,,
202512010300 METAR VEPT 010300Z 27004KT 1800 BR SCT100 19/14 Q1016 NOSIG=,VEPT,01-12-2025 03:00,270,04,,1800 m,SCT100,19,14,1016,,,BR,,,,,,
202512010330 METAR VEPT 010330Z 26005KT 2000 HZ SCT100 19/14 Q1016 NOSIG=,VEPT,01-12-2025 03:30,260,05,,2000 m,SCT100,19,14,1016,,,HZ,,,,,,
202512010400 METAR VEPT 010400Z 26004KT 2000 HZ FEW100 20/14 Q1016 NOSIG=,VEPT,01-12-2025 04:00,260,04,,2000 m,FEW100,20,14,1016,,,HZ,,,,,,
202512010430 METAR VEPT 010430Z 27004KT 2000 HZ FEW100 21/14 Q1016 NOSIG=,VEPT,01-12-2025 04:30,270,04,,2000 m,FEW100,21,14,1016,,,HZ,,,,,,
202512010500 METAR VEPT 010500Z 25003KT 2000 HZ FEW100 22/14 Q1016 NOSIG=,VEPT,01-12-2025 05:00,250,03,,2000 m,FEW100,22,14,1016,,,HZ,,,,,,
202512010530 METAR VEPT 010530Z 25004KT 2200 HZ FEW100 23/14 Q1016 NOSIG=,VEPT,01-12-2025 05:30,250,04,,2200 m,FEW100,23,14,1016,,,HZ,,,,,,
202512010600 METAR VEPT 010600Z 26004KT 2500 HZ FEW100 24/13 Q1015 NOSIG=,VEPT,01-12-2025 06:00,260,04,,2500 m,FEW100,24,13,1015,,,HZ,,,,,,
202512010630 METAR VEPT 010630Z 26004KT 2800 HZ NSC 25/13 Q1015 BECMG 3000 HZ=,VEPT,01-12-2025 06:30,260,04,,2800 m,,25,13,1015,,,HZ,,,HZ,,,
202512010700 METAR VEPT 010700Z 26007KT 3000 HZ NSC 25/12 Q1014 NOSIG=,VEPT,01-12-2025 07:00,260,07,,3000 m,,25,12,1014,,,HZ,,,,,,
202512010730 METAR VEPT 010730Z 00000KT 3200 HZ NSC 26/11 Q1013 NOSIG=,VEPT,01-12-2025 07:30,000,00,,3200 m,,26,11,1013,,,HZ,,,,,,
202512010800 METAR VEPT 010800Z 26004KT 3500 HZ NSC 26/11 Q1013 NOSIG=,VEPT,01-12-2025 08:00,260,04,,3500 m,,26,11,1013,,,HZ,,,,,,
202512010830 METAR VEPT 010830Z 27004KT 4000 HZ NSC 26/11 Q1013 NOSIG=,VEPT,01-12-2025 08:30,270,04,,4000 m,,26,11,1013,,,HZ,,,,,,
202512010900 METAR VEPT 010900Z 27005KT 4500 HZ FEW100 26/10 Q1012 NOSIG=,VEPT,01-12-2025 09:00,270,05,,4500 m,FEW100,26,10,1012,,,HZ,,,,,,
202512010930 METAR VEPT 010930Z 27006KT 4500 HZ FEW100 26/10 Q1012 NOSIG=,VEPT,01-12-2025 09:30,270,06,,4500 m,FEW100,26,10,1012,,,HZ,,,,,,
202512011000 METAR VEPT 011000Z 28004KT 4500 HZ FEW100 26/10 Q1012 NOSIG=,VEPT,01-12-2025 10:00,280,04,,4500 m,FEW100,26,10,1012,,,HZ,,,,,,
202512011030 METAR VEPT 011030Z 29003KT 4000 HZ FEW100 25/10 Q1012 NOSIG=,VEPT,01-12-2025 10:30,290,03,,4000 m,FEW100,25,10,1012,,,HZ,,,,,,
202512011100 METAR VEPT 011100Z 00000KT 4000 HZ FEW100 25/10 Q1012 NOSIG=,VEPT,01-12-2025 11:00,000,00,,4000 m,FEW100,25,10,1012,,,HZ,,,,,,
202512011130 METAR VEPT 011130Z 00000KT 3500 HZ FEW100 24/13 Q1012 BECMG 3000 HZ=,VEPT,01-12-2025 11:30,000,00,,3500 m,FEW100,24,13,1012,,,HZ,,,HZ,,,
202512011200 METAR VEPT 011200Z 00000KT 3000 HZ NSC 21/15 Q1012 NOSIG=,VEPT,01-12-2025 12:00,000,00,,3000 m,,21,15,1012,,,HZ,,,,,,
202512011230 METAR VEPT 011230Z 00000KT 2800 HZ NSC 21/14 Q1012 NOSIG=,VEPT,01-12-2025 12:30,000,00,,2800 m,,21,14,1012,,,HZ,,,,,,
202512011300 METAR VEPT 011300Z 00000KT 2800 HZ NSC 20/14 Q1013 NOSIG=,VEPT,01-12-2025 13:00,000,00,,2800 m,,20,14,1013,,,HZ,,,,,,
202512011330 METAR VEPT 011330Z 00000KT 2500 HZ NSC 20/14 Q1013 NOSIG=,VEPT,01-12-2025 13:30,000,00,,2500 m,,20,14,1013,,,HZ,,,,,,
202512011400 METAR VEPT 011400Z 00000KT 2500 HZ NSC 19/14 Q1014 NOSIG=,VEPT,01-12-2025 14:00,000,00,,2500 m,,19,14,1014,,,HZ,,,,,,
202512011430 METAR VEPT 011430Z 00000KT 2500 HZ NSC 19/14 Q1014 NOSIG=,VEPT,01-12-2025 14:30,000,00,,2500 m,,19,14,1014,,,HZ,,,,,,
202512011500 METAR VEPT 011500Z 00000KT 2500 HZ NSC 18/13 Q1014 NOSIG=,VEPT,01-12-2025 15:00,000,00,,2500 m,,18,13,1014,,,HZ,,,,,,
202512011530 METAR VEPT 011530Z 00000KT 2500 HZ NSC 18/12 Q1014 NOSIG=,VEPT,01-12-2025 15:30,000,00,,2500 m,,18,12,1014,,,HZ,,,,,,
202512011600 METAR VEPT 011600Z 00000KT 2500 HZ NSC 18/12 Q1014 NOSIG=,VEPT,01-12-2025 16:00,000,00,,2500 m,,18,12,1014,,,HZ,,,,,,
202512011630 METAR VEPT 011630Z 00000KT 2200 HZ NSC 18/12 Q1014 NOSIG=,VEPT,01-12-2025 16:30,000,00,,2200 m,,18,12,1014,,,HZ,,,,,,
202512011700 METAR VEPT 011700Z 00000KT 2200 HZ NSC 18/12 Q1014 NOSIG=,VEPT,01-12-2025 17:00,000,00,,2200 m,,18,12,1014,,,HZ,,,,,,
202512011730 METAR VEPT 011730Z 00000KT 2200 BR NSC 18/13 Q1014 NOSIG=,VEPT,01-12-2025 17:30,000,00,,2200 m,,18,13,1014,,,BR,,,,,,
202512011800 METAR VEPT 011800Z 00000KT 2000 BR NSC 17/12 Q1014 NOSIG=,VEPT,01-12-2025 18:00,000,00,,2000 m,,17,12,1014,,,BR,,,,,,
202512011830 METAR VEPT 011830Z 00000KT 2000 BR NSC 16/12 Q1014 NOSIG=,VEPT,01-12-2025 18:30,000,00,,2000 m,,16,12,1014,,,BR,,,,,,
202512011900 METAR VEPT 011900Z 00000KT 2000 BR NSC 15/12 Q1014 NOSIG=,VEPT,01-12-2025 19:00,000,00,,2000 m,,15,12,1014,,,BR,,,,,,
202512011930 METAR VEPT 011930Z 00000KT 2000 BR NSC 15/12 Q1014 NOSIG=,VEPT,01-12-2025 19:30,000,00,,2000 m,,15,12,1014,,,BR,,,,,,
202512012000 METAR COR VEPT 012000Z 00000KT 2000 BR NSC 15/15 Q1014 NOSIG=,VEPT,01-12-2025 20:00,000,00,,2000 m,,15,15,1014,,,BR,,,,,,
202512012008 METAR VEPT 012008Z 00000KT 2000 BR NSC 15/15 Q1014 NOSIG=,VEPT,01-12-2025 20:08,000,00,,2000 m,,15,15,1014,,,BR,,,,,,
202512012030 METAR VEPT 012030Z 00000KT 2000 BR NSC 15/15 Q1014 NOSIG=,VEPT,01-12-2025 20:30,000,00,,2000 m,,15,15,1014,,,BR,,,,,,
202512012100 METAR VEPT 012100Z 00000KT 2000 BR NSC 14/14 Q1013 NOSIG=,VEPT,01-12-2025 21:00,000,00,,2000 m,,14,14,1013,,,BR,,,,,,
202512012130 METAR VEPT 012130Z 00000KT 2000 BR NSC 14/14 Q1013 NOSIG=,VEPT,01-12-2025 21:30,000,00,,2000 m,,14,14,1013,,,BR,,,,,,
202512012200 METAR VEPT 012200Z 00000KT 2000 BR NSC 13/13 Q1013 NOSIG=,VEPT,01-12-2025 22:00,000,00,,2000 m,,13,13,1013,,,BR,,,,,,
202512012228 METAR VEPT 012228Z 00000KT 2000 BR NSC 13/13 Q1013 NOSIG=,VEPT,01-12-2025 22:28,000,00,,2000 m,,13,13,1013,,,BR,,,,,,
202512012230 METAR VEPT 012230Z 00000KT 2000 BR NSC 13/13 Q1013 NOSIG=,VEPT,01-12-2025 22:30,000,00,,2000 m,,13,13,1013,,,BR,,,,,,
202512012300 METAR VEPT 012300Z 00000KT 2000 BR NSC 14/11 Q1013 NOSIG=,VEPT,01-12-2025 23:00,000,00,,2000 m,,14,11,1013,,,BR,,,,,,
202512012330 METAR VEPT 012330Z 00000KT 1600 BR NSC 13/11 Q1014 NOSIG=,VEPT,01-12-2025 23:30,000,00,,1600 m,,13,11,1014,,,BR,,,,,,
202512020000 METAR VEPT 020000Z 00000KT 1600 BR NSC 14/10 Q1014 NOSIG=,VEPT,02-12-2025 00:00,000,00,,1600 m,,14,10,1014,,,BR,,,,,,
202512020030 METAR VEPT 020030Z 00000KT 1600 BR NSC 13/11 Q1014 NOSIG=,VEPT,02-12-2025 00:30,000,00,,1600 m,,13,11,1014,,,BR,,,,,,
202512020100 METAR VEPT 020100Z 27005KT 1600 BR NSC 14/10 Q1015 NOSIG=,VEPT,02-12-2025 01:00,270,05,,1600 m,,14,10,1015,,,BR,,,,,,
202512020130 METAR VEPT 020130Z 27005KT 1600 BR NSC 15/11 Q1015 NOSIG=,VEPT,02-12-2025 01:30,270,05,,1600 m,,15,11,1015,,,BR,,,,,,
202512020200 METAR VEPT 020200Z 27004KT 1800 BR NSC 15/12 Q1015 NOSIG=,VEPT,02-12-2025 02:00,270,04,,1800 m,,15,12,1015,,,BR,,,,,,
202512020230 METAR VEPT 020230Z 27003KT 1800 BR NSC 16/12 Q1015 NOSIG=,VEPT,02-12-2025 02:30,270,03,,1800 m,,16,12,1015,,,BR,,,,,,
202512020300 METAR VEPT 020300Z 26004KT 2000 HZ NSC 17/11 Q1016 NOSIG=,VEPT,02-12-2025 03:00,260,04,,2000 m,,17,11,1016,,,HZ,,,,,,
202512020330 METAR VEPT 020330Z 24003KT 2000 HZ NSC 18/11 Q1016 NOSIG=,VEPT,02-12-2025 03:30,240,03,,2000 m,,18,11,1016,,,HZ,,,,,,
202512020400 METAR VEPT 020400Z 26003KT 2500 HZ NSC 20/11 Q1016 NOSIG=,VEPT,02-12-2025 04:00,260,03,,2500 m,,20,11,1016,,,HZ,,,,,,
202512020430 METAR VEPT 020430Z 27004KT 2500 HZ NSC 21/10 Q1016 NOSIG=,VEPT,02-12-2025 04:30,270,04,,2500 m,,21,10,1016,,,HZ,,,,,,
202512020500 METAR VEPT 020500Z 27003KT 2500 HZ NSC 22/11 Q1016 BECMG 3000 HZ=,VEPT,02-12-2025 05:00,270,03,,2500 m,,22,11,1016,,,HZ,,,HZ,,,
202512020530 METAR VEPT 020530Z 27003KT 3000 HZ NSC 22/09 Q1015 NOSIG=,VEPT,02-12-2025 05:30,270,03,,3000 m,,22,9,1015,,,HZ,,,,,,
202512020600 METAR VEPT 020600Z 29004KT 3500 HZ NSC 24/08 Q1015 NOSIG=,VEPT,02-12-2025 06:00,290,04,,3500 m,,24,8,1015,,,HZ,,,,,,
202512020630 METAR VEPT 020630Z 29005KT 4000 HZ SCT100 24/06 Q1014 NOSIG=,VEPT,02-12-2025 06:30,290,05,,4000 m,SCT100,24,6,1014,,,HZ,,,,,,
202512020700 METAR VEPT 020700Z 26005KT 4500 HZ SCT100 24/06 Q1014 BECMG 5000 HZ=,VEPT,02-12-2025 07:00,260,05,,4500 m,SCT100,24,6,1014,,,HZ,,,HZ,,,
202512020730 METAR VEPT 020730Z 29006KT 5000 HZ SCT100 25/05 Q1013 NOSIG=,VEPT,02-12-2025 07:30,290,06,,5000 m,SCT100,25,5,1013,,,HZ,,,,,,
202512020800 METAR VEPT 020800Z 26008KT 5000 HZ SCT100 25/05 Q1013 NOSIG=,VEPT,02-12-2025 08:00,260,08,,5000 m,SCT100,25,5,1013,,,HZ,,,,,,
202512020830 METAR VEPT 020830Z 27009KT 5000 HZ SCT100 25/05 Q1012 NOSIG=,VEPT,02-12-2025 08:30,270,09,,5000 m,SCT100,25,5,1012,,,HZ,,,,,,
202512020900 METAR VEPT 020900Z 25009KT 5000 HZ FEW100 25/05 Q1012 NOSIG=,VEPT,02-12-2025 09:00,250,09,,5000 m,FEW100,25,5,1012,,,HZ,,,,,,
202512020930 METAR VEPT 020930Z 24007KT 5000 HZ SCT100 25/04 Q1012 NOSIG=,VEPT,02-12-2025 09:30,240,07,,5000 m,SCT100,25,4,1012,,,HZ,,,,,,
202512021000 METAR VEPT 021000Z 29005KT 5000 HZ SCT100 24/03 Q1012 NOSIG=,VEPT,02-12-2025 10:00,290,05,,5000 m,SCT100,24,3,1012,,,HZ,,,,,,
202512021030 METAR VEPT 021030Z 27006KT 5000 HZ SCT100 24/05 Q1012 NOSIG=,VEPT,02-12-2025 10:30,270,06,,5000 m,SCT100,24,5,1012,,,HZ,,,,,,
202512021100 METAR VEPT 021100Z 27005KT 5000 HZ SCT100 24/04 Q1012 NOSIG=,VEPT,02-12-2025 11:00,270,05,,5000 m,SCT100,24,4,1012,,,HZ,,,,,,
202512021130 METAR VEPT 021130Z 00000KT 4000 HZ SCT100 21/06 Q1012 NOSIG=,VEPT,02-12-2025 11:30,000,00,,4000 m,SCT100,21,6,1012,,,HZ,,,,,,
202512021200 METAR VEPT 021200Z 00000KT 4000 HZ FEW100 19/09 Q1013 NOSIG=,VEPT,02-12-2025 12:00,000,00,,4000 m,FEW100,19,9,1013,,,HZ,,,,,,
202512021230 METAR VEPT 021230Z 00000KT 4000 HZ FEW100 18/10 Q1013 NOSIG=,VEPT,02-12-2025 12:30,000,00,,4000 m,FEW100,18,10,1013,,,HZ,,,,,,
202512021300 METAR VEPT 021300Z 00000KT 3500 HZ FEW100 18/09 Q1013 NOSIG=,VEPT,02-12-2025 13:00,000,00,,3500 m,FEW100,18,9,1013,,,HZ,,,,,,
202512021330 METAR VEPT 021330Z 00000KT 3500 HZ FEW100 18/10 Q1014 NOSIG=,VEPT,02-12-2025 13:30,000,00,,3500 m,FEW100,18,10,1014,,,HZ,,,,,,
202512021400 METAR VEPT 021400Z 00000KT 3500 HZ FEW100 17/10 Q1014 BECMG 3000 HZ=,VEPT,02-12-2025 14:00,000,00,,3500 m,FEW100,17,10,1014,,,HZ,,,HZ,,,
202512021430 METAR VEPT 021430Z 00000KT 3000 HZ NSC 16/10 Q1015 NOSIG=,VEPT,02-12-2025 14:30,000,00,,3000 m,,16,10,1015,,,HZ,,,,,,
202512021500 METAR VEPT 021500Z 00000KT 3000 HZ NSC 16/11 Q1015 NOSIG=,VEPT,02-12-2025 15:00,000,00,,3000 m,,16,11,1015,,,HZ,,,,,,
202512021530 METAR VEPT 021530Z 00000KT 3000 HZ NSC 16/11 Q1015 NOSIG=,VEPT,02-12-2025 15:30,000,00,,3000 m,,16,11,1015,,,HZ,,,,,,
202512021600 METAR VEPT 021600Z 00000KT 3000 HZ NSC 16/11 Q1015 NOSIG=,VEPT,02-12-2025 16:00,000,00,,3000 m,,16,11,1015,,,HZ,,,,,,
202512021630 METAR VEPT 021630Z 00000KT 2800 BR NSC 15/11 Q1015 NOSIG=,VEPT,02-12-2025 16:30,000,00,,2800 m,,15,11,1015,,,BR,,,,,,
202512021700 METAR VEPT 021700Z 00000KT 2800 BR NSC 15/11 Q1015 NOSIG=,VEPT,02-12-2025 17:00,000,00,,2800 m,,15,11,1015,,,BR,,,,,,
202512021730 METAR VEPT 021730Z 00000KT 2500 BR NSC 14/11 Q1015 NOSIG=,VEPT,02-12-2025 17:30,000,00,,2500 m,,14,11,1015,,,BR,,,,,,
202512021800 METAR VEPT 021800Z 00000KT 2500 BR NSC 14/11 Q1015 NOSIG=,VEPT,02-12-2025 18:00,000,00,,2500 m,,14,11,1015,,,BR,,,,,,
202512021830 METAR VEPT 021830Z 00000KT 2500 BR NSC 14/11 Q1015 NOSIG=,VEPT,02-12-2025 18:30,000,00,,2500 m,,14,11,1015,,,BR,,,,,,
202512021900 METAR VEPT 021900Z 00000KT 2500 BR NSC 14/11 Q1015 NOSIG=,VEPT,02-12-2025 19:00,000,00,,2500 m,,14,11,1015,,,BR,,,,,,
202512021930 METAR VEPT 021930Z 00000KT 2200 BR NSC 13/11 Q1015 NOSIG=,VEPT,02-12-2025 19:30,000,00,,2200 m,,13,11,1015,,,BR,,,,,,
202512022000 METAR VEPT 022000Z 00000KT 2200 BR NSC 13/10 Q1015 NOSIG=,VEPT,02-12-2025 20:00,000,00,,2200 m,,13,10,1015,,,BR,,,,,,
202512022030 METAR VEPT 022030Z 00000KT 2200 BR NSC 13/10 Q1015 NOSIG=,VEPT,02-12-2025 20:30,000,00,,2200 m,,13,10,1015,,,BR,,,,,,
202512022100 METAR VEPT 022100Z 00000KT 2000 BR NSC 13/11 Q1014 NOSIG=,VEPT,02-12-2025 21:00,000,00,,2000 m,,13,11,1014,,,BR,,,,,,
202512022130 METAR VEPT 022130Z 00000KT 1800 BR NSC 13/11 Q1014 NOSIG=,VEPT,02-12-2025 21:30,000,00,,1800 m,,13,11,1014,,,BR,,,,,,
202512022200 METAR VEPT 022200Z 00000KT 1800 BR NSC 12/11 Q1014 NOSIG=,VEPT,02-12-2025 22:00,000,00,,1800 m,,12,11,1014,,,BR,,,,,,
202512022230 METAR VEPT 022230Z 00000KT 1600 BR NSC 12/10 Q1014 NOSIG=,VEPT,02-12-2025 22:30,000,00,,1600 m,,12,10,1014,,,BR,,,,,,
202512022300 METAR VEPT 022300Z 00000KT 1600 BR NSC 11/10 Q1014 NOSIG=,VEPT,02-12-2025 23:00,000,00,,1600 m,,11,10,1014,,,BR,,,,,,
202512022330 METAR VEPT 022330Z 00000KT 1600 BR NSC 12/10 Q1015 NOSIG=,VEPT,02-12-2025 23:30,000,00,,1600 m,,12,10,1015,,,BR,,,,,,
202512030000 METAR VEPT 030000Z 26003KT 1600 BR NSC 12/10 Q1015 NOSIG=,VEPT,03-12-2025 00:00,260,03,,1600 m,,12,10,1015,,,BR,,,,,,
202512030030 METAR VEPT 030030Z 26004KT 1600 BR NSC 13/10 Q1016 NOSIG=,VEPT,03-12-2025 00:30,260,04,,1600 m,,13,10,1016,,,BR,,,,,,
202512030100 METAR VEPT 030100Z 00000KT 1600 BR NSC 14/11 Q1016 BECMG 1500 BR=,VEPT,03-12-2025 01:00,000,00,,1600 m,,14,11,1016,,,BR,,,BR,,,
202512030130 METAR COR VEPT 030130Z 00000KT 1300 R25/2000 R07/2000 BR FEW100 13/12 Q1016 NOSIG=,VEPT,03-12-2025 01:30,000,00,,1300 m,FEW100,13,12,1016,,,BR,,,,,,
202512030138 METAR VEPT 030138Z 00000KT 1300 R25/2000 R07/2000 BR FEW100 13/12 Q1016 NOSIG=,VEPT,03-12-2025 01:38,000,00,,1300 m,FEW100,13,12,1016,,,BR,,,,,,
202512030200 METAR VEPT 030200Z 25003KT 1300 R25/2000 R07/2000 BR FEW100 14/10 Q1017 NOSIG=,VEPT,03-12-2025 02:00,250,03,,1300 m,FEW100,14,10,1017,,,BR,,,,,,
202512030230 METAR VEPT 030230Z 23006KT 1400 R25/1900 R07/1900 BR FEW100 15/11 Q1017 BECMG 1500 BR=,VEPT,03-12-2025 02:30,230,06,,1400 m,FEW100,15,11,1017,,,BR,,,BR,,,
202512030300 METAR VEPT 030300Z 22004KT 1500 R25/1900 R07/1900 BR FEW100 16/11 Q1018 NOSIG=,VEPT,03-12-2025 03:00,220,04,,1500 m,FEW100,16,11,1018,,,BR,,,,,,
202512030330 METAR VEPT 030330Z 25003KT 1600 BR NSC 18/11 Q1018 NOSIG=,VEPT,03-12-2025 03:30,250,03,,1600 m,,18,11,1018,,,BR,,,,,,
202512030400 METAR VEPT 030400Z 26005KT 1600 HZ NSC 19/10 Q1018 NOSIG=,VEPT,03-12-2025 04:00,260,05,,1600 m,,19,10,1018,,,HZ,,,,,,
202512030430 METAR VEPT 030430Z 27005KT 1800 HZ NSC 20/10 Q1019 NOSIG=,VEPT,03-12-2025 04:30,270,05,,1800 m,,20,10,1019,,,HZ,,,,,,
202512030500 METAR VEPT 030500Z 29004KT 2000 HZ NSC 21/10 Q1018 NOSIG=,VEPT,03-12-2025 05:00,290,04,,2000 m,,21,10,1018,,,HZ,,,,,,
202512030530 METAR VEPT 030530Z 21004KT 2000 HZ NSC 22/11 Q1018 NOSIG=,VEPT,03-12-2025 05:30,210,04,,2000 m,,22,11,1018,,,HZ,,,,,,
202512030600 METAR VEPT 030600Z 22003KT 2200 HZ NSC 23/11 Q1018 NOSIG=,VEPT,03-12-2025 06:00,220,03,,2200 m,,23,11,1018,,,HZ,,,,,,
202512030630 METAR VEPT 030630Z 22003KT 2500 HZ NSC 24/11 Q1017 NOSIG=,VEPT,03-12-2025 06:30,220,03,,2500 m,,24,11,1017,,,HZ,,,,,,
202512030700 METAR VEPT 030700Z 25005KT 2500 HZ NSC 24/11 Q1017 NOSIG=,VEPT,03-12-2025 07:00,250,05,,2500 m,,24,11,1017,,,HZ,,,,,,
202512030730 METAR VEPT 030730Z 27003KT 2800 HZ NSC 25/10 Q1016 BECMG 3000 HZ=,VEPT,03-12-2025 07:30,270,03,,2800 m,,25,10,1016,,,HZ,,,HZ,,,
202512030800 METAR VEPT 030800Z 24005KT 3000 HZ NSC 26/10 Q1016 NOSIG=,VEPT,03-12-2025 08:00,240,05,,3000 m,,26,10,1016,,,HZ,,,,,,
202512030830 METAR VEPT 030830Z 32003KT 3000 HZ NSC 25/09 Q1015 NOSIG=,VEPT,03-12-2025 08:30,320,03,,3000 m,,25,9,1015,,,HZ,,,,,,
202512030900 METAR VEPT 030900Z 31006KT 3000 HZ NSC 25/10 Q1015 NOSIG=,VEPT,03-12-2025 09:00,310,06,,3000 m,,25,10,1015,,,HZ,,,,,,
202512030930 METAR VEPT 030930Z 28005KT 3000 HZ NSC 25/10 Q1015 NOSIG=,VEPT,03-12-2025 09:30,280,05,,3000 m,,25,10,1015,,,HZ,,,,,,
202512031000 METAR VEPT 031000Z 27005KT 3500 HZ NSC 25/11 Q1015 NOSIG=,VEPT,03-12-2025 10:00,270,05,,3500 m,,25,11,1015,,,HZ,,,,,,
202512031030 METAR VEPT 031030Z 28004KT 3500 HZ NSC 24/11 Q1015 NOSIG=,VEPT,03-12-2025 10:30,280,04,,3500 m,,24,11,1015,,,HZ,,,,,,
202512031100 METAR VEPT 031100Z 27002KT 3500 HZ NSC 23/12 Q1015 BECMG 3000 HZ=,VEPT,03-12-2025 11:00,270,02,,3500 m,,23,12,1015,,,HZ,,,HZ,,,
202512031130 METAR VEPT 031130Z 00000KT 2800 HZ NSC 20/13 Q1015 NOSIG=,VEPT,03-12-2025 11:30,000,00,,2800 m,,20,13,1015,,,HZ,,,,,,
202512031200 METAR VEPT 031200Z 00000KT 2800 HZ NSC 19/14 Q1015 NOSIG=,VEPT,03-12-2025 12:00,000,00,,2800 m,,19,14,1015,,,HZ,,,,,,
202512031230 METAR VEPT 031230Z 00000KT 2500 BR NSC 18/14 Q1016 NOSIG=,VEPT,03-12-2025 12:30,000,00,,2500 m,,18,14,1016,,,BR,,,,,,
202512031300 METAR VEPT 031300Z 00000KT 2500 BR NSC 18/14 Q1016 NOSIG=,VEPT,03-12-2025 13:00,000,00,,2500 m,,18,14,1016,,,BR,,,,,,
202512031330 METAR VEPT 031330Z 00000KT 2500 BR NSC 17/15 Q1016 NOSIG=,VEPT,03-12-2025 13:30,000,00,,2500 m,,17,15,1016,,,BR,,,,,,
202512031400 METAR VEPT 031400Z 00000KT 2500 BR NSC 17/13 Q1017 NOSIG=,VEPT,03-12-2025 14:00,000,00,,2500 m,,17,13,1017,,,BR,,,,,,
202512031430 METAR VEPT 031430Z 00000KT 2500 BR NSC 17/14 Q1017 NOSIG=,VEPT,03-12-2025 14:30,000,00,,2500 m,,17,14,1017,,,BR,,,,,,
202512031500 METAR VEPT 031500Z 00000KT 2500 BR NSC 17/13 Q1017 NOSIG=,VEPT,03-12-2025 15:00,000,00,,2500 m,,17,13,1017,,,BR,,,,,,
202512031530 METAR VEPT 031530Z 00000KT 2500 BR NSC 19/13 Q1017 NOSIG=,VEPT,03-12-2025 15:30,000,00,,2500 m,,19,13,1017,,,BR,,,,,,
202512031600 METAR VEPT 031600Z 00000KT 2500 BR NSC 18/13 Q1017 NOSIG=,VEPT,03-12-2025 16:00,000,00,,2500 m,,18,13,1017,,,BR,,,,,,
202512031630 METAR VEPT 031630Z 00000KT 2200 BR NSC 18/13 Q1017 NOSIG=,VEPT,03-12-2025 16:30,000,00,,2200 m,,18,13,1017,,,BR,,,,,,
202512031700 METAR VEPT 031700Z 00000KT 2200 BR NSC 17/13 Q1017 NOSIG=,VEPT,03-12-2025 17:00,000,00,,2200 m,,17,13,1017,,,BR,,,,,,
202512031730 METAR VEPT 031730Z 00000KT 2200 BR NSC 17/13 Q1017 NOSIG=,VEPT,03-12-2025 17:30,000,00,,2200 m,,17,13,1017,,,BR,,,,,,
202512031800 METAR VEPT 031800Z 00000KT 2200 BR NSC 17/13 Q1017 NOSIG=,VEPT,03-12-2025 18:00,000,00,,2200 m,,17,13,1017,,,BR,,,,,,
202512031830 METAR VEPT 031830Z 00000KT 2000 BR NSC 17/12 Q1016 NOSIG=,VEPT,03-12-2025 18:30,000,00,,2000 m,,17,12,1016,,,BR,,,,,,
202512031900 METAR VEPT 031900Z 00000KT 2000 BR NSC 16/12 Q1016 NOSIG=,VEPT,03-12-2025 19:00,000,00,,2000 m,,16,12,1016,,,BR,,,,,,
202512031930 METAR VEPT 031930Z 00000KT 2000 BR NSC 16/12 Q1016 NOSIG=,VEPT,03-12-2025 19:30,000,00,,2000 m,,16,12,1016,,,BR,,,,,,
202512032000 METAR VEPT 032000Z 00000KT 2000 BR NSC 16/12 Q1016 NOSIG=,VEPT,03-12-2025 20:00,000,00,,2000 m,,16,12,1016,,,BR,,,,,,
202512032030 METAR VEPT 032030Z 00000KT 2000 BR NSC 16/11 Q1016 NOSIG=,VEPT,03-12-2025 20:30,000,00,,2000 m,,16,11,1016,,,BR,,,,,,
202512032100 METAR VEPT 032100Z 00000KT 2000 BR NSC 15/11 Q1016 NOSIG=,VEPT,03-12-2025 21:00,000,00,,2000 m,,15,11,1016,,,BR,,,,,,
202512032130 METAR VEPT 032130Z 00000KT 1800 BR NSC 15/14 Q1016 NOSIG=,VEPT,03-12-2025 21:30,000,00,,1800 m,,15,14,1016,,,BR,,,,,,
202512032200 METAR VEPT 032200Z 00000KT 1800 BR NSC 15/14 Q1016 NOSIG=,VEPT,03-12-2025 22:00,000,00,,1800 m,,15,14,1016,,,BR,,,,,,
202512032230 METAR VEPT 032230Z 00000KT 1800 BR NSC 15/14 Q1016 NOSIG=,VEPT,03-12-2025 22:30,000,00,,1800 m,,15,14,1016,,,BR,,,,,,
202512032300 METAR VEPT 032300Z 26003KT 1800 BR NSC 15/14 Q1016 NOSIG=,VEPT,03-12-2025 23:00,260,03,,1800 m,,15,14,1016,,,BR,,,,,,
202512032302 METAR VEPT 032302Z 26003KT 1800 BR NSC 15/14 Q1016 NOSIG=,VEPT,03-12-2025 23:02,260,03,,1800 m,,15,14,1016,,,BR,,,,,,
202512032330 METAR VEPT 032330Z 25004KT 1600 BR NSC 15/15 Q1016 NOSIG=,VEPT,03-12-2025 23:30,250,04,,1600 m,,15,15,1016,,,BR,,,,,,
202512040000 METAR VEPT 040000Z 25005KT 1600 BR NSC 14/14 Q1016 NOSIG=,VEPT,04-12-2025 00:00,250,05,,1600 m,,14,14,1016,,,BR,,,,,,
202512040030 METAR VEPT 040030Z 25003KT 1600 BR NSC 14/14 Q1016 BECMG 1500 BR=,VEPT,04-12-2025 00:30,250,03,,1600 m,,14,14,1016,,,BR,,,BR,,,
202512040100 METAR VEPT 040100Z 23003KT 1500 R25/1900 R07/1900 BR NSC 14/14 Q1017 NOSIG=,VEPT,04-12-2025 01:00,230,03,,1500 m,,14,14,1017,,,BR,,,,,,
202512040130 METAR VEPT 040130Z 25003KT 1400 R25/2000 R07/2000 BR NSC 14/14 Q1017 NOSIG=,VEPT,04-12-2025 01:30,250,03,,1400 m,,14,14,1017,,,BR,,,,,,
202512040200 METAR VEPT 040200Z 28006KT 1400 R25/2000 R07/1800 BR NSC 15/13 Q1018 NOSIG=,VEPT,04-12-2025 02:00,280,06,,1400 m,,15,13,1018,,,BR,,,,,,
202512040230 METAR VEPT 040230Z 26003KT 1200 R25/1700 R07/1700 MIFG NSC 16/13 Q1018 NOSIG=,VEPT,04-12-2025 02:30,260,03,,1200 m,,16,13,1018,,MI,FG,,,,,,
202512040300 METAR VEPT 040300Z 26003KT 1200 R25/1800 R07/1800 MIFG NSC 17/14 Q1019 NOSIG=,VEPT,04-12-2025 03:00,260,03,,1200 m,,17,14,1019,,MI,FG,,,,,,
202512040330 METAR VEPT 040330Z 28004KT 1400 R25/2000 R07/1900 HZ NSC 19/12 Q1019 BECMG 1500 HZ=,VEPT,04-12-2025 03:30,280,04,,1400 m,,19,12,1019,,,HZ,,,HZ,,,
202512040400 METAR VEPT 040400Z 27006KT 1600 HZ NSC 20/13 Q1019 NOSIG=,VEPT,04-12-2025 04:00,270,06,,1600 m,,20,13,1019,,,HZ,,,,,,
202512040430 METAR VEPT 040430Z 28005KT 1600 HZ NSC 22/12 Q1019 NOSIG=,VEPT,04-12-2025 04:30,280,05,,1600 m,,22,12,1019,,,HZ,,,,,,
202512040500 METAR VEPT 040500Z 27005KT 2000 HZ NSC 22/12 Q1019 NOSIG=,VEPT,04-12-2025 05:00,270,05,,2000 m,,22,12,1019,,,HZ,,,,,,
202512040530 METAR VEPT 040530Z 24004KT 2200 HZ NSC 24/13 Q1019 NOSIG=,VEPT,04-12-2025 05:30,240,04,,2200 m,,24,13,1019,,,HZ,,,,,,
202512040600 METAR VEPT 040600Z 27008KT 2800 HZ NSC 25/11 Q1018 BECMG 3000 HZ=,VEPT,04-12-2025 06:00,270,08,,2800 m,,25,11,1018,,,HZ,,,HZ,,,
202512040630 METAR VEPT 040630Z 27010KT 3500 HZ NSC 25/07 Q1018 NOSIG=,VEPT,04-12-2025 06:30,270,10,,3500 m,,25,7,1018,,,HZ,,,,,,
202512040700 METAR VEPT 040700Z 33010KT 4500 HZ NSC 25/06 Q1017 BECMG 5000 HZ=,VEPT,04-12-2025 07:00,330,10,,4500 m,,25,6,1017,,,HZ,,,HZ,,,
202512040730 METAR VEPT 040730Z 31008KT 5000 HZ NSC 25/07 Q1017 NOSIG=,VEPT,04-12-2025 07:30,310,08,,5000 m,,25,7,1017,,,HZ,,,,,,
202512040800 METAR VEPT 040800Z 27009KT 5000 HZ NSC 26/07 Q1016 NOSIG=,VEPT,04-12-2025 08:00,270,09,,5000 m,,26,7,1016,,,HZ,,,,,,
202512040830 METAR VEPT 040830Z 28006KT 5000 HZ NSC 26/07 Q1016 NOSIG=,VEPT,04-12-2025 08:30,280,06,,5000 m,,26,7,1016,,,HZ,,,,,,
202512040900 METAR VEPT 040900Z 28009KT 5000 HZ NSC 25/07 Q1016 NOSIG=,VEPT,04-12-2025 09:00,280,09,,5000 m,,25,7,1016,,,HZ,,,,,,
202512040930 METAR VEPT 040930Z 28009KT 5000 HZ NSC 25/07 Q1016 NOSIG=,VEPT,04-12-2025 09:30,280,09,,5000 m,,25,7,1016,,,HZ,,,,,,
202512041000 METAR VEPT 041000Z 27009KT 5000 HZ NSC 25/07 Q1016 NOSIG=,VEPT,04-12-2025 10:00,270,09,,5000 m,,25,7,1016,,,HZ,,,,,,
202512041030 METAR VEPT 041030Z 27007KT 5000 HZ NSC 25/07 Q1016 NOSIG=,VEPT,04-12-2025 10:30,270,07,,5000 m,,25,7,1016,,,HZ,,,,,,
202512041100 METAR VEPT 041100Z 27005KT 4500 HZ NSC 24/07 Q1016 NOSIG=,VEPT,04-12-2025 11:00,270,05,,4500 m,,24,7,1016,,,HZ,,,,,,
202512041130 METAR VEPT 041130Z 28004KT 4500 HZ NSC 23/07 Q1016 NOSIG=,VEPT,04-12-2025 11:30,280,04,,4500 m,,23,7,1016,,,HZ,,,,,,
202512041200 METAR VEPT 041200Z 27003KT 4000 HZ NSC 21/08 Q1016 NOSIG=,VEPT,04-12-2025 12:00,270,03,,4000 m,,21,8,1016,,,HZ,,,,,,
202512041230 METAR VEPT 041230Z 24004KT 4000 HZ NSC 20/09 Q1017 NOSIG=,VEPT,04-12-2025 12:30,240,04,,4000 m,,20,9,1017,,,HZ,,,,,,
202512041300 METAR VEPT 041300Z 28003KT 3500 HZ NSC 19/10 Q1017 NOSIG=,VEPT,04-12-2025 13:00,280,03,,3500 m,,19,10,1017,,,HZ,,,,,,
202512041330 METAR VEPT 041330Z 00000KT 3500 HZ NSC 18/10 Q1017 NOSIG=,VEPT,04-12-2025 13:30,000,00,,3500 m,,18,10,1017,,,HZ,,,,,,
202512041400 METAR VEPT 041400Z 00000KT 3500 HZ NSC 16/09 Q1018 NOSIG=,VEPT,04-12-2025 14:00,000,00,,3500 m,,16,9,1018,,,HZ,,,,,,
202512041430 METAR VEPT 041430Z 00000KT 3500 HZ NSC 16/11 Q1018 NOSIG=,VEPT,04-12-2025 14:30,000,00,,3500 m,,16,11,1018,,,HZ,,,,,,
202512041500 METAR VEPT 041500Z 00000KT 3500 HZ NSC 16/09 Q1018 NOSIG=,VEPT,04-12-2025 15:00,000,00,,3500 m,,16,9,1018,,,HZ,,,,,,
202512041530 METAR VEPT 041530Z 00000KT 3500 HZ NSC 16/09 Q1019 BECMG 3000 HZ=,VEPT,04-12-2025 15:30,000,00,,3500 m,,16,9,1019,,,HZ,,,HZ,,,
202512041600 METAR VEPT 041600Z 00000KT 3000 HZ NSC 16/09 Q1019 NOSIG=,VEPT,04-12-2025 16:00,000,00,,3000 m,,16,9,1019,,,HZ,,,,,,
202512041630 METAR VEPT 041630Z 00000KT 2800 HZ NSC 16/09 Q1019 NOSIG=,VEPT,04-12-2025 16:30,000,00,,2800 m,,16,9,1019,,,HZ,,,,,,
202512041700 METAR VEPT 041700Z 00000KT 2800 HZ NSC 13/09 Q1019 NOSIG=,VEPT,04-12-2025 17:00,000,00,,2800 m,,13,9,1019,,,HZ,,,,,,
202512041730 METAR VEPT 041730Z 00000KT 2800 HZ NSC 13/09 Q1019 NOSIG=,VEPT,04-12-2025 17:30,000,00,,2800 m,,13,9,1019,,,HZ,,,,,,
202512041800 METAR VEPT 041800Z 00000KT 2500 HZ NSC 14/09 Q1019 NOSIG=,VEPT,04-12-2025 18:00,000,00,,2500 m,,14,9,1019,,,HZ,,,,,,
202512041830 METAR VEPT 041830Z 00000KT 2500 HZ NSC 14/08 Q1019 NOSIG=,VEPT,04-12-2025 18:30,000,00,,2500 m,,14,8,1019,,,HZ,,,,,,
202512041900 METAR VEPT 041900Z 00000KT 2500 HZ NSC 15/08 Q1019 NOSIG=,VEPT,04-12-2025 19:00,000,00,,2500 m,,15,8,1019,,,HZ,,,,,,
202512041930 METAR VEPT 041930Z 00000KT 2500 HZ NSC 14/08 Q1019 NOSIG=,VEPT,04-12-2025 19:30,000,00,,2500 m,,14,8,1019,,,HZ,,,,,,
202512042000 METAR VEPT 042000Z 00000KT 2200 HZ NSC 14/08 Q1019 NOSIG=,VEPT,04-12-2025 20:00,000,00,,2200 m,,14,8,1019,,,HZ,,,,,,
202512042030 METAR VEPT 042030Z 00000KT 2200 HZ NSC 13/08 Q1019 NOSIG=,VEPT,04-12-2025 20:30,000,00,,2200 m,,13,8,1019,,,HZ,,,,,,
202512042100 METAR VEPT 042100Z 00000KT 2200 HZ NSC 13/07 Q1019 NOSIG=,VEPT,04-12-2025 21:00,000,00,,2200 m,,13,7,1019,,,HZ,,,,,,
202512042130 METAR VEPT 042130Z 00000KT 2200 HZ NSC 13/08 Q1018 NOSIG=,VEPT,04-12-2025 21:30,000,00,,2200 m,,13,8,1018,,,HZ,,,,,,
202512042200 METAR VEPT 042200Z 23003KT 2200 HZ NSC 12/07 Q1018 NOSIG=,VEPT,04-12-2025 22:00,230,03,,2200 m,,12,7,1018,,,HZ,,,,,,
202512042230 METAR VEPT 042230Z 24003KT 2000 HZ NSC 13/07 Q1019 NOSIG=,VEPT,04-12-2025 22:30,240,03,,2000 m,,13,7,1019,,,HZ,,,,,,
202512042300 METAR VEPT 042300Z 00000KT 2000 HZ NSC 12/08 Q1019 NOSIG=,VEPT,04-12-2025 23:00,000,00,,2000 m,,12,8,1019,,,HZ,,,,,,
202512042330 METAR VEPT 042330Z 24004KT 2000 HZ NSC 13/07 Q1019 NOSIG=,VEPT,04-12-2025 23:30,240,04,,2000 m,,13,7,1019,,,HZ,,,,,,
202512050000 METAR VEPT 050000Z 26004KT 2000 HZ NSC 14/07 Q1019 NOSIG=,VEPT,05-12-2025 00:00,260,04,,2000 m,,14,7,1019,,,HZ,,,,,,
202512050030 METAR VEPT 050030Z 25006KT 1800 HZ NSC 14/07 Q1019 NOSIG=,VEPT,05-12-2025 00:30,250,06,,1800 m,,14,7,1019,,,HZ,,,,,,
202512050100 METAR VEPT 050100Z 27004KT 1800 HZ NSC 13/07 Q1020 NOSIG=,VEPT,05-12-2025 01:00,270,04,,1800 m,,13,7,1020,,,HZ,,,,,,
202512050130 METAR VEPT 050130Z 26004KT 1600 HZ NSC 12/08 Q1020 NOSIG=,VEPT,05-12-2025 01:30,260,04,,1600 m,,12,8,1020,,,HZ,,,,,,
202512050200 METAR VEPT 050200Z 25005KT 1600 BR NSC 13/09 Q1020 BECMG 1500 BR=,VEPT,05-12-2025 02:00,250,05,,1600 m,,13,9,1020,,,BR,,,BR,,,
202512050230 METAR VEPT 050230Z 24004KT 1600 BR NSC 13/10 Q1021 NOSIG=,VEPT,05-12-2025 02:30,240,04,,1600 m,,13,10,1021,,,BR,,,,,,
202512050300 METAR VEPT 050300Z 27003KT 1600 HZ NSC 15/10 Q1021 NOSIG=,VEPT,05-12-2025 03:00,270,03,,1600 m,,15,10,1021,,,HZ,,,,,,
202512050330 METAR VEPT 050330Z 25004KT 1700 HZ NSC 16/09 Q1021 NOSIG=,VEPT,05-12-2025 03:30,250,04,,1700 m,,16,9,1021,,,HZ,,,,,,
202512050400 METAR VEPT 050400Z 26005KT 1800 HZ NSC 17/09 Q1022 NOSIG=,VEPT,05-12-2025 04:00,260,05,,1800 m,,17,9,1022,,,HZ,,,,,,
202512050430 METAR VEPT 050430Z 26006KT 1800 HZ NSC 18/09 Q1021 NOSIG=,VEPT,05-12-2025 04:30,260,06,,1800 m,,18,9,1021,,,HZ,,,,,,
202512050500 METAR VEPT 050500Z 27005KT 2000 HZ NSC 19/10 Q1021 NOSIG=,VEPT,05-12-2025 05:00,270,05,,2000 m,,19,10,1021,,,HZ,,,,,,
202512050530 METAR VEPT 050530Z 26008KT 2200 HZ NSC 20/10 Q1021 NOSIG=,VEPT,05-12-2025 05:30,260,08,,2200 m,,20,10,1021,,,HZ,,,,,,
202512050600 METAR VEPT 050600Z 27005KT 2500 HZ NSC 21/10 Q1020 NOSIG=,VEPT,05-12-2025 06:00,270,05,,2500 m,,21,10,1020,,,HZ,,,,,,
202512050630 METAR VEPT 050630Z 28007KT 2800 HZ NSC 22/10 Q1019 NOSIG=,VEPT,05-12-2025 06:30,280,07,,2800 m,,22,10,1019,,,HZ,,,,,,
202512050700 METAR VEPT 050700Z 27006KT 2800 HZ NSC 23/10 Q1019 BECMG 3000 HZ=,VEPT,05-12-2025 07:00,270,06,,2800 m,,23,10,1019,,,HZ,,,HZ,,,
202512050730 METAR VEPT 050730Z 27006KT 3000 HZ NSC 24/09 Q1018 NOSIG=,VEPT,05-12-2025 07:30,270,06,,3000 m,,24,9,1018,,,HZ,,,,,,
202512050800 METAR VEPT 050800Z 28006KT 3500 HZ NSC 24/08 Q1018 NOSIG=,VEPT,05-12-2025 08:00,280,06,,3500 m,,24,8,1018,,,HZ,,,,,,
202512050830 METAR VEPT 050830Z 26006KT 4000 HZ NSC 24/07 Q1017 NOSIG=,VEPT,05-12-2025 08:30,260,06,,4000 m,,24,7,1017,,,HZ,,,,,,
202512050900 METAR VEPT 050900Z 26006KT 4500 HZ NSC 24/07 Q1017 NOSIG=,VEPT,05-12-2025 09:00,260,06,,4500 m,,24,7,1017,,,HZ,,,,,,
202512050930 METAR VEPT 050930Z 25005KT 4500 HZ NSC 24/07 Q1017 NOSIG=,VEPT,05-12-2025 09:30,250,05,,4500 m,,24,7,1017,,,HZ,,,,,,
202512051000 METAR VEPT 051000Z 28005KT 4500 HZ NSC 24/07 Q1017 NOSIG=,VEPT,05-12-2025 10:00,280,05,,4500 m,,24,7,1017,,,HZ,,,,,,
202512051030 METAR VEPT 051030Z 28005KT 4500 HZ NSC 24/07 Q1017 NOSIG=,VEPT,05-12-2025 10:30,280,05,,4500 m,,24,7,1017,,,HZ,,,,,,
202512051100 METAR VEPT 051100Z 28005KT 4500 HZ NSC 23/07 Q1017 NOSIG=,VEPT,05-12-2025 11:00,280,05,,4500 m,,23,7,1017,,,HZ,,,,,,
202512051130 METAR VEPT 051130Z 28003KT 4000 HZ NSC 21/08 Q1017 BECMG 3000 HZ=,VEPT,05-12-2025 11:30,280,03,,4000 m,,21,8,1017,,,HZ,,,HZ,,,
202512051200 METAR VEPT 051200Z 00000KT 3000 HZ NSC 20/11 Q1017 NOSIG=,VEPT,05-12-2025 12:00,000,00,,3000 m,,20,11,1017,,,HZ,,,,,,
202512051230 METAR VEPT 051230Z 00000KT 3000 HZ NSC 17/11 Q1017 NOSIG=,VEPT,05-12-2025 12:30,000,00,,3000 m,,17,11,1017,,,HZ,,,,,,
202512051300 METAR VEPT 051300Z 00000KT 3000 HZ NSC 17/10 Q1017 NOSIG=,VEPT,05-12-2025 13:00,000,00,,3000 m,,17,10,1017,,,HZ,,,,,,
202512051330 METAR VEPT 051330Z 00000KT 3000 HZ NSC 17/10 Q1018 NOSIG=,VEPT,05-12-2025 13:30,000,00,,3000 m,,17,10,1018,,,HZ,,,,,,
202512051400 METAR VEPT 051400Z 28006KT 3000 HZ NSC 18/08 Q1018 NOSIG=,VEPT,05-12-2025 14:00,280,06,,3000 m,,18,8,1018,,,HZ,,,,,,
202512051430 METAR VEPT 051430Z 28006KT 3000 HZ NSC 18/08 Q1018 NOSIG=,VEPT,05-12-2025 14:30,280,06,,3000 m,,18,8,1018,,,HZ,,,,,,
202512051500 METAR VEPT 051500Z 28005KT 2500 HZ NSC 17/08 Q1018 NOSIG=,VEPT,05-12-2025 15:00,280,05,,2500 m,,17,8,1018,,,HZ,,,,,,
202512051530 METAR VEPT 051530Z 26004KT 2500 HZ NSC 17/08 Q1018 NOSIG=,VEPT,05-12-2025 15:30,260,04,,2500 m,,17,8,1018,,,HZ,,,,,,
202512051600 METAR VEPT 051600Z 26006KT 2500 HZ NSC 16/08 Q1018 NOSIG=,VEPT,05-12-2025 16:00,260,06,,2500 m,,16,8,1018,,,HZ,,,,,,
202512051630 METAR VEPT 051630Z 26006KT 2500 HZ NSC 16/08 Q1018 NOSIG=,VEPT,05-12-2025 16:30,260,06,,2500 m,,16,8,1018,,,HZ,,,,,,
202512051700 METAR VEPT 051700Z 27005KT 2500 HZ NSC 16/08 Q1018 NOSIG=,VEPT,05-12-2025 17:00,270,05,,2500 m,,16,8,1018,,,HZ,,,,,,
202512051730 METAR VEPT 051730Z 27007KT 2500 HZ NSC 15/08 Q1018 NOSIG=,VEPT,05-12-2025 17:30,270,07,,2500 m,,15,8,1018,,,HZ,,,,,,
202512051800 METAR VEPT 051800Z 28007KT 2500 HZ NSC 15/09 Q1018 NOSIG=,VEPT,05-12-2025 18:00,280,07,,2500 m,,15,9,1018,,,HZ,,,,,,
202512051830 METAR VEPT 051830Z 26006KT 2200 HZ NSC 14/08 Q1018 NOSIG=,VEPT,05-12-2025 18:30,260,06,,2200 m,,14,8,1018,,,HZ,,,,,,
202512051900 METAR VEPT 051900Z 27007KT 2200 HZ NSC 14/08 Q1018 NOSIG=,VEPT,05-12-2025 19:00,270,07,,2200 m,,14,8,1018,,,HZ,,,,,,
202512051930 METAR VEPT 051930Z 27005KT 2200 HZ NSC 14/08 Q1018 NOSIG=,VEPT,05-12-2025 19:30,270,05,,2200 m,,14,8,1018,,,HZ,,,,,,
202512052000 METAR VEPT 052000Z 28005KT 2200 HZ NSC 14/08 Q1018 NOSIG=,VEPT,05-12-2025 20:00,280,05,,2200 m,,14,8,1018,,,HZ,,,,,,
202512052030 METAR VEPT 052030Z 26005KT 2200 HZ NSC 14/09 Q1018 NOSIG=,VEPT,05-12-2025 20:30,260,05,,2200 m,,14,9,1018,,,HZ,,,,,,
202512052100 METAR VEPT 052100Z 26005KT 2200 HZ NSC 14/09 Q1018 NOSIG=,VEPT,05-12-2025 21:00,260,05,,2200 m,,14,9,1018,,,HZ,,,,,,
202512052130 METAR VEPT 052130Z 25005KT 2000 BR NSC 13/09 Q1017 NOSIG=,VEPT,05-12-2025 21:30,250,05,,2000 m,,13,9,1017,,,BR,,,,,,
202512052200 METAR VEPT 052200Z 25005KT 2000 BR NSC 12/09 Q1017 NOSIG=,VEPT,05-12-2025 22:00,250,05,,2000 m,,12,9,1017,,,BR,,,,,,
202512052230 METAR VEPT 052230Z 24004KT 2000 BR NSC 12/08 Q1017 NOSIG=,VEPT,05-12-2025 22:30,240,04,,2000 m,,12,8,1017,,,BR,,,,,,
202512052300 METAR VEPT 052300Z 25007KT 2000 BR NSC 12/08 Q1017 NOSIG=,VEPT,05-12-2025 23:00,250,07,,2000 m,,12,8,1017,,,BR,,,,,,
202512052330 METAR VEPT 052330Z 25004KT 2000 BR NSC 13/09 Q1017 NOSIG=,VEPT,05-12-2025 23:30,250,04,,2000 m,,13,9,1017,,,BR,,,,,,
202512060000 METAR VEPT 060000Z 26004KT 2000 BR NSC 12/08 Q1018 NOSIG=,VEPT,06-12-2025 00:00,260,04,,2000 m,,12,8,1018,,,BR,,,,,,
202512060030 METAR VEPT 060030Z 26006KT 2000 BR NSC 13/09 Q1018 NOSIG=,VEPT,06-12-2025 00:30,260,06,,2000 m,,13,9,1018,,,BR,,,,,,
202512060100 METAR VEPT 060100Z 26006KT 1600 BR NSC 13/09 Q1018 NOSIG=,VEPT,06-12-2025 01:00,260,06,,1600 m,,13,9,1018,,,BR,,,,,,
202512060130 METAR VEPT 060130Z 26003KT 1600 BR NSC 13/09 Q1019 NOSIG=,VEPT,06-12-2025 01:30,260,03,,1600 m,,13,9,1019,,,BR,,,,,,
202512060200 METAR VEPT 060200Z 25003KT 1600 BR NSC 13/11 Q1019 NOSIG=,VEPT,06-12-2025 02:00,250,03,,1600 m,,13,11,1019,,,BR,,,,,,
202512060230 METAR VEPT 060230Z 27004KT 1600 BR NSC 14/10 Q1020 NOSIG=,VEPT,06-12-2025 02:30,270,04,,1600 m,,14,10,1020,,,BR,,,,,,
202512060300 METAR VEPT 060300Z 25004KT 1800 BR NSC 15/10 Q1020 NOSIG=,VEPT,06-12-2025 03:00,250,04,,1800 m,,15,10,1020,,,BR,,,,,,
202512060330 METAR VEPT 060330Z 27004KT 2000 BR NSC 16/10 Q1020 NOSIG=,VEPT,06-12-2025 03:30,270,04,,2000 m,,16,10,1020,,,BR,,,,,,
202512060400 METAR VEPT 060400Z 25005KT 2000 HZ NSC 17/10 Q1020 NOSIG=,VEPT,06-12-2025 04:00,250,05,,2000 m,,17,10,1020,,,HZ,,,,,,
202512060430 METAR VEPT 060430Z 26003KT 2000 HZ NSC 19/11 Q1020 NOSIG=,VEPT,06-12-2025 04:30,260,03,,2000 m,,19,11,1020,,,HZ,,,,,,
202512060730 METAR VEPT 060730Z 27005KT 4000 HZ NSC 24/11 Q1017 NOSIG=,VEPT,06-12-2025 07:30,270,05,,4000 m,,24,11,1017,,,HZ,,,,,,
202512060800 METAR VEPT 060800Z 29007KT 4500 HZ NSC 24/09 Q1016 NOSIG=,VEPT,06-12-2025 08:00,290,07,,4500 m,,24,9,1016,,,HZ,,,,,,
202512060830 METAR VEPT 060830Z 26007KT 4500 HZ NSC 24/10 Q1016 BECMG 5000 HZ=,VEPT,06-12-2025 08:30,260,07,,4500 m,,24,10,1016,,,HZ,,,HZ,,,
202512060900 METAR VEPT 060900Z 27006KT 5000 HZ NSC 24/10 Q1016 NOSIG=,VEPT,06-12-2025 09:00,270,06,,5000 m,,24,10,1016,,,HZ,,,,,,
202512060930 METAR VEPT 060930Z 26009KT 5000 HZ NSC 25/10 Q1016 NOSIG=,VEPT,06-12-2025 09:30,260,09,,5000 m,,25,10,1016,,,HZ,,,,,,
202512061000 METAR VEPT 061000Z 27007KT 5000 HZ NSC 24/08 Q1016 NOSIG=,VEPT,06-12-2025 10:00,270,07,,5000 m,,24,8,1016,,,HZ,,,,,,
202512061030 METAR VEPT 061030Z 28005KT 5000 HZ NSC 23/09 Q1016 NOSIG=,VEPT,06-12-2025 10:30,280,05,,5000 m,,23,9,1016,,,HZ,,,,,,
202512061100 METAR VEPT 061100Z 28005KT 4000 HZ NSC 23/09 Q1016 NOSIG=,VEPT,06-12-2025 11:00,280,05,,4000 m,,23,9,1016,,,HZ,,,,,,
202512061130 METAR VEPT 061130Z 26003KT 3500 HZ FEW100 22/09 Q1016 NOSIG=,VEPT,06-12-2025 11:30,260,03,,3500 m,FEW100,22,9,1016,,,HZ,,,,,,
202512061200 METAR VEPT 061200Z 00000KT 3500 HZ FEW100 19/12 Q1017 NOSIG=,VEPT,06-12-2025 12:00,000,00,,3500 m,FEW100,19,12,1017,,,HZ,,,,,,
202512061230 METAR VEPT 061230Z 00000KT 3500 HZ FEW100 17/11 Q1017 NOSIG=,VEPT,06-12-2025 12:30,000,00,,3500 m,FEW100,17,11,1017,,,HZ,,,,,,
202512061300 METAR VEPT 061300Z 00000KT 3500 HZ FEW100 18/11 Q1017 NOSIG=,VEPT,06-12-2025 13:00,000,00,,3500 m,FEW100,18,11,1017,,,HZ,,,,,,
202512061330 METAR VEPT 061330Z 00000KT 3500 HZ FEW100 17/10 Q1017 BECMG 3000 HZ=,VEPT,06-12-2025 13:30,000,00,,3500 m,FEW100,17,10,1017,,,HZ,,,HZ,,,
202512061400 METAR VEPT 061400Z 00000KT 3000 HZ FEW100 17/10 Q1018 NOSIG=,VEPT,06-12-2025 14:00,000,00,,3000 m,FEW100,17,10,1018,,,HZ,,,,,,
202512061430 METAR VEPT 061430Z 00000KT 3000 HZ FEW100 17/10 Q1018 NOSIG=,VEPT,06-12-2025 14:30,000,00,,3000 m,FEW100,17,10,1018,,,HZ,,,,,,
202512061500 METAR VEPT 061500Z 26003KT 2800 HZ FEW100 16/10 Q1018 NOSIG=,VEPT,06-12-2025 15:00,260,03,,2800 m,FEW100,16,10,1018,,,HZ,,,,,,
202512061530 METAR VEPT 061530Z 27004KT 2500 HZ FEW100 17/09 Q1018 NOSIG=,VEPT,06-12-2025 15:30,270,04,,2500 m,FEW100,17,9,1018,,,HZ,,,,,,
202512061600 METAR VEPT 061600Z 25004KT 2500 HZ FEW100 17/09 Q1018 NOSIG=,VEPT,06-12-2025 16:00,250,04,,2500 m,FEW100,17,9,1018,,,HZ,,,,,,
202512061630 METAR VEPT 061630Z 26005KT 2500 HZ FEW100 17/09 Q1018 NOSIG=,VEPT,06-12-2025 16:30,260,05,,2500 m,FEW100,17,9,1018,,,HZ,,,,,,
202512061700 METAR VEPT 061700Z 24003KT 2500 HZ FEW100 15/08 Q1018 NOSIG=,VEPT,06-12-2025 17:00,240,03,,2500 m,FEW100,15,8,1018,,,HZ,,,,,,
202512061730 METAR VEPT 061730Z 24004KT 2000 HZ FEW100 15/08 Q1018 NOSIG=,VEPT,06-12-2025 17:30,240,04,,2000 m,FEW100,15,8,1018,,,HZ,,,,,,
202512061800 METAR VEPT 061800Z 26003KT 2000 HZ NSC 16/08 Q1018 NOSIG=,VEPT,06-12-2025 18:00,260,03,,2000 m,,16,8,1018,,,HZ,,,,,,
202512061830 METAR VEPT 061830Z 00000KT 2000 HZ NSC 14/08 Q1018 NOSIG=,VEPT,06-12-2025 18:30,000,00,,2000 m,,14,8,1018,,,HZ,,,,,,
202512061900 METAR VEPT 061900Z 00000KT 2000 HZ NSC 13/08 Q1018 NOSIG=,VEPT,06-12-2025 19:00,000,00,,2000 m,,13,8,1018,,,HZ,,,,,,
202512061930 METAR VEPT 061930Z 25004KT 2000 HZ NSC 14/08 Q1018 NOSIG=,VEPT,06-12-2025 19:30,250,04,,2000 m,,14,8,1018,,,HZ,,,,,,
202512062000 METAR VEPT 062000Z 26004KT 2000 HZ NSC 14/08 Q1018 NOSIG=,VEPT,06-12-2025 20:00,260,04,,2000 m,,14,8,1018,,,HZ,,,,,,
202512062030 METAR VEPT 062030Z 26005KT 2000 HZ NSC 15/08 Q1018 NOSIG=,VEPT,06-12-2025 20:30,260,05,,2000 m,,15,8,1018,,,HZ,,,,,,
202512062100 METAR VEPT 062100Z 26004KT 2000 HZ NSC 15/08 Q1018 NOSIG=,VEPT,06-12-2025 21:00,260,04,,2000 m,,15,8,1018,,,HZ,,,,,,
202512062130 METAR VEPT 062130Z 25003KT 1800 HZ NSC 14/08 Q1017 NOSIG=,VEPT,06-12-2025 21:30,250,03,,1800 m,,14,8,1017,,,HZ,,,,,,
202512062200 METAR VEPT 062200Z 24003KT 1800 HZ NSC 13/08 Q1017 NOSIG=,VEPT,06-12-2025 22:00,240,03,,1800 m,,13,8,1017,,,HZ,,,,,,
202512062230 METAR VEPT 062230Z 00000KT 1800 BR FEW100 12/08 Q1017 NOSIG=,VEPT,06-12-2025 22:30,000,00,,1800 m,FEW100,12,8,1017,,,BR,,,,,,
202512062300 METAR VEPT 062300Z 00000KT 1800 BR FEW100 12/08 Q1017 NOSIG=,VEPT,06-12-2025 23:00,000,00,,1800 m,FEW100,12,8,1017,,,BR,,,,,,
202512062330 METAR VEPT 062330Z 24004KT 1600 BR FEW100 12/08 Q1017 BECMG 1500 BR=,VEPT,06-12-2025 23:30,240,04,,1600 m,FEW100,12,8,1017,,,BR,,,BR,,,
202512070000 METAR VEPT 070000Z 25004KT 1600 BR FEW100 12/08 Q1017 NOSIG=,VEPT,07-12-2025 00:00,250,04,,1600 m,FEW100,12,8,1017,,,BR,,,,,,
202512070030 METAR VEPT 070030Z 22006KT 1600 BR FEW100 12/08 Q1018 NOSIG=,VEPT,07-12-2025 00:30,220,06,,1600 m,FEW100,12,8,1018,,,BR,,,,,,
202512070100 METAR VEPT 070100Z 22005KT 1300 R25/2000 R07/2000 BR FEW100 11/08 Q1018 NOSIG=,VEPT,07-12-2025 01:00,220,05,,1300 m,FEW100,11,8,1018,,,BR,,,,,,
202512070130 METAR VEPT 070130Z 23005KT 1200 R25/2000 R07/2000 MIFG FEW100 12/08 Q1019 NOSIG=,VEPT,07-12-2025 01:30,230,05,,1200 m,FEW100,12,8,1019,,MI,FG,,,,,,
202512070200 METAR VEPT 070200Z 24003KT 1300 R25/1800 R07/1900 BR FEW100 13/09 Q10 19 NOSIG=,VEPT,07-12-2025 02:00,240,03,,1300 m,FEW100,13,9,,,,BR,,,,,,
202512070230 METAR VEPT 070230Z 23004KT 1400 R25/2000 R07/2000 BR FEW100 14/09 Q1019 BECMG 1500 HZ=,VEPT,07-12-2025 02:30,230,04,,1400 m,FEW100,14,9,1019,,,BR,,,HZ,,,
202512070300 METAR VEPT 070300Z 25005KT 1500 R25/1900 R07/1900 HZ FEW100 15/09 Q10 20 NOSIG=,VEPT,07-12-2025 03:00,250,05,,1500 m,FEW100,15,9,,,,HZ,,,,,,
202512070330 METAR VEPT 070330Z 25007KT 1600 HZ NSC 16/10 Q1020 NOSIG=,VEPT,07-12-2025 03:30,250,07,,1600 m,,16,10,1020,,,HZ,,,,,,
202512070400 METAR VEPT 070400Z 24006KT 1600 HZ NSC 17/10 Q1020 NOSIG=,VEPT,07-12-2025 04:00,240,06,,1600 m,,17,10,1020,,,HZ,,,,,,
202512070430 METAR VEPT 070430Z 27006KT 1800 HZ NSC 18/10 Q1020 NOSIG=,VEPT,07-12-2025 04:30,270,06,,1800 m,,18,10,1020,,,HZ,,,,,,
202512070500 METAR VEPT 070500Z 24005KT 2000 HZ NSC 19/11 Q1020 NOSIG=,VEPT,07-12-2025 05:00,240,05,,2000 m,,19,11,1020,,,HZ,,,,,,
202512070530 METAR VEPT 070530Z 25006KT 2000 HZ NSC 20/11 Q1019 NOSIG=,VEPT,07-12-2025 05:30,250,06,,2000 m,,20,11,1019,,,HZ,,,,,,
202512070600 METAR COR VEPT 070600Z 25005KT 2000 HZ FEW100 21/11 Q1019 NOSIG=,VEPT,07-12-2025 06:00,250,05,,2000 m,FEW100,21,11,1019,,,HZ,,,,,,
202512070630 METAR VEPT 070630Z 26006KT 2200 HZ FEW100 22/11 Q1018 NOSIG=,VEPT,07-12-2025 06:30,260,06,,2200 m,FEW100,22,11,1018,,,HZ,,,,,,
202512070700 METAR VEPT 070700Z 28005KT 2200 HZ FEW100 23/11 Q1018 NOSIG=,VEPT,07-12-2025 07:00,280,05,,2200 m,FEW100,23,11,1018,,,HZ,,,,,,
202512070730 METAR VEPT 070730Z 28006KT 2200 HZ NSC 23/10 Q1017 NOSIG=,VEPT,07-12-2025 07:30,280,06,,2200 m,,23,10,1017,,,HZ,,,,,,
202512070800 METAR VEPT 070800Z 28006KT 2200 HZ NSC 24/11 Q1017 NOSIG=,VEPT,07-12-2025 08:00,280,06,,2200 m,,24,11,1017,,,HZ,,,,,,
202512070830 METAR VEPT 070830Z 25008KT 2200 HZ NSC 24/10 Q1016 NOSIG=,VEPT,07-12-2025 08:30,250,08,,2200 m,,24,10,1016,,,HZ,,,,,,
202512070900 METAR VEPT 070900Z 26007KT 2500 HZ NSC 24/08 Q1016 NOSIG=,VEPT,07-12-2025 09:00,260,07,,2500 m,,24,8,1016,,,HZ,,,,,,
202512070930 METAR VEPT 070930Z 28005KT 2500 HZ NSC 23/09 Q1015 NOSIG=,VEPT,07-12-2025 09:30,280,05,,2500 m,,23,9,1015,,,HZ,,,,,,
202512071000 METAR VEPT 071000Z 27005KT 2500 HZ NSC 23/10 Q1015 NOSIG=,VEPT,07-12-2025 10:00,270,05,,2500 m,,23,10,1015,,,HZ,,,,,,
202512071030 METAR VEPT 071030Z 27004KT 2500 HZ NSC 22/11 Q1015 NOSIG=,VEPT,07-12-2025 10:30,270,04,,2500 m,,22,11,1015,,,HZ,,,,,,
202512071100 METAR VEPT 071100Z 27004KT 2500 HZ NSC 21/11 Q1015 NOSIG=,VEPT,07-12-2025 11:00,270,04,,2500 m,,21,11,1015,,,HZ,,,,,,
202512071130 METAR VEPT 071130Z 00000KT 2800 HZ NSC 19/12 Q1015 NOSIG=,VEPT,07-12-2025 11:30,000,00,,2800 m,,19,12,1015,,,HZ,,,,,,
202512071200 METAR VEPT 071200Z 00000KT 2800 HZ NSC 17/12 Q1016 NOSIG=,VEPT,07-12-2025 12:00,000,00,,2800 m,,17,12,1016,,,HZ,,,,,,
202512071230 METAR VEPT 071230Z 00000KT 2800 HZ NSC 17/12 Q1016 NOSIG=,VEPT,07-12-2025 12:30,000,00,,2800 m,,17,12,1016,,,HZ,,,,,,
202512071300 METAR VEPT 071300Z 00000KT 2500 BR NSC 16/13 Q1016 NOSIG=,VEPT,07-12-2025 13:00,000,00,,2500 m,,16,13,1016,,,BR,,,,,,
202512071330 METAR VEPT 071330Z 00000KT 2500 BR NSC 16/13 Q1016 NOSIG=,VEPT,07-12-2025 13:30,000,00,,2500 m,,16,13,1016,,,BR,,,,,,
202512071400 METAR VEPT 071400Z 00000KT 2500 BR NSC 16/13 Q1016 NOSIG=,VEPT,07-12-2025 14:00,000,00,,2500 m,,16,13,1016,,,BR,,,,,,
202512071430 METAR VEPT 071430Z 00000KT 2500 BR NSC 16/13 Q1016 NOSIG=,VEPT,07-12-2025 14:30,000,00,,2500 m,,16,13,1016,,,BR,,,,,,
202512071500 METAR VEPT 071500Z 00000KT 2500 BR NSC 17/12 Q1017 NOSIG=,VEPT,07-12-2025 15:00,000,00,,2500 m,,17,12,1017,,,BR,,,,,,
202512071530 METAR VEPT 071530Z 00000KT 2000 BR NSC 16/12 Q1017 NOSIG=,VEPT,07-12-2025 15:30,000,00,,2000 m,,16,12,1017,,,BR,,,,,,
202512071600 METAR VEPT 071600Z 00000KT 1800 BR NSC 15/13 Q1017 NOSIG=,VEPT,07-12-2025 16:00,000,00,,1800 m,,15,13,1017,,,BR,,,,,,
202512071630 METAR VEPT 071630Z 00000KT 1800 BR NSC 15/12 Q1017 NOSIG=,VEPT,07-12-2025 16:30,000,00,,1800 m,,15,12,1017,,,BR,,,,,,
202512071700 METAR VEPT 071700Z 00000KT 1800 BR NSC 17/12 Q1017 NOSIG=,VEPT,07-12-2025 17:00,000,00,,1800 m,,17,12,1017,,,BR,,,,,,
202512071730 METAR VEPT 071730Z 00000KT 1800 BR NSC 15/12 Q1017 NOSIG=,VEPT,07-12-2025 17:30,000,00,,1800 m,,15,12,1017,,,BR,,,,,,
202512071800 METAR VEPT 071800Z 00000KT 1800 BR NSC 15/12 Q1017 NOSIG=,VEPT,07-12-2025 18:00,000,00,,1800 m,,15,12,1017,,,BR,,,,,,
202512071830 METAR VEPT 071830Z 00000KT 1800 BR NSC 14/12 Q1017 NOSIG=,VEPT,07-12-2025 18:30,000,00,,1800 m,,14,12,1017,,,BR,,,,,,
202512071900 METAR VEPT 071900Z 00000KT 1600 BR NSC 14/12 Q1017 NOSIG=,VEPT,07-12-2025 19:00,000,00,,1600 m,,14,12,1017,,,BR,,,,,,
202512071930 METAR VEPT 071930Z 00000KT 1600 BR NSC 13/12 Q1016 NOSIG=,VEPT,07-12-2025 19:30,000,00,,1600 m,,13,12,1016,,,BR,,,,,,
202512072000 METAR VEPT 072000Z 00000KT 1600 BR NSC 13/12 Q1016 NOSIG=,VEPT,07-12-2025 20:00,000,00,,1600 m,,13,12,1016,,,BR,,,,,,
202512072030 METAR VEPT 072030Z 00000KT 1600 BR NSC 13/12 Q1016 NOSIG=,VEPT,07-12-2025 20:30,000,00,,1600 m,,13,12,1016,,,BR,,,,,,
202512072100 METAR VEPT 072100Z 00000KT 1600 BR NSC 13/12 Q1016 NOSIG=,VEPT,07-12-2025 21:00,000,00,,1600 m,,13,12,1016,,,BR,,,,,,
202512072130 METAR VEPT 072130Z 00000KT 1600 BR NSC 13/11 Q1016 NOSIG=,VEPT,07-12-2025 21:30,000,00,,1600 m,,13,11,1016,,,BR,,,,,,
202512072200 METAR VEPT 072200Z 00000KT 1600 BR NSC 13/11 Q1016 NOSIG=,VEPT,07-12-2025 22:00,000,00,,1600 m,,13,11,1016,,,BR,,,,,,
202512072230 METAR VEPT 072230Z 25005KT 1600 BR NSC 13/11 Q1016 NOSIG=,VEPT,07-12-2025 22:30,250,05,,1600 m,,13,11,1016,,,BR,,,,,,
202512072300 METAR VEPT 072300Z 25004KT 1600 BR NSC 14/11 Q1016 BECMG 1500 BR=,VEPT,07-12-2025 23:00,250,04,,1600 m,,14,11,1016,,,BR,,,BR,,,
202512072330 METAR VEPT 072330Z 24004KT 1400 R25/1500 R07/1600 BR NSC 13/10 Q1016 NOSIG=,VEPT,07-12-2025 23:30,240,04,,1400 m,,13,10,1016,,,BR,,,,,,
202512080000 METAR VEPT 080000Z 25005KT 1400 R25/1600 R07/1600 BR NSC 13/11 Q1016 NOSIG=,VEPT,08-12-2025 00:00,250,05,,1400 m,,13,11,1016,,,BR,,,,,,
202512080030 METAR VEPT 080030Z 25005KT 1300 R25/1500 R07/1500 BR NSC 13/11 Q1016 NOSIG=,VEPT,08-12-2025 00:30,250,05,,1300 m,,13,11,1016,,,BR,,,,,,
202512080100 METAR COR VEPT 080100Z 25003KT 1100 R25/1600 R07/1700 MIFG NSC 12/10 Q1017 BECMG 0800 FG=,VEPT,08-12-2025 01:00,250,03,,1100 m,,12,10,1017,,MI,FG,,,FG,,,
202512080130 METAR VEPT 080130Z 25004KT 1000 R25/1200 R07/1400 MIFG NSC 12/10 Q101 7 NOSIG=,VEPT,08-12-2025 01:30,250,04,,1000 m,,12,10,,,MI,FG,,,,,,
202512080200 METAR VEPT 080200Z 25004KT 0900 R25/1200 R07/1200 MIFG NSC 13/12 Q101 8 NOSIG=,VEPT,08-12-2025 02:00,250,04,,0900 m,,13,12,,,MI,FG,,,,,,
202512080230 METAR VEPT 080230Z 25005KT 0800 R25/1200 R07/1200 FG NSC 14/13 Q1018 NOSIG=,VEPT,08-12-2025 02:30,250,05,,0800 m,,14,13,1018,,,FG,,,,,,
202512080300 METAR VEPT 080300Z 25005KT 0800 R25/1200 R07/1200 FG NSC 15/13 Q1019 NOSIG=,VEPT,08-12-2025 03:00,250,05,,0800 m,,15,13,1019,,,FG,,,,,,
202512080330 METAR VEPT 080330Z 28004KT 0800 R25/1400 R07/1300 FG NSC 16/13 Q1019 NOSIG=,VEPT,08-12-2025 03:30,280,04,,0800 m,,16,13,1019,,,FG,,,,,,
202512080400 METAR VEPT 080400Z 26004KT 0800 R25/1400 R07/1300 FG NSC 17/13 Q1019 NOSIG=,VEPT,08-12-2025 04:00,260,04,,0800 m,,17,13,1019,,,FG,,,,,,
202512080430 METAR VEPT 080430Z 24004KT 0900 R25/1400 R07/1300 FG NSC 18/13 Q1019 NOSIG=,VEPT,08-12-2025 04:30,240,04,,0900 m,,18,13,1019,,,FG,,,,,,
202512080500 METAR VEPT 080500Z 25003KT 1000 R25/1400 R07/1300 MIFG NSC 19/13 Q1019 NOSIG=,VEPT,08-12-2025 05:00,250,03,,1000 m,,19,13,1019,,MI,FG,,,,,,
202512080530 METAR VEPT 080530Z 30002KT 1000 R25/1400 R07/1300 MIFG NSC 20/13 Q1018 NOSIG=,VEPT,08-12-2025 05:30,300,02,,1000 m,,20,13,1018,,MI,FG,,,,,,
202512080600 METAR VEPT 080600Z 30004KT 1000 R25/1400 R07/1400 MIFG NSC 20/13 Q1018 NOSIG=,VEPT,08-12-2025 06:00,300,04,,1000 m,,20,13,1018,,MI,FG,,,,,,
202512080630 METAR VEPT 080630Z 28004KT 1000 R25/1600 R07/1500 MIFG NSC 21/14 Q1017 NOSIG=,VEPT,08-12-2025 06:30,280,04,,1000 m,,21,14,1017,,MI,FG,,,,,,
202512080700 METAR VEPT 080700Z 26004KT 1100 R25/1700 R07/1500 MIFG NSC 22/14 Q1017 NOSIG=,VEPT,08-12-2025 07:00,260,04,,1100 m,,22,14,1017,,MI,FG,,,,,,
202512080730 METAR VEPT 080730Z 23004KT 1100 R25/1700 R07/1500 MIFG NSC 22/14 Q1016 NOSIG=,VEPT,08-12-2025 07:30,230,04,,1100 m,,22,14,1016,,MI,FG,,,,,,
202512080800 METAR VEPT 080800Z 29006KT 1200 R25/1800 R07/1600 MIFG NSC 22/14 Q101 6 NOSIG=,VEPT,08-12-2025 08:00,290,06,,1200 m,,22,14,,,MI,FG,,,,,,
202512080830 METAR VEPT 080830Z 26006KT 1300 R25/1900 R07/1700 FU NSC 23/14 Q1015 BECMG 1500 FU=,VEPT,08-12-2025 08:30,260,06,,1300 m,,23,14,1015,,,FU,,,FU,,,
202512080900 METAR VEPT 080900Z 28004KT 1400 R25/2000 R07/1800 FU NSC 23/13 Q1015 NOSIG=,VEPT,08-12-2025 09:00,280,04,,1400 m,,23,13,1015,,,FU,,,,,,
202512080930 METAR VEPT 080930Z 27004KT 1500 R25/2000 R07/1900 FU NSC 23/13 Q1015 NOSIG=,VEPT,08-12-2025 09:30,270,04,,1500 m,,23,13,1015,,,FU,,,,,,
202512081000 METAR VEPT 081000Z 27003KT 1500 R25/2000 R07/2000 FU NSC 22/13 Q1015 NOSIG=,VEPT,08-12-2025 10:00,270,03,,1500 m,,22,13,1015,,,FU,,,,,,
202512081030 METAR VEPT 081030Z 27003KT 1500 R25/2000 R07/2000 FU NSC 22/14 Q1015 NOSIG=,VEPT,08-12-2025 10:30,270,03,,1500 m,,22,14,1015,,,FU,,,,,,
202512081100 METAR VEPT 081100Z 27003KT 1500 R25/2000 R07/2000 FU NSC 21/15 Q1015 NOSIG=,VEPT,08-12-2025 11:00,270,03,,1500 m,,21,15,1015,,,FU,,,,,,
202512081130 METAR VEPT 081130Z 00000KT 1600 FU NSC 20/15 Q1015 NOSIG=,VEPT,08-12-2025 11:30,000,00,,1600 m,,20,15,1015,,,FU,,,,,,
202512081200 METAR VEPT 081200Z 00000KT 1600 BR NSC 19/15 Q1015 BECMG 1500 BR=,VEPT,08-12-2025 12:00,000,00,,1600 m,,19,15,1015,,,BR,,,BR,,,
202512081230 METAR VEPT 081230Z 00000KT 1600 BR NSC 18/15 Q1016 NOSIG=,VEPT,08-12-2025 12:30,000,00,,1600 m,,18,15,1016,,,BR,,,,,,
202512081300 METAR VEPT 081300Z 00000KT 1500 R25/2000 R07/1800 BR NSC 18/15 Q1016 NOSIG=,VEPT,08-12-2025 13:00,000,00,,1500 m,,18,15,1016,,,BR,,,,,,
202512081330 METAR VEPT 081330Z 00000KT 1400 R25/2000 R07/1700 BR NSC 17/14 Q1016 NOSIG=,VEPT,08-12-2025 13:30,000,00,,1400 m,,17,14,1016,,,BR,,,,,,
202512081400 METAR VEPT 081400Z 00000KT 1400 R25/1800 R07/1400 BR NSC 16/14 Q1016 NOSIG=,VEPT,08-12-2025 14:00,000,00,,1400 m,,16,14,1016,,,BR,,,,,,
202512081430 METAR VEPT 081430Z 00000KT 1200 R25/1300 R07/1300 BR NSC 16/14 Q1017 NOSIG=,VEPT,08-12-2025 14:30,000,00,,1200 m,,16,14,1017,,,BR,,,,,,
202512081500 METAR VEPT 081500Z 00000KT 1200 R25/1700 R07/1300 BR NSC 17/14 Q1017 NOSIG=,VEPT,08-12-2025 15:00,000,00,,1200 m,,17,14,1017,,,BR,,,,,,
202512081530 METAR VEPT 081530Z 00000KT 1100 R25/1200 R07/1100 BR NSC 15/14 Q1017 NOSIG=,VEPT,08-12-2025 15:30,000,00,,1100 m,,15,14,1017,,,BR,,,,,,
202512081600 METAR VEPT 081600Z 00000KT 1100 R25/1500 R07/1200 BR NSC 15/14 Q1017 NOSIG=,VEPT,08-12-2025 16:00,000,00,,1100 m,,15,14,1017,,,BR,,,,,,
202512081630 METAR VEPT 081630Z 00000KT 0900 R25/0900 R07/1100 FG NSC 15/14 Q1017 NOSIG=,VEPT,08-12-2025 16:30,000,00,,0900 m,,15,14,1017,,,FG,,,,,,
202512081700 METAR VEPT 081700Z 00000KT 0900 R25/1200 R07/1000 FG NSC 15/14 Q1017 NOSIG=,VEPT,08-12-2025 17:00,000,00,,0900 m,,15,14,1017,,,FG,,,,,,
202512081730 METAR VEPT 081730Z 00000KT 0900 R25/1200 R07/1400 FG NSC 15/14 Q1017 NOSIG=,VEPT,08-12-2025 17:30,000,00,,0900 m,,15,14,1017,,,FG,,,,,,
202512081800 METAR VEPT 081800Z 22003KT 0900 R25/1500 R07/1300 FG NSC 15/13 Q1017 NOSIG=,VEPT,08-12-2025 18:00,220,03,,0900 m,,15,13,1017,,,FG,,,,,,
202512081830 METAR VEPT 081830Z 00000KT 0800 R25/1400 R07/0900 FG NSC 15/14 Q1016 NOSIG=,VEPT,08-12-2025 18:30,000,00,,0800 m,,15,14,1016,,,FG,,,,,,
202512081900 METAR VEPT 081900Z 00000KT 0800 R25/0800 R07/0800 FG NSC 14/13 Q1016 NOSIG=,VEPT,08-12-2025 19:00,000,00,,0800 m,,14,13,1016,,,FG,,,,,,
202512081930 METAR VEPT 081930Z 00000KT 0700 R25/0800 R07/0800 FG NSC 14/13 Q1016 NOSIG=,VEPT,08-12-2025 19:30,000,00,,0700 m,,14,13,1016,,,FG,,,,,,
202512082000 METAR VEPT 082000Z 00000KT 0700 R25/0800 R07/1200 FG NSC 14/13 Q1016 NOSIG=,VEPT,08-12-2025 20:00,000,00,,0700 m,,14,13,1016,,,FG,,,,,,
202512082030 METAR VEPT 082030Z 00000KT 0700 R25/0800 R07/1200 FG NSC 14/13 Q1016 NOSIG=,VEPT,08-12-2025 20:30,000,00,,0700 m,,14,13,1016,,,FG,,,,,,
202512082100 METAR VEPT 082100Z 00000KT 0700 R25/1100 R07/1200 FG NSC 13/12 Q1015 NOSIG=,VEPT,08-12-2025 21:00,000,00,,0700 m,,13,12,1015,,,FG,,,,,,
202512082130 METAR VEPT 082130Z 00000KT 0700 R25/1000 R07/1200 FG NSC 13/12 Q1015 NOSIG=,VEPT,08-12-2025 21:30,000,00,,0700 m,,13,12,1015,,,FG,,,,,,
202512082200 METAR VEPT 082200Z 00000KT 0700 R25/1200 R07/0900 FG NSC 12/12 Q1015 NOSIG=,VEPT,08-12-2025 22:00,000,00,,0700 m,,12,12,1015,,,FG,,,,,,
202512082230 METAR VEPT 082230Z 00000KT 0700 R25/1300 R07/1300 FG NSC 14/13 Q1015 NOSIG=,VEPT,08-12-2025 22:30,000,00,,0700 m,,14,13,1015,,,FG,,,,,,
202512082300 METAR VEPT 082300Z 00000KT 0700 R25/1200 R07/1000 FG NSC 14/13 Q1015 NOSIG=,VEPT,08-12-2025 23:00,000,00,,0700 m,,14,13,1015,,,FG,,,,,,
202512082330 METAR VEPT 082330Z 00000KT 0700 R25/1600 R07/0800 FG NSC 13/12 Q1016 NOSIG=,VEPT,08-12-2025 23:30,000,00,,0700 m,,13,12,1016,,,FG,,,,,,
202512090000 METAR VEPT 090000Z 00000KT 0700 R25/1600 R07/1200 FG NSC 14/13 Q1016 NOSIG=,VEPT,09-12-2025 00:00,000,00,,0700 m,,14,13,1016,,,FG,,,,,,
202512090030 METAR VEPT 090030Z 27003KT 0700 R25/1800 R07/1200 FG NSC 14/12 Q1016 NOSIG=,VEPT,09-12-2025 00:30,270,03,,0700 m,,14,12,1016,,,FG,,,,,,
202512090100 METAR VEPT 090100Z 00000KT 0650 R25/1500 R07/1100 FG NSC 13/12 Q1017 BECMG 0600 FG=,VEPT,09-12-2025 01:00,000,00,,0650 m,,13,12,1017,,,FG,,,FG,,,
202512090130 METAR VEPT 090130Z 00000KT 0400 R25/0800 R07/1000 FG NSC 12/11 Q1017 NOSIG=,VEPT,09-12-2025 01:30,000,00,,0400 m,,12,11,1017,,,FG,,,,,,
202512090200 METAR VEPT 090200Z 19003KT 0500 R25/1600 R07/1100 FG NSC 13/12 Q1017 BECMG 600 FG=,VEPT,09-12-2025 02:00,190,03,,0500 m,,13,12,1017,,,FG,,,FG,,,
202512090230 METAR VEPT 090230Z 22003KT 0500 R25/1800 R07/1000 FG NSC 14/12 Q1018 NOSIG=,VEPT,09-12-2025 02:30,220,03,,0500 m,,14,12,1018,,,FG,,,,,,
202512090300 METAR VEPT 090300Z 21003KT 0600 R25/2000 R07/1000 FG NSC 15/12 Q1018 NOSIG=,VEPT,09-12-2025 03:00,210,03,,0600 m,,15,12,1018,,,FG,,,,,,
202512090330 METAR VEPT 090330Z 20003KT 0700 R25/2000 R07/1100 FG NSC 16/12 Q1019 BECMG 0800 FG=,VEPT,09-12-2025 03:30,200,03,,0700 m,,16,12,1019,,,FG,,,FG,,,
202512090400 METAR VEPT 090400Z 22003KT 0800 R25/2000 R07/1200 FG NSC 17/13 Q1019 NOSIG=,VEPT,09-12-2025 04:00,220,03,,0800 m,,17,13,1019,,,FG,,,,,,
202512090430 METAR VEPT 090430Z 25003KT 0900 R25/2000 R07/1200 FG NSC 18/14 Q1019 NOSIG=,VEPT,09-12-2025 04:30,250,03,,0900 m,,18,14,1019,,,FG,,,,,,
202512090500 METAR VEPT 090500Z 20004KT 1000 R25/2000 R07/1300 MIFG NSC 19/14 Q1018 NOSIG=,VEPT,09-12-2025 05:00,200,04,,1000 m,,19,14,1018,,MI,FG,,,,,,
202512090530 METAR VEPT 090530Z 21005KT 1100 R25/2000 R07/1400 MIFG NSC 20/14 Q1018 NOSIG=,VEPT,09-12-2025 05:30,210,05,,1100 m,,20,14,1018,,MI,FG,,,,,,
202512090600 METAR VEPT 090600Z 20005KT 1200 R25/2000 R07/1500 MIFG NSC 21/14 Q1017 NOSIG=,VEPT,09-12-2025 06:00,200,05,,1200 m,,21,14,1017,,MI,FG,,,,,,
202512090630 METAR VEPT 090630Z 21004KT 1200 R25/2000 R07/1600 MIFG NSC 22/14 Q1016 NOSIG=,VEPT,09-12-2025 06:30,210,04,,1200 m,,22,14,1016,,MI,FG,,,,,,
202512090700 METAR VEPT 090700Z 23005KT 1300 R25/2000 R07/1600 FU NSC 23/14 Q1016 NOSIG=,VEPT,09-12-2025 07:00,230,05,,1300 m,,23,14,1016,,,FU,,,,,,
202512090730 METAR VEPT 090730Z 23005KT 1300 R25/2000 R07/1700 FU NSC 24/15 Q1015 NOSIG=,VEPT,09-12-2025 07:30,230,05,,1300 m,,24,15,1015,,,FU,,,,,,
202512090800 METAR VEPT 090800Z 25006KT 1400 R25/2000 R07/1700 FU NSC 24/15 Q1015 BECMG 1500 FU=,VEPT,09-12-2025 08:00,250,06,,1400 m,,24,15,1015,,,FU,,,FU,,,
202512090830 METAR VEPT 090830Z 29005KT 1400 R25/2000 R07/1900 FU NSC 24/14 Q1015 NOSIG=,VEPT,09-12-2025 08:30,290,05,,1400 m,,24,14,1015,,,FU,,,,,,
202512090900 METAR VEPT 090900Z 27006KT 1400 R25/2000 R07/1900 FU NSC 24/14 Q1015 NOSIG=,VEPT,09-12-2025 09:00,270,06,,1400 m,,24,14,1015,,,FU,,,,,,
202512090930 METAR VEPT 090930Z 26006KT 1400 R25/2000 R07/1800 FU NSC 24/15 Q1014 NOSIG=,VEPT,09-12-2025 09:30,260,06,,1400 m,,24,15,1014,,,FU,,,,,,
202512091000 METAR VEPT 091000Z 27005KT 1300 R25/2000 R07/1900 FU NSC 24/15 Q1014 NOSIG=,VEPT,09-12-2025 10:00,270,05,,1300 m,,24,15,1014,,,FU,,,,,,
202512091030 METAR VEPT 091030Z 27005KT 1400 R25/2000 R07/1900 HZ NSC 23/16 Q1014 BECMG 1500 HZ=,VEPT,09-12-2025 10:30,270,05,,1400 m,,23,16,1014,,,HZ,,,HZ,,,
202512091100 METAR VEPT 091100Z 27004KT 1500 R25/2000 R07/1900 HZ NSC 23/16 Q1015 NOSIG=,VEPT,09-12-2025 11:00,270,04,,1500 m,,23,16,1015,,,HZ,,,,,,
202512091130 METAR VEPT 091130Z 00000KT 1600 HZ NSC 20/16 Q1015 NOSIG=,VEPT,09-12-2025 11:30,000,00,,1600 m,,20,16,1015,,,HZ,,,,,,
202512091200 METAR VEPT 091200Z 00000KT 1600 HZ NSC 19/16 Q1015 BECMG 1500 BR=,VEPT,09-12-2025 12:00,000,00,,1600 m,,19,16,1015,,,HZ,,,BR,,,
202512091230 METAR VEPT 091230Z 00000KT 1500 R25/2000 R07/1900 BR NSC 18/16 Q1015 NOSIG=,VEPT,09-12-2025 12:30,000,00,,1500 m,,18,16,1015,,,BR,,,,,,
202512091300 METAR VEPT 091300Z 00000KT 1500 R25/2000 R07/1700 BR NSC 18/16 Q1016 NOSIG=,VEPT,09-12-2025 13:00,000,00,,1500 m,,18,16,1016,,,BR,,,,,,
202512091330 METAR VEPT 091330Z 00000KT 1400 R25/2000 R07/1600 BR NSC 17/15 Q1016 NOSIG=,VEPT,09-12-2025 13:30,000,00,,1400 m,,17,15,1016,,,BR,,,,,,
202512091400 METAR VEPT 091400Z 00000KT 1200 R25/2000 R07/1400 MIFG NSC 17/15 Q1016 NOSIG=,VEPT,09-12-2025 14:00,000,00,,1200 m,,17,15,1016,,MI,FG,,,,,,
202512091430 METAR VEPT 091430Z 00000KT 1000 R25/2000 R07/1300 MIFG NSC 17/15 Q1016 NOSIG=,VEPT,09-12-2025 14:30,000,00,,1000 m,,17,15,1016,,MI,FG,,,,,,
202512091500 METAR VEPT 091500Z 00000KT 1000 R25/1700 R07/1300 MIFG NSC 16/15 Q1017 NOSIG=,VEPT,09-12-2025 15:00,000,00,,1000 m,,16,15,1017,,MI,FG,,,,,,
202512091530 METAR VEPT 091530Z 00000KT 1000 R25/1800 R07/1100 MIFG NSC 19/15 Q101 7 BECMG 800 FG=,VEPT,09-12-2025 15:30,000,00,,1000 m,,19,15,,,MI,FG,,,FG,,,
202512091600 METAR VEPT 091600Z 00000KT 1000 R25/1400 R07/1000 MIFG NSC 16/15 Q1017 NOSIG=,VEPT,09-12-2025 16:00,000,00,,1000 m,,16,15,1017,,MI,FG,,,,,,
202512091630 METAR VEPT 091630Z 00000KT 0800 R25/1400 R07/1100 FG NSC 16/15 Q1017 NOSIG=,VEPT,09-12-2025 16:30,000,00,,0800 m,,16,15,1017,,,FG,,,,,,
202512091700 METAR VEPT 091700Z 00000KT 0500 R25/0800 R07/0700 FG NSC 15/14 Q1017 NOSIG=,VEPT,09-12-2025 17:00,000,00,,0500 m,,15,14,1017,,,FG,,,,,,
202512091730 METAR VEPT 091730Z 00000KT 0450 R25/0800 R07/0700 FG NSC 15/14 Q1017 BECMG 300 FG=,VEPT,09-12-2025 17:30,000,00,,0450 m,,15,14,1017,,,FG,,,FG,,,
202512091800 METAR VEPT 091800Z 00000KT 0300 R25/0650 R07/0750 FG NSC 15/14 Q1017 NOSIG=,VEPT,09-12-2025 18:00,000,00,,0300 m,,15,14,1017,,,FG,,,,,,
202512091830 METAR VEPT 091830Z 00000KT 0100 R25/1100 R07/0100 FG NSC 15/14 Q1017 BECMG 300 FG=,VEPT,09-12-2025 18:30,000,00,,0100 m,,15,14,1017,,,FG,,,FG,,,
202512091900 METAR VEPT 091900Z 00000KT 0050 R25/0350 R07/0100 FG NSC 13/13 Q1017 NOSIG=,VEPT,09-12-2025 19:00,000,00,,0050 m,,13,13,1017,,,FG,,,,,,
202512091930 METAR VEPT 091930Z 00000KT 0050 R25/0100 R07/1100 FG NSC 13/13 Q1017 NOSIG=,VEPT,09-12-2025 19:30,000,00,,0050 m,,13,13,1017,,,FG,,,,,,
202512092000 METAR VEPT 092000Z 00000KT 0050 R25/0175 R07/1800 FG NSC 13/13 Q1016 NOSIG=,VEPT,09-12-2025 20:00,000,00,,0050 m,,13,13,1016,,,FG,,,,,,
202512092030 METAR VEPT 092030Z 00000KT 0550 R25/1300 R07/1100 FG NSC 12/12 Q1016 BECMG 600 FG=,VEPT,09-12-2025 20:30,000,00,,0550 m,,12,12,1016,,,FG,,,FG,,,
202512092100 METAR VEPT 092100Z 00000KT 1000 R25/1600 R07/1600 MIFG NSC 13/12 Q101 6 NOSIG=,VEPT,09-12-2025 21:00,000,00,,1000 m,,13,12,,,MI,FG,,,,,,
202512092130 METAR VEPT 092130Z 00000KT 1000 R25/1600 R07/1600 MIFG NSC 13/12 Q1016 NOSIG=,VEPT,09-12-2025 21:30,000,00,,1000 m,,13,12,1016,,MI,FG,,,,,,
202512092200 METAR VEPT 092200Z 00000KT 1000 R25/1600 R07/1600 MIFG NSC 13/11 Q1016 NOSIG=,VEPT,09-12-2025 22:00,000,00,,1000 m,,13,11,1016,,MI,FG,,,,,,
202512092230 METAR VEPT 092230Z 00000KT 1200 R25/1800 R07/1600 MIFG NSC 13/11 Q101 6 NOSIG=,VEPT,09-12-2025 22:30,000,00,,1200 m,,13,11,,,MI,FG,,,,,,
202512092300 METAR VEPT 092300Z 00000KT 1200 R25/1800 R07/1600 MIFG NSC 12/10 Q101 6 NOSIG=,VEPT,09-12-2025 23:00,000,00,,1200 m,,12,10,,,MI,FG,,,,,,
202512092330 METAR VEPT 092330Z 00000KT 1200 R25/2000 R07/2000 MIFG NSC 13/10 Q101 6 NOSIG=,VEPT,09-12-2025 23:30,000,00,,1200 m,,13,10,,,MI,FG,,,,,,
202512100000 METAR VEPT 100000Z 00000KT 1200 R25/2000 R07/2000 MIFG NSC 12/10 Q1017 NOSIG=,VEPT,10-12-2025 00:00,000,00,,1200 m,,12,10,1017,,MI,FG,,,,,,
202512100030 METAR VEPT 100030Z 00000KT 1200 R25/2000 R07/2000 MIFG NSC 11/10 Q1017 NOSIG=,VEPT,10-12-2025 00:30,000,00,,1200 m,,11,10,1017,,MI,FG,,,,,,
202512100100 METAR VEPT 100100Z 00000KT 1000 R25/1600 R07/1600 MIFG NSC 11/10 Q1018 BECMG 0800 FG=,VEPT,10-12-2025 01:00,000,00,,1000 m,,11,10,1018,,MI,FG,,,FG,,,
202512100130 METAR VEPT 100130Z 00000KT 0700 R25/1400 R07/1200 FG NSC 11/10 Q1018 BECMG 0600 FG=,VEPT,10-12-2025 01:30,000,00,,0700 m,,11,10,1018,,,FG,,,FG,,,
202512100200 METAR VEPT 100200Z 00000KT 0700 R25/1600 R07/1200 FG NSC 12/10 Q1019 NOSIG=,VEPT,10-12-2025 02:00,000,00,,0700 m,,12,10,1019,,,FG,,,,,,
202512100230 METAR VEPT 100230Z 00000KT 0700 R25/2000 R07/1700 FG NSC 14/11 Q1019 BECMG 0800 MIFG=,VEPT,10-12-2025 02:30,000,00,,0700 m,,14,11,1019,,,FG,,MI,FG,,,
202512100300 METAR VEPT 100300Z 20003KT 0800 R25/2000 R07/1800 MIFG NSC 15/11 Q1020 NOSIG=,VEPT,10-12-2025 03:00,200,03,,0800 m,,15,11,1020,,MI,FG,,,,,,
202512100330 METAR VEPT 100330Z 21004KT 1200 R25/2000 R07/2000 HZ NSC 16/10 Q1020 NOSIG=,VEPT,10-12-2025 03:30,210,04,,1200 m,,16,10,1020,,,HZ,,,,,,
202512100400 METAR VEPT 100400Z 21002KT 1200 R25/2000 R07/2000 HZ NSC 17/11 Q1020 NOSIG=,VEPT,10-12-2025 04:00,210,02,,1200 m,,17,11,1020,,,HZ,,,,,,
202512100430 METAR VEPT 100430Z 24004KT 1200 R25/2000 R07/2000 HZ NSC 18/11 Q1020 NOSIG=,VEPT,10-12-2025 04:30,240,04,,1200 m,,18,11,1020,,,HZ,,,,,,
202512100500 METAR VEPT 100500Z 25004KT 1200 R25/2000 R07/2000 HZ NSC 19/11 Q1020 NOSIG=,VEPT,10-12-2025 05:00,250,04,,1200 m,,19,11,1020,,,HZ,,,,,,
202512100530 METAR VEPT 100530Z 29005KT 1200 R25/2000 R07/2000 HZ NSC 20/11 Q1019 BECMG 1500 HZ=,VEPT,10-12-2025 05:30,290,05,,1200 m,,20,11,1019,,,HZ,,,HZ,,,
202512100600 METAR COR VEPT 100600Z 30004KT 1500 R25/2000 R07/2000 HZ NSC 21/12 Q1019 NOSIG=,VEPT,10-12-2025 06:00,300,04,,1500 m,,21,12,1019,,,HZ,,,,,,
202512100601 METAR VEPT 100601Z 30004KT 1500 R25/2000 R07/2000 HZ NSC 21/12 Q1019 NOSIG=,VEPT,10-12-2025 06:01,300,04,,1500 m,,21,12,1019,,,HZ,,,,,,
202512100630 METAR VEPT 100630Z 21004KT 1800 HZ NSC 23/12 Q1018 NOSIG=,VEPT,10-12-2025 06:30,210,04,,1800 m,,23,12,1018,,,HZ,,,,,,
202512100700 METAR VEPT 100700Z 25004KT 2200 HZ NSC 23/11 Q1017 NOSIG=,VEPT,10-12-2025 07:00,250,04,,2200 m,,23,11,1017,,,HZ,,,,,,
202512100730 METAR VEPT 100730Z 29005KT 2600 HZ NSC 24/10 Q1017 NOSIG=,VEPT,10-12-2025 07:30,290,05,,2600 m,,24,10,1017,,,HZ,,,,,,
202512100800 METAR VEPT 100800Z 30005KT 2800 HZ NSC 24/09 Q1016 BECMG 3000 HZ=,VEPT,10-12-2025 08:00,300,05,,2800 m,,24,9,1016,,,HZ,,,HZ,,,
202512100830 METAR VEPT 100830Z 28005KT 3500 HZ NSC 25/08 Q1016 NOSIG=,VEPT,10-12-2025 08:30,280,05,,3500 m,,25,8,1016,,,HZ,,,,,,
202512100900 METAR VEPT 100900Z 30005KT 4000 HZ NSC 25/08 Q1015 NOSIG=,VEPT,10-12-2025 09:00,300,05,,4000 m,,25,8,1015,,,HZ,,,,,,
202512100930 METAR VEPT 100930Z 29003KT 4500 HZ NSC 25/07 Q1015 NOSIG=,VEPT,10-12-2025 09:30,290,03,,4500 m,,25,7,1015,,,HZ,,,,,,
202512101000 METAR VEPT 101000Z 29003KT 4500 HZ NSC 25/07 Q1015 NOSIG=,VEPT,10-12-2025 10:00,290,03,,4500 m,,25,7,1015,,,HZ,,,,,,
202512101030 METAR VEPT 101030Z 31005KT 4000 HZ NSC 24/08 Q1015 NOSIG=,VEPT,10-12-2025 10:30,310,05,,4000 m,,24,8,1015,,,HZ,,,,,,
202512101100 METAR VEPT 101100Z 31003KT 3500 HZ NSC 23/09 Q1015 NOSIG=,VEPT,10-12-2025 11:00,310,03,,3500 m,,23,9,1015,,,HZ,,,,,,
202512101130 METAR VEPT 101130Z 00000KT 3200 HZ NSC 20/12 Q1016 BECMG 3000 HZ=,VEPT,10-12-2025 11:30,000,00,,3200 m,,20,12,1016,,,HZ,,,HZ,,,
202512101200 METAR VEPT 101200Z 00000KT 3000 HZ NSC 18/12 Q1016 NOSIG=,VEPT,10-12-2025 12:00,000,00,,3000 m,,18,12,1016,,,HZ,,,,,,
202512101230 METAR VEPT 101230Z 00000KT 3000 HZ NSC 18/12 Q1016 NOSIG=,VEPT,10-12-2025 12:30,000,00,,3000 m,,18,12,1016,,,HZ,,,,,,
202512101300 METAR VEPT 101300Z 00000KT 3000 BR NSC 17/12 Q1016 NOSIG=,VEPT,10-12-2025 13:00,000,00,,3000 m,,17,12,1016,,,BR,,,,,,
202512101330 METAR VEPT 101330Z 00000KT 3000 BR NSC 16/12 Q1016 NOSIG=,VEPT,10-12-2025 13:30,000,00,,3000 m,,16,12,1016,,,BR,,,,,,
202512101400 METAR VEPT 101400Z 00000KT 3000 BR NSC 16/12 Q1016 NOSIG=,VEPT,10-12-2025 14:00,000,00,,3000 m,,16,12,1016,,,BR,,,,,,
202512101430 METAR VEPT 101430Z 00000KT 3000 BR NSC 16/12 Q1017 NOSIG=,VEPT,10-12-2025 14:30,000,00,,3000 m,,16,12,1017,,,BR,,,,,,
202512101500 METAR VEPT 101500Z 00000KT 2800 BR NSC 15/12 Q1017 NOSIG=,VEPT,10-12-2025 15:00,000,00,,2800 m,,15,12,1017,,,BR,,,,,,
202512101530 METAR VEPT 101530Z 00000KT 2800 BR NSC 15/12 Q1017 NOSIG=,VEPT,10-12-2025 15:30,000,00,,2800 m,,15,12,1017,,,BR,,,,,,
202512101600 METAR VEPT 101600Z 00000KT 2200 BR NSC 15/12 Q1017 NOSIG=,VEPT,10-12-2025 16:00,000,00,,2200 m,,15,12,1017,,,BR,,,,,,
202512101630 METAR VEPT 101630Z 00000KT 2200 BR NSC 15/12 Q1017 NOSIG=,VEPT,10-12-2025 16:30,000,00,,2200 m,,15,12,1017,,,BR,,,,,,
202512101700 METAR VEPT 101700Z 00000KT 2000 BR NSC 15/12 Q1017 NOSIG=,VEPT,10-12-2025 17:00,000,00,,2000 m,,15,12,1017,,,BR,,,,,,
202512101730 METAR VEPT 101730Z 00000KT 2000 BR NSC 14/12 Q1017 NOSIG=,VEPT,10-12-2025 17:30,000,00,,2000 m,,14,12,1017,,,BR,,,,,,
202512101800 METAR VEPT 101800Z 00000KT 2000 BR NSC 14/12 Q1017 NOSIG=,VEPT,10-12-2025 18:00,000,00,,2000 m,,14,12,1017,,,BR,,,,,,
202512101830 METAR VEPT 101830Z 00000KT 2000 BR NSC 14/12 Q1017 NOSIG=,VEPT,10-12-2025 18:30,000,00,,2000 m,,14,12,1017,,,BR,,,,,,
202512101900 METAR VEPT 101900Z 00000KT 2000 BR NSC 13/11 Q1016 NOSIG=,VEPT,10-12-2025 19:00,000,00,,2000 m,,13,11,1016,,,BR,,,,,,
202512101930 METAR VEPT 101930Z 00000KT 2000 BR NSC 13/11 Q1016 NOSIG=,VEPT,10-12-2025 19:30,000,00,,2000 m,,13,11,1016,,,BR,,,,,,
202512102000 METAR VEPT 102000Z 00000KT 1800 BR NSC 13/11 Q1016 NOSIG=,VEPT,10-12-2025 20:00,000,00,,1800 m,,13,11,1016,,,BR,,,,,,
202512102030 METAR VEPT 102030Z 00000KT 1800 BR NSC 13/11 Q1016 NOSIG=,VEPT,10-12-2025 20:30,000,00,,1800 m,,13,11,1016,,,BR,,,,,,
202512102100 METAR VEPT 102100Z 00000KT 1800 BR NSC 13/11 Q1016 NOSIG=,VEPT,10-12-2025 21:00,000,00,,1800 m,,13,11,1016,,,BR,,,,,,
202512102130 METAR VEPT 102130Z 00000KT 1800 BR NSC 13/11 Q1016 NOSIG=,VEPT,10-12-2025 21:30,000,00,,1800 m,,13,11,1016,,,BR,,,,,,
202512102200 METAR VEPT 102200Z 00000KT 1600 BR NSC 13/11 Q1015 NOSIG=,VEPT,10-12-2025 22:00,000,00,,1600 m,,13,11,1015,,,BR,,,,,,
202512102230 METAR VEPT 102230Z 27003KT 1600 BR NSC 13/11 Q1015 BECMG 1500 BR=,VEPT,10-12-2025 22:30,270,03,,1600 m,,13,11,1015,,,BR,,,BR,,,
202512102300 METAR VEPT 102300Z 26003KT 1600 BR NSC 13/11 Q1015 NOSIG=,VEPT,10-12-2025 23:00,260,03,,1600 m,,13,11,1015,,,BR,,,,,,
202512102330 METAR COR VEPT 102330Z 27003KT 1200 R25/2000 R07/1800 MIFG NSC 12/11 Q1015 NOSIG=,VEPT,10-12-2025 23:30,270,03,,1200 m,,12,11,1015,,MI,FG,,,,,,
202512110000 METAR VEPT 110000Z 26003KT 1200 R25/1900 R07/1500 MIFG NSC 12/11 Q101 6 NOSIG=,VEPT,11-12-2025 00:00,260,03,,1200 m,,12,11,,,MI,FG,,,,,,
202512110030 METAR COR VEPT 110030Z 25004KT 1000 R25/1800 R07/1600 MIFG NSC 12/11 Q1016 BECMG 800 FG=,VEPT,11-12-2025 00:30,250,04,,1000 m,,12,11,1016,,MI,FG,,,FG,,,
202512110100 METAR VEPT 110100Z 27003KT 0900 R25/2000 R07/1900 MIFG NSC 13/11 Q1016 NOSIG=,VEPT,11-12-2025 01:00,270,03,,0900 m,,13,11,1016,,MI,FG,,,,,,
202512110130 METAR VEPT 110130Z 26004KT 1000 R25/2000 R07/1900 MIFG NSC 14/10 Q1017 NOSIG=,VEPT,11-12-2025 01:30,260,04,,1000 m,,14,10,1017,,MI,FG,,,,,,
202512110200 METAR VEPT 110200Z 00000KT 1000 R25/1900 R07/1700 MIFG NSC 14/10 Q101 7 NOSIG=,VEPT,11-12-2025 02:00,000,00,,1000 m,,14,10,,,MI,FG,,,,,,
202512110230 METAR VEPT 110230Z 27004KT 1200 R25/1900 R07/1600 BR NSC 15/10 Q1018 NOSIG=,VEPT,11-12-2025 02:30,270,04,,1200 m,,15,10,1018,,,BR,,,,,,
202512110300 METAR VEPT 110300Z 25003KT 1300 R25/1700 R07/1900 BR NSC 15/10 Q1018 NOSIG=,VEPT,11-12-2025 03:00,250,03,,1300 m,,15,10,1018,,,BR,,,,,,
202512110330 METAR VEPT 110330Z 25005KT 1400 R25/1800 R07/1600 BR NSC 16/11 Q1018 NOSIG=,VEPT,11-12-2025 03:30,250,05,,1400 m,,16,11,1018,,,BR,,,,,,
202512110400 METAR VEPT 110400Z 20004KT 1400 R25/1500 R07/1600 HZ NSC 17/12 Q1018 NOSIG=,VEPT,11-12-2025 04:00,200,04,,1400 m,,17,12,1018,,,HZ,,,,,,
202512110430 METAR VEPT 110430Z 23003KT 1300 R25/1500 R07/1600 HZ NSC 18/12 Q1018 NOSIG=,VEPT,11-12-2025 04:30,230,03,,1300 m,,18,12,1018,,,HZ,,,,,,
202512110500 METAR VEPT 110500Z 26003KT 1400 R25/1700 R07/1800 HZ NSC 20/13 Q1018 NOSIG=,VEPT,11-12-2025 05:00,260,03,,1400 m,,20,13,1018,,,HZ,,,,,,
202512110530 METAR VEPT 110530Z 31004KT 1400 R25/1700 R07/1800 HZ NSC 21/13 Q1017 NOSIG=,VEPT,11-12-2025 05:30,310,04,,1400 m,,21,13,1017,,,HZ,,,,,,
202512110600 METAR VEPT 110600Z 28003KT 1400 R25/1800 R07/1800 HZ NSC 21/14 Q1017 NOSIG=,VEPT,11-12-2025 06:00,280,03,,1400 m,,21,14,1017,,,HZ,,,,,,
202512110630 METAR VEPT 110630Z 29003KT 1500 R25/1900 R07/1900 HZ NSC 22/13 Q1016 NOSIG=,VEPT,11-12-2025 06:30,290,03,,1500 m,,22,13,1016,,,HZ,,,,,,
202512110700 METAR VEPT 110700Z 26004KT 1500 R25/1900 R07/1900 HZ NSC 22/13 Q1015 NOSIG=,VEPT,11-12-2025 07:00,260,04,,1500 m,,22,13,1015,,,HZ,,,,,,
202512110730 METAR VEPT 110730Z 30003KT 1600 HZ NSC 23/13 Q1015 NOSIG=,VEPT,11-12-2025 07:30,300,03,,1600 m,,23,13,1015,,,HZ,,,,,,
202512110800 METAR VEPT 110800Z 31003KT 1600 HZ NSC 23/13 Q1014 NOSIG=,VEPT,11-12-2025 08:00,310,03,,1600 m,,23,13,1014,,,HZ,,,,,,
202512110830 METAR VEPT 110830Z 25004KT 1600 HZ NSC 24/14 Q1014 NOSIG=,VEPT,11-12-2025 08:30,250,04,,1600 m,,24,14,1014,,,HZ,,,,,,
202512110900 METAR VEPT 110900Z 34002KT 1600 HZ NSC 23/13 Q1014 NOSIG=,VEPT,11-12-2025 09:00,340,02,,1600 m,,23,13,1014,,,HZ,,,,,,
202512110930 METAR VEPT 110930Z 33003KT 1600 HZ NSC 23/13 Q1014 NOSIG=,VEPT,11-12-2025 09:30,330,03,,1600 m,,23,13,1014,,,HZ,,,,,,
202512111000 METAR VEPT 111000Z 30003KT 1600 HZ NSC 23/13 Q1014 NOSIG=,VEPT,11-12-2025 10:00,300,03,,1600 m,,23,13,1014,,,HZ,,,,,,
202512111030 METAR VEPT 111030Z 30002KT 1800 HZ NSC 23/13 Q1014 NOSIG=,VEPT,11-12-2025 10:30,300,02,,1800 m,,23,13,1014,,,HZ,,,,,,
202512111100 METAR VEPT 111100Z 29002KT 1800 HZ NSC 22/14 Q1014 NOSIG=,VEPT,11-12-2025 11:00,290,02,,1800 m,,22,14,1014,,,HZ,,,,,,
202512111130 METAR VEPT 111130Z 00000KT 1800 HZ NSC 20/15 Q1014 NOSIG=,VEPT,11-12-2025 11:30,000,00,,1800 m,,20,15,1014,,,HZ,,,,,,
202512111200 METAR VEPT 111200Z 00000KT 1800 BR NSC 18/14 Q1014 NOSIG=,VEPT,11-12-2025 12:00,000,00,,1800 m,,18,14,1014,,,BR,,,,,,
202512111230 METAR VEPT 111230Z 00000KT 1800 BR NSC 18/14 Q1014 NOSIG=,VEPT,11-12-2025 12:30,000,00,,1800 m,,18,14,1014,,,BR,,,,,,
202512111300 METAR VEPT 111300Z 00000KT 1600 BR NSC 17/14 Q1015 NOSIG=,VEPT,11-12-2025 13:00,000,00,,1600 m,,17,14,1015,,,BR,,,,,,
202512111330 METAR VEPT 111330Z 00000KT 1600 BR NSC 17/14 Q1015 BECMG 1500 BR=,VEPT,11-12-2025 13:30,000,00,,1600 m,,17,14,1015,,,BR,,,BR,,,
202512111400 METAR VEPT 111400Z 00000KT 1500 R25/1800 R07/1800 BR NSC 16/14 Q1015 NOSIG=,VEPT,11-12-2025 14:00,000,00,,1500 m,,16,14,1015,,,BR,,,,,,
202512111430 METAR VEPT 111430Z 00000KT 1500 R25/1800 R07/1500 BR NSC 16/14 Q1015 NOSIG=,VEPT,11-12-2025 14:30,000,00,,1500 m,,16,14,1015,,,BR,,,,,,
202512111500 METAR VEPT 111500Z 00000KT 1500 R25/1600 R07/1300 BR NSC 16/14 Q1015 NOSIG=,VEPT,11-12-2025 15:00,000,00,,1500 m,,16,14,1015,,,BR,,,,,,
202512111530 METAR VEPT 111530Z 00000KT 1200 R25/1600 R07/1500 MIFG NSC 15/14 Q1016 NOSIG=,VEPT,11-12-2025 15:30,000,00,,1200 m,,15,14,1016,,MI,FG,,,,,,
202512111600 METAR VEPT 111600Z 00000KT 1000 R25/1200 R07/1100 MIFG NSC 15/14 Q1016 NOSIG=,VEPT,11-12-2025 16:00,000,00,,1000 m,,15,14,1016,,MI,FG,,,,,,
202512111630 METAR VEPT 111630Z 00000KT 1000 R25/1200 R07/1100 MIFG NSC 15/14 Q1015 NOSIG=,VEPT,11-12-2025 16:30,000,00,,1000 m,,15,14,1015,,MI,FG,,,,,,
202512111700 METAR VEPT 111700Z 00000KT 1000 R25/1200 R07/1100 MIFG NSC 14/14 Q101 5 BECMG 0800 FG=,VEPT,11-12-2025 17:00,000,00,,1000 m,,14,14,,,MI,FG,,,FG,,,
202512111730 METAR VEPT 111730Z 00000KT 0900 R25/1100 R07/1000 FG NSC 14/13 Q1015 NOSIG=,VEPT,11-12-2025 17:30,000,00,,0900 m,,14,13,1015,,,FG,,,,,,
202512111800 METAR VEPT 111800Z 00000KT 0900 R25/1000 R07/0900 FG NSC 14/14 Q1015 NOSIG=,VEPT,11-12-2025 18:00,000,00,,0900 m,,14,14,1015,,,FG,,,,,,
202512111830 METAR VEPT 111830Z 00000KT 0800 R25/0800 R07/0800 FG NSC 14/14 Q1015 NOSIG=,VEPT,11-12-2025 18:30,000,00,,0800 m,,14,14,1015,,,FG,,,,,,
202512111900 METAR VEPT 111900Z 00000KT 0800 R25/0800 R07/0800 FG NSC 13/13 Q1015 NOSIG=,VEPT,11-12-2025 19:00,000,00,,0800 m,,13,13,1015,,,FG,,,,,,
202512111930 METAR VEPT 111930Z 00000KT 0800 R25/0800 R07/0800 FG NSC 13/13 Q1015 NOSIG=,VEPT,11-12-2025 19:30,000,00,,0800 m,,13,13,1015,,,FG,,,,,,
202512112000 METAR VEPT 112000Z 00000KT 0800 R25/0800 R07/0800 FG NSC 13/12 Q1015 NOSIG=,VEPT,11-12-2025 20:00,000,00,,0800 m,,13,12,1015,,,FG,,,,,,
202512112030 METAR VEPT 112030Z 00000KT 0800 R25/1500 R07/1100 FG NSC 13/12 Q1015 NOSIG=,VEPT,11-12-2025 20:30,000,00,,0800 m,,13,12,1015,,,FG,,,,,,
202512112100 METAR VEPT 112100Z 00000KT 0800 R25/1700 R07/1000 FG NSC 13/12 Q1014 NOSIG=,VEPT,11-12-2025 21:00,000,00,,0800 m,,13,12,1014,,,FG,,,,,,
202512112130 METAR VEPT 112130Z 00000KT 0800 R25/1600 R07/1300 FG NSC 13/12 Q1014 NOSIG=,VEPT,11-12-2025 21:30,000,00,,0800 m,,13,12,1014,,,FG,,,,,,
202512112200 METAR VEPT 112200Z 00000KT 0700 R25/1200 R07/0900 FG NSC 13/13 Q1014 BECMG 0600 FG=,VEPT,11-12-2025 22:00,000,00,,0700 m,,13,13,1014,,,FG,,,FG,,,
202512112230 METAR VEPT 112230Z 00000KT 0600 R25/0700 R07/0800 FG NSC 12/12 Q1014 BECMG 0350 FG=,VEPT,11-12-2025 22:30,000,00,,0600 m,,12,12,1014,,,FG,,,FG,,,
202512112300 METAR VEPT 112300Z 00000KT 0350 R25/0600 R07/0400 FG VV/// 12/12 Q1014 NOSIG=,VEPT,11-12-2025 23:00,000,00,,0350 m,,12,12,1014,,,FG,,,,,,
202512112330 METAR VEPT 112330Z 00000KT 0350 R25/0600 R07/0400 FG VV/// 12/12 Q101 5 NOSIG=,VEPT,11-12-2025 23:30,000,00,,0350 m,,12,12,,,,FG,,,,,,
202512120000 METAR VEPT 120000Z 00000KT 0350 R25/0400 R07/0400 FG VV/// 12/12 Q1015 NOSIG=,VEPT,12-12-2025 00:00,000,00,,0350 m,,12,12,1015,,,FG,,,,,,
202512120030 METAR VEPT 120030Z 00000KT 0350 R25/0400 R07/0700 FG VV/// 12/12 Q1015 BECMG 0150 FG=,VEPT,12-12-2025 00:30,000,00,,0350 m,,12,12,1015,,,FG,,,FG,,,
202512120100 METAR VEPT 120100Z 00000KT 0150 R25/0400 R07/0300 FG VV/// 12/12 Q101 6 BECMG 0350 FG=,VEPT,12-12-2025 01:00,000,00,,0150 m,,12,12,,,,FG,,,FG,,,
202512120130 METAR VEPT 120130Z 00000KT 0350 R25/0800 R07/0700 FG NSC 12/12 Q1016 BECMG 0600 FG=,VEPT,12-12-2025 01:30,000,00,,0350 m,,12,12,1016,,,FG,,,FG,,,
202512120200 METAR VEPT 120200Z 00000KT 0500 R25/1300 R07/0600 FG NSC 13/12 Q1016 NOSIG=,VEPT,12-12-2025 02:00,000,00,,0500 m,,13,12,1016,,,FG,,,,,,
202512120230 METAR VEPT 120230Z 00000KT 0600 R25/1600 R07/0900 FG NSC 14/13 Q1017 NOSIG=,VEPT,12-12-2025 02:30,000,00,,0600 m,,14,13,1017,,,FG,,,,,,
202512120300 METAR VEPT 120300Z 00000KT 0700 R25/2000 R07/1200 FG NSC 15/13 Q1017 BECMG 0800 FG=,VEPT,12-12-2025 03:00,000,00,,0700 m,,15,13,1017,,,FG,,,FG,,,
202512120330 METAR VEPT 120330Z 00000KT 0800 R25/2000 R07/1100 FG NSC 16/14 Q1018 NOSIG=,VEPT,12-12-2025 03:30,000,00,,0800 m,,16,14,1018,,,FG,,,,,,
202512120400 METAR VEPT 120400Z 00000KT 0800 R25/2000 R07/1100 FG NSC 17/14 Q1018 NOSIG=,VEPT,12-12-2025 04:00,000,00,,0800 m,,17,14,1018,,,FG,,,,,,
202512120430 METAR VEPT 120430Z 00000KT 0800 R25/2000 R07/1200 FG NSC 18/14 Q1018 NOSIG=,VEPT,12-12-2025 04:30,000,00,,0800 m,,18,14,1018,,,FG,,,,,,
202512120500 METAR VEPT 120500Z 00000KT 0800 R25/2000 R07/1200 FG NSC 20/14 Q1017 NOSIG=,VEPT,12-12-2025 05:00,000,00,,0800 m,,20,14,1017,,,FG,,,,,,
202512120530 METAR VEPT 120530Z 00000KT 0800 R25/2000 R07/1300 FG NSC 20/14 Q1017 NOSIG=,VEPT,12-12-2025 05:30,000,00,,0800 m,,20,14,1017,,,FG,,,,,,
202512120600 METAR VEPT 120600Z 12003KT 1000 R25/2000 R07/1600 MIFG NSC 21/13 Q1016 NOSIG=,VEPT,12-12-2025 06:00,120,03,,1000 m,,21,13,1016,,MI,FG,,,,,,
202512120630 METAR VEPT 120630Z 12003KT 1200 R25/2000 R07/1600 MIFG NSC 22/14 Q1016 NOSIG=,VEPT,12-12-2025 06:30,120,03,,1200 m,,22,14,1016,,MI,FG,,,,,,
202512120700 METAR VEPT 120700Z 08003KT 1200 R25/2000 R07/1600 MIFG NSC 22/14 Q1015 NOSIG=,VEPT,12-12-2025 07:00,080,03,,1200 m,,22,14,1015,,MI,FG,,,,,,
202512120730 METAR VEPT 120730Z 21003KT 1200 R25/2000 R07/1700 MIFG NSC 23/14 Q1015 NOSIG=,VEPT,12-12-2025 07:30,210,03,,1200 m,,23,14,1015,,MI,FG,,,,,,
202512120800 METAR VEPT 120800Z 00000KT 1200 R25/2000 R07/1600 MIFG NSC 24/14 Q1014 NOSIG=,VEPT,12-12-2025 08:00,000,00,,1200 m,,24,14,1014,,MI,FG,,,,,,
202512120830 METAR VEPT 120830Z 00000KT 1200 R25/2000 R07/1600 MIFG NSC 23/15 Q1014 NOSIG=,VEPT,12-12-2025 08:30,000,00,,1200 m,,23,15,1014,,MI,FG,,,,,,
202512120900 METAR VEPT 120900Z 00000KT 1300 R25/2000 R07/1700 HZ NSC 23/14 Q1014 NOSIG=,VEPT,12-12-2025 09:00,000,00,,1300 m,,23,14,1014,,,HZ,,,,,,
202512120930 METAR VEPT 120930Z 04003KT 1400 R25/2000 R07/1800 HZ NSC 23/14 Q1014 BECMG 1500 HZ=,VEPT,12-12-2025 09:30,040,03,,1400 m,,23,14,1014,,,HZ,,,HZ,,,
202512121000 METAR VEPT 121000Z 03003KT 1500 R25/2000 R07/2000 HZ NSC 23/13 Q1014 NOSIG=,VEPT,12-12-2025 10:00,030,03,,1500 m,,23,13,1014,,,HZ,,,,,,
202512121030 METAR VEPT 121030Z 00000KT 1500 R25/2000 R07/2000 HZ NSC 23/13 Q1013 NOSIG=,VEPT,12-12-2025 10:30,000,00,,1500 m,,23,13,1013,,,HZ,,,,,,
202512121100 METAR VEPT 121100Z 00000KT 1700 HZ NSC 21/14 Q1013 NOSIG=,VEPT,12-12-2025 11:00,000,00,,1700 m,,21,14,1013,,,HZ,,,,,,
202512121130 METAR VEPT 121130Z 00000KT 1700 HZ NSC 19/15 Q1014 NOSIG=,VEPT,12-12-2025 11:30,000,00,,1700 m,,19,15,1014,,,HZ,,,,,,
202512121200 METAR VEPT 121200Z 00000KT 1700 BR NSC 18/15 Q1014 NOSIG=,VEPT,12-12-2025 12:00,000,00,,1700 m,,18,15,1014,,,BR,,,,,,
202512121230 METAR VEPT 121230Z 00000KT 1600 BR NSC 18/15 Q1014 BECMG 1500 BR=,VEPT,12-12-2025 12:30,000,00,,1600 m,,18,15,1014,,,BR,,,BR,,,
202512121300 METAR VEPT 121300Z 00000KT 1600 BR NSC 17/15 Q1015 NOSIG=,VEPT,12-12-2025 13:00,000,00,,1600 m,,17,15,1015,,,BR,,,,,,
202512121330 METAR VEPT 121330Z 00000KT 1600 BR NSC 17/14 Q1015 NOSIG=,VEPT,12-12-2025 13:30,000,00,,1600 m,,17,14,1015,,,BR,,,,,,
202512121400 METAR VEPT 121400Z 00000KT 1600 BR NSC 16/15 Q1015 NOSIG=,VEPT,12-12-2025 14:00,000,00,,1600 m,,16,15,1015,,,BR,,,,,,
202512121430 METAR VEPT 121430Z 00000KT 1600 BR NSC 16/14 Q1015 NOSIG=,VEPT,12-12-2025 14:30,000,00,,1600 m,,16,14,1015,,,BR,,,,,,
202512121500 METAR VEPT 121500Z 00000KT 1600 BR NSC 16/14 Q1016 NOSIG=,VEPT,12-12-2025 15:00,000,00,,1600 m,,16,14,1016,,,BR,,,,,,
202512121530 METAR VEPT 121530Z 00000KT 1600 BR NSC 16/13 Q1016 NOSIG=,VEPT,12-12-2025 15:30,000,00,,1600 m,,16,13,1016,,,BR,,,,,,
202512121600 METAR VEPT 121600Z 00000KT 1600 BR NSC 15/14 Q1016 BECMG 1500 BR=,VEPT,12-12-2025 16:00,000,00,,1600 m,,15,14,1016,,,BR,,,BR,,,
202512121630 METAR COR VEPT 121630Z 00000KT 1500 R25/2000 R07/1500 BR NSC 15/14 Q1016 NOSIG=,VEPT,12-12-2025 16:30,000,00,,1500 m,,15,14,1016,,,BR,,,,,,
202512121700 METAR VEPT 121700Z 00000KT 1300 R25/1700 R07/1300 BR NSC 14/14 Q1016 NOSIG=,VEPT,12-12-2025 17:00,000,00,,1300 m,,14,14,1016,,,BR,,,,,,
202512121730 METAR VEPT 121730Z 00000KT 1200 R25/1700 R07/1200 BR NSC 15/14 Q1016 NOSIG=,VEPT,12-12-2025 17:30,000,00,,1200 m,,15,14,1016,,,BR,,,,,,
202512121800 METAR VEPT 121800Z 00000KT 1100 R25/1500 R07/1200 BR NSC 14/13 Q1016 NOSIG=,VEPT,12-12-2025 18:00,000,00,,1100 m,,14,13,1016,,,BR,,,,,,
202512121830 METAR VEPT 121830Z 00000KT 1000 R25/1000 R07/1000 MIFG NSC 14/13 Q1016 NOSIG=,VEPT,12-12-2025 18:30,000,00,,1000 m,,14,13,1016,,MI,FG,,,,,,
202512121900 METAR VEPT 121900Z 00000KT 1000 R25/1000 R07/1000 MIFG NSC 14/13 Q101 6 NOSIG=,VEPT,12-12-2025 19:00,000,00,,1000 m,,14,13,,,MI,FG,,,,,,
202512121930 METAR VEPT 121930Z 00000KT 1000 R25/1000 R07/1000 MIFG NSC 14/13 Q101 6 NOSIG=,VEPT,12-12-2025 19:30,000,00,,1000 m,,14,13,,,MI,FG,,,,,,
202512122000 METAR VEPT 122000Z 00000KT 0900 R25/1000 R07/0900 FG NSC 14/13 Q1015 NOSIG=,VEPT,12-12-2025 20:00,000,00,,0900 m,,14,13,1015,,,FG,,,,,,
202512122030 METAR VEPT 122030Z 00000KT 0900 R25/1000 R07/0900 FG NSC 14/13 Q1015 BECMG 0800 FG=,VEPT,12-12-2025 20:30,000,00,,0900 m,,14,13,1015,,,FG,,,FG,,,
202512122100 METAR VEPT 122100Z 00000KT 0800 R25/1000 R07/0400 FG NSC 13/12 Q1015 NOSIG=,VEPT,12-12-2025 21:00,000,00,,0800 m,,13,12,1015,,,FG,,,,,,
202512122130 METAR VEPT 122130Z 00000KT 0800 R25/0700 R07/1000 FG NSC 13/13 Q1015 NOSIG=,VEPT,12-12-2025 21:30,000,00,,0800 m,,13,13,1015,,,FG,,,,,,
202512122200 METAR VEPT 122200Z 00000KT 0650 R25/0700 R07/0900 FG NSC 12/12 Q1015 BECMG 0600 FG=,VEPT,12-12-2025 22:00,000,00,,0650 m,,12,12,1015,,,FG,,,FG,,,
202512122230 METAR VEPT 122230Z 00000KT 0600 R25/0600 R07/0500 FG NSC 12/12 Q1015 NOSIG=,VEPT,12-12-2025 22:30,000,00,,0600 m,,12,12,1015,,,FG,,,,,,
202512122300 METAR VEPT 122300Z 00000KT 0600 R25/0500 R07/0500 FG NSC 13/12 Q1015 NOSIG=,VEPT,12-12-2025 23:00,000,00,,0600 m,,13,12,1015,,,FG,,,,,,
202512122330 METAR VEPT 122330Z 00000KT 0600 R25/0400 R07/0400 FG NSC 13/13 Q1015 NOSIG=,VEPT,12-12-2025 23:30,000,00,,0600 m,,13,13,1015,,,FG,,,,,,
202512130000 METAR VEPT 130000Z 00000KT 0500 R25/0600 R07/0550 FG NSC 12/12 Q1016 NOSIG=,VEPT,13-12-2025 00:00,000,00,,0500 m,,12,12,1016,,,FG,,,,,,
202512130030 METAR VEPT 130030Z 00000KT 0400 R25/0450 R07/0400 FG NSC 12/12 Q1016 BECMG 350 FG=,VEPT,13-12-2025 00:30,000,00,,0400 m,,12,12,1016,,,FG,,,FG,,,
202512130100 METAR VEPT 130100Z 00000KT 0300 R25/0550 R07/0300 FG NSC 12/12 Q1016 BECMG 150 FG=,VEPT,13-12-2025 01:00,000,00,,0300 m,,12,12,1016,,,FG,,,FG,,,
202512130130 METAR VEPT 130130Z 00000KT 0300 R25/0700 R07/0300 FG NSC 12/12 Q1017 NOSIG=,VEPT,13-12-2025 01:30,000,00,,0300 m,,12,12,1017,,,FG,,,,,,
202512130200 METAR VEPT 130200Z 00000KT 0300 R25/0800 R07/0700 FG NSC 12/12 Q1017 BECMG 350 FG=,VEPT,13-12-2025 02:00,000,00,,0300 m,,12,12,1017,,,FG,,,FG,,,
202512130230 METAR VEPT 130230Z 00000KT 0500 R25/2000 R07/0900 FG NSC 13/13 Q1018 BECMG 600 FG=,VEPT,13-12-2025 02:30,000,00,,0500 m,,13,13,1018,,,FG,,,FG,,,
202512130300 METAR VEPT 130300Z 00000KT 0500 R25/2000 R07/1000 FG NSC 15/14 Q1018 NOSIG=,VEPT,13-12-2025 03:00,000,00,,0500 m,,15,14,1018,,,FG,,,,,,
202512130330 METAR VEPT 130330Z 00000KT 0600 R25/2000 R07/1000 FG NSC 17/15 Q1019 NOSIG=,VEPT,13-12-2025 03:30,000,00,,0600 m,,17,15,1019,,,FG,,,,,,
202512130400 METAR VEPT 130400Z 00000KT 0700 R25/2000 R07/1100 FG NSC 19/15 Q1019 BECMG 0800 FG=,VEPT,13-12-2025 04:00,000,00,,0700 m,,19,15,1019,,,FG,,,FG,,,
202512130430 METAR COR VEPT 130430Z 27003KT 0800 R25/2000 R07/1300 FG NSC 20/15 Q1019 NOSIG=,VEPT,13-12-2025 04:30,270,03,,0800 m,,20,15,1019,,,FG,,,,,,
202512130500 METAR VEPT 130500Z 00000KT 1000 R25/2000 R07/1300 MIFG NSC 21/14 Q1018 NOSIG=,VEPT,13-12-2025 05:00,000,00,,1000 m,,21,14,1018,,MI,FG,,,,,,
202512130530 METAR VEPT 130530Z 00000KT 1200 R25/2000 R07/1700 MIFG NSC 22/13 Q1018 NOSIG=,VEPT,13-12-2025 05:30,000,00,,1200 m,,22,13,1018,,MI,FG,,,,,,
202512130600 METAR VEPT 130600Z 00000KT 1400 R25/2000 R07/2000 HZ NSC 22/12 Q1018 BECMG 1500 HZ=,VEPT,13-12-2025 06:00,000,00,,1400 m,,22,12,1018,,,HZ,,,HZ,,,
202512130630 METAR VEPT 130630Z 05003KT 1800 HZ NSC 23/13 Q1017 NOSIG=,VEPT,13-12-2025 06:30,050,03,,1800 m,,23,13,1017,,,HZ,,,,,,
202512130700 METAR VEPT 130700Z 05004KT 2000 HZ NSC 24/12 Q1016 NOSIG=,VEPT,13-12-2025 07:00,050,04,,2000 m,,24,12,1016,,,HZ,,,,,,
202512130730 METAR VEPT 130730Z 04005KT 2200 HZ NSC 24/12 Q1016 NOSIG=,VEPT,13-12-2025 07:30,040,05,,2200 m,,24,12,1016,,,HZ,,,,,,
202512130800 METAR VEPT 130800Z 28004KT 2500 HZ NSC 24/13 Q1015 NOSIG=,VEPT,13-12-2025 08:00,280,04,,2500 m,,24,13,1015,,,HZ,,,,,,
202512130830 METAR VEPT 130830Z 00000KT 2800 HZ NSC 24/12 Q1015 BECMG 3000 HZ=,VEPT,13-12-2025 08:30,000,00,,2800 m,,24,12,1015,,,HZ,,,HZ,,,
202512130900 METAR VEPT 130900Z 00000KT 3000 HZ NSC 25/11 Q1015 NOSIG=,VEPT,13-12-2025 09:00,000,00,,3000 m,,25,11,1015,,,HZ,,,,,,
202512130930 METAR VEPT 130930Z 32003KT 3500 HZ NSC 24/12 Q1014 NOSIG=,VEPT,13-12-2025 09:30,320,03,,3500 m,,24,12,1014,,,HZ,,,,,,
202512131030 METAR VEPT 131030Z 03003KT 3500 HZ NSC 24/12 Q1014 NOSIG=,VEPT,13-12-2025 10:30,030,03,,3500 m,,24,12,1014,,,HZ,,,,,,
202512131200 METAR VEPT 131200Z 00000KT 2800 HZ NSC 19/14 Q1015 NOSIG=,VEPT,13-12-2025 12:00,000,00,,2800 m,,19,14,1015,,,HZ,,,,,,
202512131230 METAR VEPT 131230Z 00000KT 2800 BR NSC 18/14 Q1015 NOSIG=,VEPT,13-12-2025 12:30,000,00,,2800 m,,18,14,1015,,,BR,,,,,,
202512131300 METAR VEPT 131300Z 00000KT 2800 BR NSC 18/14 Q1016 NOSIG=,VEPT,13-12-2025 13:00,000,00,,2800 m,,18,14,1016,,,BR,,,,,,
202512131330 METAR VEPT 131330Z 00000KT 2800 BR NSC 17/13 Q1016 NOSIG=,VEPT,13-12-2025 13:30,000,00,,2800 m,,17,13,1016,,,BR,,,,,,
202512131400 METAR VEPT 131400Z 00000KT 2800 BR NSC 16/14 Q1016 NOSIG=,VEPT,13-12-2025 14:00,000,00,,2800 m,,16,14,1016,,,BR,,,,,,
202512131430 METAR VEPT 131430Z 00000KT 2500 BR NSC 16/13 Q1017 NOSIG=,VEPT,13-12-2025 14:30,000,00,,2500 m,,16,13,1017,,,BR,,,,,,
202512131500 METAR VEPT 131500Z 00000KT 2500 BR NSC 16/13 Q1017 NOSIG=,VEPT,13-12-2025 15:00,000,00,,2500 m,,16,13,1017,,,BR,,,,,,
202512131530 METAR VEPT 131530Z 00000KT 2200 BR NSC 18/14 Q1017 NOSIG=,VEPT,13-12-2025 15:30,000,00,,2200 m,,18,14,1017,,,BR,,,,,,
202512131600 METAR VEPT 131600Z 00000KT 2000 BR NSC 15/14 Q1017 NOSIG=,VEPT,13-12-2025 16:00,000,00,,2000 m,,15,14,1017,,,BR,,,,,,
202512131630 METAR VEPT 131630Z 00000KT 2000 BR NSC 15/13 Q1017 NOSIG=,VEPT,13-12-2025 16:30,000,00,,2000 m,,15,13,1017,,,BR,,,,,,
202512131700 METAR VEPT 131700Z 00000KT 2000 BR NSC 15/13 Q1017 NOSIG=,VEPT,13-12-2025 17:00,000,00,,2000 m,,15,13,1017,,,BR,,,,,,
202512131730 METAR VEPT 131730Z 00000KT 1800 BR NSC 15/13 Q1017 NOSIG=,VEPT,13-12-2025 17:30,000,00,,1800 m,,15,13,1017,,,BR,,,,,,
202512131800 METAR VEPT 131800Z 00000KT 1800 BR NSC 15/13 Q1017 NOSIG=,VEPT,13-12-2025 18:00,000,00,,1800 m,,15,13,1017,,,BR,,,,,,
202512131830 METAR VEPT 131830Z 00000KT 1600 BR NSC 14/13 Q1017 NOSIG=,VEPT,13-12-2025 18:30,000,00,,1600 m,,14,13,1017,,,BR,,,,,,
202512131900 METAR VEPT 131900Z 00000KT 1600 BR NSC 14/13 Q1017 NOSIG=,VEPT,13-12-2025 19:00,000,00,,1600 m,,14,13,1017,,,BR,,,,,,
202512131930 METAR VEPT 131930Z 00000KT 1600 BR NSC 14/13 Q1017 NOSIG=,VEPT,13-12-2025 19:30,000,00,,1600 m,,14,13,1017,,,BR,,,,,,
202512132000 METAR VEPT 132000Z 00000KT 1600 BR NSC 14/13 Q1016 NOSIG=,VEPT,13-12-2025 20:00,000,00,,1600 m,,14,13,1016,,,BR,,,,,,
202512132030 METAR VEPT 132030Z 00000KT 1600 BR NSC 13/12 Q1016 NOSIG=,VEPT,13-12-2025 20:30,000,00,,1600 m,,13,12,1016,,,BR,,,,,,
202512132100 METAR VEPT 132100Z 00000KT 1600 BR NSC 12/12 Q1016 BECMG 1500 BR=,VEPT,13-12-2025 21:00,000,00,,1600 m,,12,12,1016,,,BR,,,BR,,,
202512132130 METAR VEPT 132130Z 00000KT 1300 BR NSC 13/12 Q1016 NOSIG=,VEPT,13-12-2025 21:30,000,00,,1300 m,,13,12,1016,,,BR,,,,,,
202512132200 METAR VEPT 132200Z 00000KT 1300 R25/1600 R07/2000 BR NSC 12/12 Q1016 NOSIG=,VEPT,13-12-2025 22:00,000,00,,1300 m,,12,12,1016,,,BR,,,,,,
202512132230 METAR VEPT 132230Z 00000KT 1400 R25/1700 R07/2000 BR NSC 13/12 Q1016 NOSIG=,VEPT,13-12-2025 22:30,000,00,,1400 m,,13,12,1016,,,BR,,,,,,
202512132300 METAR VEPT 132300Z 00000KT 1200 R25/2000 R07/1600 MIFG NSC 12/12 Q1016 NOSIG=,VEPT,13-12-2025 23:00,000,00,,1200 m,,12,12,1016,,MI,FG,,,,,,
202512132330 METAR VEPT 132330Z 00000KT 1200 R25/1800 R07/2000 MIFG NSC 13/12 Q1017 NOSIG=,VEPT,13-12-2025 23:30,000,00,,1200 m,,13,12,1017,,MI,FG,,,,,,
202512140000 METAR VEPT 140000Z 00000KT 1200 R25/1800 R07/2000 MIFG NSC 12/12 Q101 7 NOSIG=,VEPT,14-12-2025 00:00,000,00,,1200 m,,12,12,,,MI,FG,,,,,,
202512140030 METAR VEPT 140030Z 00000KT 1000 R25/1600 R07/1600 MIFG NSC 12/12 Q101 7 BECMG 0800 FG=,VEPT,14-12-2025 00:30,000,00,,1000 m,,12,12,,,MI,FG,,,FG,,,
202512140100 METAR VEPT 140100Z 00000KT 0800 R25/1600 R07/1600 FG NSC 12/12 Q1018 NOSIG=,VEPT,14-12-2025 01:00,000,00,,0800 m,,12,12,1018,,,FG,,,,,,
202512140130 METAR VEPT 140130Z 00000KT 0800 R25/1500 R07/1200 FG NSC 12/12 Q1018 NOSIG=,VEPT,14-12-2025 01:30,000,00,,0800 m,,12,12,1018,,,FG,,,,,,
202512140230 METAR VEPT 140230Z 00000KT 1200 R25/1600 R07/1600 MIFG NSC 16/14 Q101 9 NOSIG=,VEPT,14-12-2025 02:30,000,00,,1200 m,,16,14,,,MI,FG,,,,,,
202512140330 METAR VEPT 140330Z 00000KT 1200 R25/1500 R07/1500 MIFG NSC 18/14 Q1020 NOSIG=,VEPT,14-12-2025 03:30,000,00,,1200 m,,18,14,1020,,MI,FG,,,,,,
202512140400 METAR VEPT 140400Z 00000KT 1200 R25/1500 R07/1600 MIFG NSC 20/13 Q1020 BECMG 1500 HZ=,VEPT,14-12-2025 04:00,000,00,,1200 m,,20,13,1020,,MI,FG,,,HZ,,,
202512140430 METAR VEPT 140430Z 00000KT 1200 R25/1500 R07/1600 MIFG NSC 21/14 Q1020 BECMG 1500 HZ=,VEPT,14-12-2025 04:30,000,00,,1200 m,,21,14,1020,,MI,FG,,,HZ,,,
202512140500 METAR VEPT 140500Z 03003KT 1500 R25/2000 R07/1800 HZ NSC 22/13 Q1020 NOSIG=,VEPT,14-12-2025 05:00,030,03,,1500 m,,22,13,1020,,,HZ,,,,,,
202512140530 METAR VEPT 140530Z 32003KT 2000 HZ NSC 23/12 Q1019 BECMG 3000 HZ=,VEPT,14-12-2025 05:30,320,03,,2000 m,,23,12,1019,,,HZ,,,HZ,,,
202512140600 METAR VEPT 140600Z 04003KT 3000 HZ FEW100 24/12 Q1018 NOSIG=,VEPT,14-12-2025 06:00,040,03,,3000 m,FEW100,24,12,1018,,,HZ,,,,,,
202512140630 METAR VEPT 140630Z 02003KT 4000 HZ SCT100 24/12 Q1018 NOSIG=,VEPT,14-12-2025 06:30,020,03,,4000 m,SCT100,24,12,1018,,,HZ,,,,,,
202512140700 METAR VEPT 140700Z 05004KT 4500 HZ SCT100 25/11 Q1017 NOSIG=,VEPT,14-12-2025 07:00,050,04,,4500 m,SCT100,25,11,1017,,,HZ,,,,,,
202512140730 METAR VEPT 140730Z 03003KT 4500 HZ SCT100 25/11 Q1017 BECMG 5000 HZ=,VEPT,14-12-2025 07:30,030,03,,4500 m,SCT100,25,11,1017,,,HZ,,,HZ,,,
202512140800 METAR VEPT 140800Z 04006KT 5000 HZ SCT100 25/11 Q1016 NOSIG=,VEPT,14-12-2025 08:00,040,06,,5000 m,SCT100,25,11,1016,,,HZ,,,,,,
202512140830 METAR VEPT 140830Z 04005KT 5000 HZ SCT100 25/11 Q1015 NOSIG=,VEPT,14-12-2025 08:30,040,05,,5000 m,SCT100,25,11,1015,,,HZ,,,,,,
202512140900 METAR VEPT 140900Z 05004KT 5000 HZ FEW100 25/12 Q1015 NOSIG=,VEPT,14-12-2025 09:00,050,04,,5000 m,FEW100,25,12,1015,,,HZ,,,,,,
202512140930 METAR VEPT 140930Z 02003KT 5000 HZ NSC 25/12 Q1015 NOSIG=,VEPT,14-12-2025 09:30,020,03,,5000 m,,25,12,1015,,,HZ,,,,,,
202512141000 METAR VEPT 141000Z 06003KT 5000 HZ NSC 24/12 Q1015 NOSIG=,VEPT,14-12-2025 10:00,060,03,,5000 m,,24,12,1015,,,HZ,,,,,,
202512141030 METAR VEPT 141030Z 00000KT 4000 HZ NSC 24/12 Q1015 NOSIG=,VEPT,14-12-2025 10:30,000,00,,4000 m,,24,12,1015,,,HZ,,,,,,
202512141100 METAR VEPT 141100Z 10003KT 4000 HZ NSC 22/14 Q1014 NOSIG=,VEPT,14-12-2025 11:00,100,03,,4000 m,,22,14,1014,,,HZ,,,,,,
202512141130 METAR VEPT 141130Z 00000KT 3500 HZ NSC 21/16 Q1015 NOSIG=,VEPT,14-12-2025 11:30,000,00,,3500 m,,21,16,1015,,,HZ,,,,,,
202512141200 METAR VEPT 141200Z 00000KT 3500 HZ NSC 20/14 Q1015 NOSIG=,VEPT,14-12-2025 12:00,000,00,,3500 m,,20,14,1015,,,HZ,,,,,,
202512141230 METAR VEPT 141230Z 00000KT 3500 HZ NSC 20/14 Q1015 NOSIG=,VEPT,14-12-2025 12:30,000,00,,3500 m,,20,14,1015,,,HZ,,,,,,
202512141300 METAR VEPT 141300Z 00000KT 3500 HZ NSC 19/14 Q1016 NOSIG=,VEPT,14-12-2025 13:00,000,00,,3500 m,,19,14,1016,,,HZ,,,,,,
202512141330 METAR VEPT 141330Z 00000KT 3500 BR NSC 18/14 Q1016 BECMG 3000 BR=,VEPT,14-12-2025 13:30,000,00,,3500 m,,18,14,1016,,,BR,,,BR,,,
202512141400 METAR VEPT 141400Z 00000KT 3000 BR NSC 17/14 Q1016 NOSIG=,VEPT,14-12-2025 14:00,000,00,,3000 m,,17,14,1016,,,BR,,,,,,
202512141430 METAR VEPT 141430Z 00000KT 3000 BR NSC 17/14 Q1017 NOSIG=,VEPT,14-12-2025 14:30,000,00,,3000 m,,17,14,1017,,,BR,,,,,,
202512141500 METAR VEPT 141500Z 00000KT 2800 BR NSC 16/14 Q1017 NOSIG=,VEPT,14-12-2025 15:00,000,00,,2800 m,,16,14,1017,,,BR,,,,,,
202512141530 METAR VEPT 141530Z 00000KT 2800 BR NSC 18/14 Q1017 NOSIG=,VEPT,14-12-2025 15:30,000,00,,2800 m,,18,14,1017,,,BR,,,,,,
202512141600 METAR VEPT 141600Z 00000KT 2200 BR NSC 17/14 Q1017 NOSIG=,VEPT,14-12-2025 16:00,000,00,,2200 m,,17,14,1017,,,BR,,,,,,
202512141630 METAR VEPT 141630Z 00000KT 2200 BR NSC 16/14 Q1017 NOSIG=,VEPT,14-12-2025 16:30,000,00,,2200 m,,16,14,1017,,,BR,,,,,,
202512141700 METAR VEPT 141700Z 00000KT 2000 BR NSC 16/13 Q1017 NOSIG=,VEPT,14-12-2025 17:00,000,00,,2000 m,,16,13,1017,,,BR,,,,,,
202512141730 METAR VEPT 141730Z 00000KT 2000 BR NSC 16/13 Q1017 NOSIG=,VEPT,14-12-2025 17:30,000,00,,2000 m,,16,13,1017,,,BR,,,,,,
202512141800 METAR VEPT 141800Z 00000KT 2000 BR NSC 15/14 Q1017 NOSIG=,VEPT,14-12-2025 18:00,000,00,,2000 m,,15,14,1017,,,BR,,,,,,
202512141830 METAR VEPT 141830Z 00000KT 2000 BR NSC 15/13 Q1017 NOSIG=,VEPT,14-12-2025 18:30,000,00,,2000 m,,15,13,1017,,,BR,,,,,,
202512141900 METAR VEPT 141900Z 00000KT 2000 BR NSC 14/13 Q1017 NOSIG=,VEPT,14-12-2025 19:00,000,00,,2000 m,,14,13,1017,,,BR,,,,,,
202512141930 METAR VEPT 141930Z 00000KT 2000 BR NSC 14/13 Q1017 NOSIG=,VEPT,14-12-2025 19:30,000,00,,2000 m,,14,13,1017,,,BR,,,,,,
202512142000 METAR VEPT 142000Z 00000KT 2000 BR NSC 14/13 Q1016 NOSIG=,VEPT,14-12-2025 20:00,000,00,,2000 m,,14,13,1016,,,BR,,,,,,
202512142030 METAR VEPT 142030Z 00000KT 2000 BR NSC 14/13 Q1016 NOSIG=,VEPT,14-12-2025 20:30,000,00,,2000 m,,14,13,1016,,,BR,,,,,,
202512142100 METAR VEPT 142100Z 00000KT 1800 BR NSC 13/12 Q1016 NOSIG=,VEPT,14-12-2025 21:00,000,00,,1800 m,,13,12,1016,,,BR,,,,,,
202512142130 METAR VEPT 142130Z 00000KT 1800 BR NSC 13/12 Q1016 NOSIG=,VEPT,14-12-2025 21:30,000,00,,1800 m,,13,12,1016,,,BR,,,,,,
202512142200 METAR VEPT 142200Z 00000KT 1600 BR NSC 13/13 Q1016 BECMG 1500 BR=,VEPT,14-12-2025 22:00,000,00,,1600 m,,13,13,1016,,,BR,,,BR,,,
202512142230 METAR VEPT 142230Z 00000KT 1500 R25/2000 R07/2000 BR NSC 13/12 Q1016 NOSIG=,VEPT,14-12-2025 22:30,000,00,,1500 m,,13,12,1016,,,BR,,,,,,
202512142300 METAR VEPT 142300Z 00000KT 1500 R25/2000 R07/2000 BR NSC 13/12 Q1016 NOSIG=,VEPT,14-12-2025 23:00,000,00,,1500 m,,13,12,1016,,,BR,,,,,,
202512142330 METAR VEPT 142330Z 00000KT 1400 R25/2000 R07/2000 BR NSC 13/12 Q1016 NOSIG=,VEPT,14-12-2025 23:30,000,00,,1400 m,,13,12,1016,,,BR,,,,,,
202512150000 METAR VEPT 150000Z 00000KT 1400 R25/2000 R07/2000 BR NSC 13/12 Q1016 NOSIG=,VEPT,15-12-2025 00:00,000,00,,1400 m,,13,12,1016,,,BR,,,,,,
202512150030 METAR VEPT 150030Z 00000KT 1400 R25/2000 R07/2000 BR NSC 13/12 Q1017 NOSIG=,VEPT,15-12-2025 00:30,000,00,,1400 m,,13,12,1017,,,BR,,,,,,
202512150100 METAR VEPT 150100Z 00000KT 1400 R25/2000 R07/2000 BR FEW100 13/12 Q10 17 NOSIG=,VEPT,15-12-2025 01:00,000,00,,1400 m,FEW100,13,12,,,,BR,,,,,,
202512150130 METAR VEPT 150130Z 25003KT 1400 R25/2000 R07/2000 BR FEW100 13/12 Q1018 NOSIG=,VEPT,15-12-2025 01:30,250,03,,1400 m,FEW100,13,12,1018,,,BR,,,,,,
202512150200 METAR VEPT 150200Z 24003KT 1300 R25/1800 R07/1800 BR FEW020 SCT100 14 /12 Q1018 NOSIG=,VEPT,15-12-2025 02:00,240,03,,1300 m,"FEW020, SCT100",,,1018,,,BR,,,,,,
202512150230 METAR VEPT 150230Z 23004KT 1300 R25/1800 R07/1800 BR SCT100 16/13 Q1019 NOSIG=,VEPT,15-12-2025 02:30,230,04,,1300 m,SCT100,16,13,1019,,,BR,,,,,,
202512150300 METAR VEPT 150300Z 23003KT 1400 R25/2000 R07/1900 BR SCT100 17/13 Q1019 BECMG 1500 BR=,VEPT,15-12-2025 03:00,230,03,,1400 m,SCT100,17,13,1019,,,BR,,,BR,,,
202512150330 METAR VEPT 150330Z 24004KT 1400 R25/2000 R07/1900 BR SCT100 18/13 Q1019 NOSIG=,VEPT,15-12-2025 03:30,240,04,,1400 m,SCT100,18,13,1019,,,BR,,,,,,
202512150400 METAR VEPT 150400Z 25004KT 1500 R25/1900 R07/1800 BR FEW100 19/13 Q1020 NOSIG=,VEPT,15-12-2025 04:00,250,04,,1500 m,FEW100,19,13,1020,,,BR,,,,,,
202512150430 METAR VEPT 150430Z 26004KT 1600 HZ FEW100 20/14 Q1020 NOSIG=,VEPT,15-12-2025 04:30,260,04,,1600 m,FEW100,20,14,1020,,,HZ,,,,,,
202512150500 METAR VEPT 150500Z 27003KT 1800 HZ NSC 21/13 Q1019 NOSIG=,VEPT,15-12-2025 05:00,270,03,,1800 m,,21,13,1019,,,HZ,,,,,,
202512150530 METAR VEPT 150530Z 34003KT 2200 HZ NSC 22/12 Q1019 NOSIG=,VEPT,15-12-2025 05:30,340,03,,2200 m,,22,12,1019,,,HZ,,,,,,
202512150600 METAR VEPT 150600Z 29004KT 2500 HZ NSC 23/13 Q1018 BECMG 3000 HZ=,VEPT,15-12-2025 06:00,290,04,,2500 m,,23,13,1018,,,HZ,,,HZ,,,
202512150630 METAR VEPT 150630Z 28005KT 3500 HZ NSC 24/13 Q1018 NOSIG=,VEPT,15-12-2025 06:30,280,05,,3500 m,,24,13,1018,,,HZ,,,,,,
202512150700 METAR VEPT 150700Z 32005KT 4000 HZ NSC 24/12 Q1017 NOSIG=,VEPT,15-12-2025 07:00,320,05,,4000 m,,24,12,1017,,,HZ,,,,,,
202512150730 METAR VEPT 150730Z 31005KT 4500 HZ NSC 24/12 Q1017 BECMG 5000 HZ=,VEPT,15-12-2025 07:30,310,05,,4500 m,,24,12,1017,,,HZ,,,HZ,,,
202512150800 METAR VEPT 150800Z 26006KT 4500 HZ NSC 25/12 Q1016 NOSIG=,VEPT,15-12-2025 08:00,260,06,,4500 m,,25,12,1016,,,HZ,,,,,,
202512150830 METAR VEPT 150830Z 27005KT 5000 HZ NSC 25/12 Q1016 NOSIG=,VEPT,15-12-2025 08:30,270,05,,5000 m,,25,12,1016,,,HZ,,,,,,
202512150900 METAR VEPT 150900Z 29004KT 5000 HZ NSC 24/11 Q1015 NOSIG=,VEPT,15-12-2025 09:00,290,04,,5000 m,,24,11,1015,,,HZ,,,,,,
202512150930 METAR VEPT 150930Z 29004KT 5000 HZ NSC 24/11 Q1015 NOSIG=,VEPT,15-12-2025 09:30,290,04,,5000 m,,24,11,1015,,,HZ,,,,,,
202512151000 METAR VEPT 151000Z 31005KT 5000 HZ NSC 24/11 Q1015 NOSIG=,VEPT,15-12-2025 10:00,310,05,,5000 m,,24,11,1015,,,HZ,,,,,,
202512151030 METAR VEPT 151030Z 30005KT 4500 HZ NSC 24/11 Q1015 NOSIG=,VEPT,15-12-2025 10:30,300,05,,4500 m,,24,11,1015,,,HZ,,,,,,
202512151100 METAR VEPT 151100Z 29004KT 4500 HZ NSC 23/12 Q1015 NOSIG=,VEPT,15-12-2025 11:00,290,04,,4500 m,,23,12,1015,,,HZ,,,,,,
202512151130 METAR VEPT 151130Z 29003KT 4000 HZ NSC 22/13 Q1015 NOSIG=,VEPT,15-12-2025 11:30,290,03,,4000 m,,22,13,1015,,,HZ,,,,,,
202512151200 METAR VEPT 151200Z 27003KT 4000 HZ NSC 20/13 Q1015 NOSIG=,VEPT,15-12-2025 12:00,270,03,,4000 m,,20,13,1015,,,HZ,,,,,,
202512151230 METAR VEPT 151230Z 00000KT 3500 HZ NSC 18/14 Q1016 NOSIG=,VEPT,15-12-2025 12:30,000,00,,3500 m,,18,14,1016,,,HZ,,,,,,
202512151300 METAR VEPT 151300Z 00000KT 3200 HZ NSC 19/14 Q1016 BECMG 3000 BR=,VEPT,15-12-2025 13:00,000,00,,3200 m,,19,14,1016,,,HZ,,,BR,,,
202512151330 METAR VEPT 151330Z 00000KT 3000 BR NSC 18/13 Q1016 NOSIG=,VEPT,15-12-2025 13:30,000,00,,3000 m,,18,13,1016,,,BR,,,,,,
202512151400 METAR VEPT 151400Z 00000KT 3000 BR NSC 19/13 Q1016 NOSIG=,VEPT,15-12-2025 14:00,000,00,,3000 m,,19,13,1016,,,BR,,,,,,
202512151430 METAR VEPT 151430Z 00000KT 3000 BR NSC 17/14 Q1017 NOSIG=,VEPT,15-12-2025 14:30,000,00,,3000 m,,17,14,1017,,,BR,,,,,,
202512151500 METAR VEPT 151500Z 00000KT 3000 BR NSC 16/13 Q1017 NOSIG=,VEPT,15-12-2025 15:00,000,00,,3000 m,,16,13,1017,,,BR,,,,,,
202512151530 METAR VEPT 151530Z 00000KT 3000 BR NSC 18/13 Q1017 NOSIG=,VEPT,15-12-2025 15:30,000,00,,3000 m,,18,13,1017,,,BR,,,,,,
202512151600 METAR VEPT 151600Z 00000KT 2800 BR NSC 17/14 Q1017 NOSIG=,VEPT,15-12-2025 16:00,000,00,,2800 m,,17,14,1017,,,BR,,,,,,
202512151630 METAR VEPT 151630Z 00000KT 2800 BR NSC 17/13 Q1017 NOSIG=,VEPT,15-12-2025 16:30,000,00,,2800 m,,17,13,1017,,,BR,,,,,,
202512151700 METAR VEPT 151700Z 00000KT 2800 BR NSC 16/13 Q1017 NOSIG=,VEPT,15-12-2025 17:00,000,00,,2800 m,,16,13,1017,,,BR,,,,,,
202512151730 METAR VEPT 151730Z 00000KT 2800 BR NSC 16/13 Q1017 NOSIG=,VEPT,15-12-2025 17:30,000,00,,2800 m,,16,13,1017,,,BR,,,,,,
202512151800 METAR VEPT 151800Z 00000KT 2800 BR NSC 15/13 Q1016 NOSIG=,VEPT,15-12-2025 18:00,000,00,,2800 m,,15,13,1016,,,BR,,,,,,
202512151830 METAR VEPT 151830Z 00000KT 2500 BR NSC 15/13 Q1016 NOSIG=,VEPT,15-12-2025 18:30,000,00,,2500 m,,15,13,1016,,,BR,,,,,,
202512151900 METAR VEPT 151900Z 00000KT 2500 BR NSC 15/13 Q1016 NOSIG=,VEPT,15-12-2025 19:00,000,00,,2500 m,,15,13,1016,,,BR,,,,,,
202512151930 METAR VEPT 151930Z 00000KT 2500 BR NSC 15/13 Q1016 NOSIG=,VEPT,15-12-2025 19:30,000,00,,2500 m,,15,13,1016,,,BR,,,,,,
202512152000 METAR VEPT 152000Z 00000KT 2500 BR NSC 15/13 Q1016 NOSIG=,VEPT,15-12-2025 20:00,000,00,,2500 m,,15,13,1016,,,BR,,,,,,
202512152030 METAR VEPT 152030Z 00000KT 2200 BR NSC 15/12 Q1016 NOSIG=,VEPT,15-12-2025 20:30,000,00,,2200 m,,15,12,1016,,,BR,,,,,,
202512152100 METAR VEPT 152100Z 00000KT 2200 BR NSC 15/12 Q1016 NOSIG=,VEPT,15-12-2025 21:00,000,00,,2200 m,,15,12,1016,,,BR,,,,,,
202512152130 METAR VEPT 152130Z 00000KT 2200 BR NSC 15/12 Q1015 NOSIG=,VEPT,15-12-2025 21:30,000,00,,2200 m,,15,12,1015,,,BR,,,,,,
202512152200 METAR VEPT 152200Z 00000KT 2000 BR NSC 14/12 Q1015 NOSIG=,VEPT,15-12-2025 22:00,000,00,,2000 m,,14,12,1015,,,BR,,,,,,
202512152230 METAR VEPT 152230Z 00000KT 2000 BR NSC 14/12 Q1015 NOSIG=,VEPT,15-12-2025 22:30,000,00,,2000 m,,14,12,1015,,,BR,,,,,,
202512152300 METAR VEPT 152300Z 00000KT 2000 BR NSC 14/12 Q1015 NOSIG=,VEPT,15-12-2025 23:00,000,00,,2000 m,,14,12,1015,,,BR,,,,,,
202512152330 METAR VEPT 152330Z 00000KT 1800 BR NSC 14/12 Q1015 BECMG 1500 BR=,VEPT,15-12-2025 23:30,000,00,,1800 m,,14,12,1015,,,BR,,,BR,,,
202512160000 METAR VEPT 160000Z 24003KT 1500 BR NSC 14/12 Q1016 BECMG 0800 FG=,VEPT,16-12-2025 00:00,240,03,,1500 m,,14,12,1016,,,BR,,,FG,,,
202512160030 METAR VEPT 160030Z 24004KT 1400 R25/2000 R07/2000 BR NSC 13/12 Q1016 NOSIG=,VEPT,16-12-2025 00:30,240,04,,1400 m,,13,12,1016,,,BR,,,,,,
202512160100 METAR VEPT 160100Z 24004KT 1100 R25/1700 R07/1800 MIFG NSC 13/12 Q101 6 BECMG 0800 FG=,VEPT,16-12-2025 01:00,240,04,,1100 m,,13,12,,,MI,FG,,,FG,,,
202512160130 METAR VEPT 160130Z 24003KT 0800 R25/1400 R07/1500 FG NSC 13/12 Q1017 NOSIG=,VEPT,16-12-2025 01:30,240,03,,0800 m,,13,12,1017,,,FG,,,,,,
202512160200 METAR VEPT 160200Z 25003KT 0800 R25/1500 R07/1400 FG NSC 14/12 Q1017 NOSIG=,VEPT,16-12-2025 02:00,250,03,,0800 m,,14,12,1017,,,FG,,,,,,
202512160230 METAR VEPT 160230Z 25004KT 0800 R25/1400 R07/1300 FG NSC 15/14 Q1017 NOSIG=,VEPT,16-12-2025 02:30,250,04,,0800 m,,15,14,1017,,,FG,,,,,,
202512160300 METAR VEPT 160300Z 25004KT 0800 R25/1500 R07/1300 FG NSC 16/14 Q1018 NOSIG=,VEPT,16-12-2025 03:00,250,04,,0800 m,,16,14,1018,,,FG,,,,,,
202512160330 METAR VEPT 160330Z 25006KT 0800 R25/1600 R07/1300 FG NSC 17/13 Q1018 NOSIG=,VEPT,16-12-2025 03:30,250,06,,0800 m,,17,13,1018,,,FG,,,,,,
202512160400 METAR VEPT 160400Z 24004KT 1000 R25/1500 R07/1400 MIFG NSC 18/13 Q1018 NOSIG=,VEPT,16-12-2025 04:00,240,04,,1000 m,,18,13,1018,,MI,FG,,,,,,
202512160430 METAR VEPT 160430Z 26004KT 1000 R25/1600 R07/1500 MIFG NSC 19/14 Q1018 NOSIG=,VEPT,16-12-2025 04:30,260,04,,1000 m,,19,14,1018,,MI,FG,,,,,,
202512160500 METAR VEPT 160500Z 26004KT 1000 R25/1800 R07/1600 MIFG NSC 20/14 Q1018 NOSIG=,VEPT,16-12-2025 05:00,260,04,,1000 m,,20,14,1018,,MI,FG,,,,,,
202512160530 METAR VEPT 160530Z 34004KT 1200 R25/2000 R07/1700 MIFG NSC 21/14 Q1017 NOSIG=,VEPT,16-12-2025 05:30,340,04,,1200 m,,21,14,1017,,MI,FG,,,,,,
202512160600 METAR VEPT 160600Z 26005KT 1400 R25/2000 R07/2000 HZ NSC 22/14 Q1017 BECMG 1500 HZ=,VEPT,16-12-2025 06:00,260,05,,1400 m,,22,14,1017,,,HZ,,,HZ,,,
202512160630 METAR VEPT 160630Z 29007KT 1600 HZ NSC 22/14 Q1016 NOSIG=,VEPT,16-12-2025 06:30,290,07,,1600 m,,22,14,1016,,,HZ,,,,,,
202512160700 METAR VEPT 160700Z 31007KT 1600 HZ NSC 24/14 Q1015 NOSIG=,VEPT,16-12-2025 07:00,310,07,,1600 m,,24,14,1015,,,HZ,,,,,,
202512160730 METAR VEPT 160730Z 26008KT 1800 HZ NSC 24/14 Q1015 NOSIG=,VEPT,16-12-2025 07:30,260,08,,1800 m,,24,14,1015,,,HZ,,,,,,
202512160800 METAR VEPT 160800Z 32007KT 2000 HZ NSC 23/14 Q1015 NOSIG=,VEPT,16-12-2025 08:00,320,07,,2000 m,,23,14,1015,,,HZ,,,,,,
202512160830 METAR VEPT 160830Z 30005KT 2200 HZ NSC 23/14 Q1014 NOSIG=,VEPT,16-12-2025 08:30,300,05,,2200 m,,23,14,1014,,,HZ,,,,,,
202512160900 METAR VEPT 160900Z 30004KT 2200 HZ NSC 23/14 Q1014 NOSIG=,VEPT,16-12-2025 09:00,300,04,,2200 m,,23,14,1014,,,HZ,,,,,,
202512160930 METAR VEPT 160930Z 28006KT 2200 HZ NSC 23/14 Q1014 NOSIG=,VEPT,16-12-2025 09:30,280,06,,2200 m,,23,14,1014,,,HZ,,,,,,
202512161000 METAR VEPT 161000Z 28005KT 2200 HZ NSC 23/15 Q1014 NOSIG=,VEPT,16-12-2025 10:00,280,05,,2200 m,,23,15,1014,,,HZ,,,,,,
202512161030 METAR VEPT 161030Z 28004KT 2200 HZ NSC 23/15 Q1014 NOSIG=,VEPT,16-12-2025 10:30,280,04,,2200 m,,23,15,1014,,,HZ,,,,,,
202512161100 METAR VEPT 161100Z 30003KT 2200 HZ NSC 22/15 Q1014 NOSIG=,VEPT,16-12-2025 11:00,300,03,,2200 m,,22,15,1014,,,HZ,,,,,,
202512161130 METAR VEPT 161130Z 27003KT 2000 HZ NSC 22/15 Q1014 NOSIG=,VEPT,16-12-2025 11:30,270,03,,2000 m,,22,15,1014,,,HZ,,,,,,
202512161200 METAR VEPT 161200Z 29003KT 2000 HZ NSC 21/15 Q1015 NOSIG=,VEPT,16-12-2025 12:00,290,03,,2000 m,,21,15,1015,,,HZ,,,,,,
202512161230 METAR VEPT 161230Z 28003KT 2000 HZ NSC 20/15 Q1015 NOSIG=,VEPT,16-12-2025 12:30,280,03,,2000 m,,20,15,1015,,,HZ,,,,,,
202512161300 METAR VEPT 161300Z 00000KT 2000 HZ NSC 20/15 Q1015 NOSIG=,VEPT,16-12-2025 13:00,000,00,,2000 m,,20,15,1015,,,HZ,,,,,,
202512161330 METAR VEPT 161330Z 00000KT 2000 HZ NSC 19/15 Q1016 NOSIG=,VEPT,16-12-2025 13:30,000,00,,2000 m,,19,15,1016,,,HZ,,,,,,
202512161400 METAR VEPT 161400Z 00000KT 2000 HZ NSC 17/15 Q1016 NOSIG=,VEPT,16-12-2025 14:00,000,00,,2000 m,,17,15,1016,,,HZ,,,,,,
202512161430 METAR VEPT 161430Z 00000KT 2000 BR NSC 19/15 Q1016 NOSIG=,VEPT,16-12-2025 14:30,000,00,,2000 m,,19,15,1016,,,BR,,,,,,
202512161500 METAR VEPT 161500Z 00000KT 2000 BR NSC 17/15 Q1016 NOSIG=,VEPT,16-12-2025 15:00,000,00,,2000 m,,17,15,1016,,,BR,,,,,,
202512161530 METAR VEPT 161530Z 00000KT 2000 BR NSC 16/15 Q1016 NOSIG=,VEPT,16-12-2025 15:30,000,00,,2000 m,,16,15,1016,,,BR,,,,,,
202512161600 METAR VEPT 161600Z 00000KT 2000 BR NSC 16/14 Q1016 NOSIG=,VEPT,16-12-2025 16:00,000,00,,2000 m,,16,14,1016,,,BR,,,,,,
202512161630 METAR VEPT 161630Z 00000KT 2000 BR NSC 16/15 Q1017 NOSIG=,VEPT,16-12-2025 16:30,000,00,,2000 m,,16,15,1017,,,BR,,,,,,
202512161700 METAR VEPT 161700Z 00000KT 1800 BR NSC 15/15 Q1017 NOSIG=,VEPT,16-12-2025 17:00,000,00,,1800 m,,15,15,1017,,,BR,,,,,,
202512161730 METAR VEPT 161730Z 00000KT 1800 BR NSC 16/14 Q1017 NOSIG=,VEPT,16-12-2025 17:30,000,00,,1800 m,,16,14,1017,,,BR,,,,,,
202512161800 METAR VEPT 161800Z 00000KT 1500 R25/1700 R07/1700 BR NSC 15/14 Q1017 NOSIG=,VEPT,16-12-2025 18:00,000,00,,1500 m,,15,14,1017,,,BR,,,,,,
202512161830 METAR VEPT 161830Z 00000KT 1400 R25/1900 R07/1400 BR NSC 15/14 Q1017 NOSIG=,VEPT,16-12-2025 18:30,000,00,,1400 m,,15,14,1017,,,BR,,,,,,
202512161900 METAR VEPT 161900Z 00000KT 1300 R25/1900 R07/1400 BR NSC 15/14 Q1016 NOSIG=,VEPT,16-12-2025 19:00,000,00,,1300 m,,15,14,1016,,,BR,,,,,,
202512161930 METAR VEPT 161930Z 00000KT 1200 R25/1300 R07/1300 BR NSC 14/14 Q1016 NOSIG=,VEPT,16-12-2025 19:30,000,00,,1200 m,,14,14,1016,,,BR,,,,,,
202512162000 METAR VEPT 162000Z 00000KT 1000 R25/1300 R07/1200 MIFG NSC 14/14 Q1016 NOSIG=,VEPT,16-12-2025 20:00,000,00,,1000 m,,14,14,1016,,MI,FG,,,,,,
202512162030 METAR VEPT 162030Z 00000KT 1000 R25/1300 R07/1200 MIFG NSC 14/14 Q1016 NOSIG=,VEPT,16-12-2025 20:30,000,00,,1000 m,,14,14,1016,,MI,FG,,,,,,
202512162100 METAR VEPT 162100Z 00000KT 0900 R25/1000 R07/0900 FG NSC 14/14 Q1016 NOSIG=,VEPT,16-12-2025 21:00,000,00,,0900 m,,14,14,1016,,,FG,,,,,,
202512162130 METAR VEPT 162130Z 26002KT 0900 R25/1200 R07/1300 FG NSC 14/13 Q1016 NOSIG=,VEPT,16-12-2025 21:30,260,02,,0900 m,,14,13,1016,,,FG,,,,,,
202512162200 METAR VEPT 162200Z 00000KT 0900 R25/0900 R07/1200 FG NSC 13/13 Q1016 BECMG 800 FG=,VEPT,16-12-2025 22:00,000,00,,0900 m,,13,13,1016,,,FG,,,FG,,,
202512162230 METAR VEPT 162230Z 00000KT 0800 R25/0900 R07/0900 FG NSC 13/13 Q1016 NOSIG=,VEPT,16-12-2025 22:30,000,00,,0800 m,,13,13,1016,,,FG,,,,,,
202512162300 METAR VEPT 162300Z 00000KT 0800 R25/0900 R07/0900 FG NSC 13/13 Q1016 NOSIG=,VEPT,16-12-2025 23:00,000,00,,0800 m,,13,13,1016,,,FG,,,,,,
202512162330 METAR VEPT 162330Z 00000KT 0800 R25/0900 R07/0900 FG NSC 13/13 Q1016 NOSIG=,VEPT,16-12-2025 23:30,000,00,,0800 m,,13,13,1016,,,FG,,,,,,
202512170000 METAR VEPT 170000Z 26004KT 0800 R25/1900 R07/1800 FG NSC 15/13 Q1016 NOSIG=,VEPT,17-12-2025 00:00,260,04,,0800 m,,15,13,1016,,,FG,,,,,,
202512170030 METAR VEPT 170030Z 26004KT 0800 R25/1800 R07/1600 FG NSC 15/13 Q1017 NOSIG=,VEPT,17-12-2025 00:30,260,04,,0800 m,,15,13,1017,,,FG,,,,,,
202512170100 METAR VEPT 170100Z 26003KT 0800 R25/1800 R07/1600 FG NSC 15/13 Q1017 NOSIG=,VEPT,17-12-2025 01:00,260,03,,0800 m,,15,13,1017,,,FG,,,,,,
202512170130 METAR VEPT 170130Z 27004KT 0700 R25/1700 R07/1300 FG NSC 14/12 Q1017 NOSIG=,VEPT,17-12-2025 01:30,270,04,,0700 m,,14,12,1017,,,FG,,,,,,
202512170200 METAR VEPT 170200Z 25004KT 0700 R25/1600 R07/1300 FG NSC 14/13 Q1018 NOSIG=,VEPT,17-12-2025 02:00,250,04,,0700 m,,14,13,1018,,,FG,,,,,,
202512170230 METAR VEPT 170230Z 25005KT 0700 R25/1600 R07/1300 FG NSC 15/13 Q1018 BECMG 0800 FG=,VEPT,17-12-2025 02:30,250,05,,0700 m,,15,13,1018,,,FG,,,FG,,,
202512170300 METAR VEPT 170300Z 24005KT 0800 R25/1500 R07/1400 FG NSC 16/13 Q1019 NOSIG=,VEPT,17-12-2025 03:00,240,05,,0800 m,,16,13,1019,,,FG,,,,,,
202512170330 METAR VEPT 170330Z 26005KT 0900 R25/1700 R07/1400 FG NSC 16/13 Q1019 NOSIG=,VEPT,17-12-2025 03:30,260,05,,0900 m,,16,13,1019,,,FG,,,,,,
202512170400 METAR VEPT 170400Z 25003KT 0900 R25/1600 R07/1400 FG NSC 17/14 Q1019 NOSIG=,VEPT,17-12-2025 04:00,250,03,,0900 m,,17,14,1019,,,FG,,,,,,
202512170430 METAR VEPT 170430Z 26003KT 1000 R25/1700 R07/1500 MIFG NSC 18/14 Q1019 NOSIG=,VEPT,17-12-2025 04:30,260,03,,1000 m,,18,14,1019,,MI,FG,,,,,,
202512170500 METAR VEPT 170500Z 28004KT 1100 R25/1900 R07/1500 MIFG NSC 19/14 Q1019 NOSIG=,VEPT,17-12-2025 05:00,280,04,,1100 m,,19,14,1019,,MI,FG,,,,,,
202512170530 METAR VEPT 170530Z 29003KT 1200 R25/1900 R07/1600 MIFG NSC 20/14 Q1019 NOSIG=,VEPT,17-12-2025 05:30,290,03,,1200 m,,20,14,1019,,MI,FG,,,,,,
202512170600 METAR VEPT 170600Z 23003KT 1300 R25/2000 R07/1600 HZ NSC 21/14 Q1018 NOSIG=,VEPT,17-12-2025 06:00,230,03,,1300 m,,21,14,1018,,,HZ,,,,,,
202512170630 METAR VEPT 170630Z 26005KT 1400 R25/2000 R07/1700 HZ NSC 21/14 Q1017 BECMG 1500 HZ=,VEPT,17-12-2025 06:30,260,05,,1400 m,,21,14,1017,,,HZ,,,HZ,,,
202512170700 METAR VEPT 170700Z 26005KT 1500 R25/2000 R07/1700 HZ NSC 22/14 Q1017 NOSIG=,VEPT,17-12-2025 07:00,260,05,,1500 m,,22,14,1017,,,HZ,,,,,,
202512170730 METAR VEPT 170730Z 31004KT 1500 R25/2000 R07/1800 HZ NSC 22/14 Q1016 NOSIG=,VEPT,17-12-2025 07:30,310,04,,1500 m,,22,14,1016,,,HZ,,,,,,
202512170800 METAR VEPT 170800Z 25004KT 1600 FU NSC 22/14 Q1016 NOSIG=,VEPT,17-12-2025 08:00,250,04,,1600 m,,22,14,1016,,,FU,,,,,,
202512170830 METAR VEPT 170830Z 25003KT 1600 FU NSC 22/14 Q1016 NOSIG=,VEPT,17-12-2025 08:30,250,03,,1600 m,,22,14,1016,,,FU,,,,,,
202512170900 METAR VEPT 170900Z 26004KT 1600 FU NSC 23/13 Q1016 NOSIG=,VEPT,17-12-2025 09:00,260,04,,1600 m,,23,13,1016,,,FU,,,,,,
202512170930 METAR VEPT 170930Z 29003KT 1800 FU NSC 22/13 Q1016 NOSIG=,VEPT,17-12-2025 09:30,290,03,,1800 m,,22,13,1016,,,FU,,,,,,
202512171000 METAR VEPT 171000Z 29003KT 1800 FU NSC 22/14 Q1016 NOSIG=,VEPT,17-12-2025 10:00,290,03,,1800 m,,22,14,1016,,,FU,,,,,,
202512171030 METAR VEPT 171030Z 31003KT 1800 FU NSC 22/14 Q1016 NOSIG=,VEPT,17-12-2025 10:30,310,03,,1800 m,,22,14,1016,,,FU,,,,,,
202512171100 METAR VEPT 171100Z 31003KT 1800 FU NSC 21/14 Q1016 NOSIG=,VEPT,17-12-2025 11:00,310,03,,1800 m,,21,14,1016,,,FU,,,,,,
202512171130 METAR VEPT 171130Z 00000KT 1600 BR NSC 19/15 Q1016 BECMG 1500 BR=,VEPT,17-12-2025 11:30,000,00,,1600 m,,19,15,1016,,,BR,,,BR,,,
202512171200 METAR VEPT 171200Z 00000KT 1600 BR NSC 18/16 Q1016 NOSIG=,VEPT,17-12-2025 12:00,000,00,,1600 m,,18,16,1016,,,BR,,,,,,
202512171230 METAR VEPT 171230Z 00000KT 1500 R25/2000 R07/2000 BR NSC 18/15 Q1017 NOSIG=,VEPT,17-12-2025 12:30,000,00,,1500 m,,18,15,1017,,,BR,,,,,,
202512171300 METAR VEPT 171300Z 00000KT 1500 R25/2000 R07/2000 BR NSC 17/15 Q1017 NOSIG=,VEPT,17-12-2025 13:00,000,00,,1500 m,,17,15,1017,,,BR,,,,,,
202512171330 METAR VEPT 171330Z 00000KT 1400 R25/2000 R07/1800 BR NSC 17/14 Q1017 NOSIG=,VEPT,17-12-2025 13:30,000,00,,1400 m,,17,14,1017,,,BR,,,,,,
202512171400 METAR VEPT 171400Z 00000KT 1200 R25/2000 R07/1800 MIFG NSC 18/16 Q1017 NOSIG=,VEPT,17-12-2025 14:00,000,00,,1200 m,,18,16,1017,,MI,FG,,,,,,
202512171430 METAR VEPT 171430Z 31004KT 1200 R25/2000 R07/1500 MIFG NSC 19/16 Q1018 NOSIG=,VEPT,17-12-2025 14:30,310,04,,1200 m,,19,16,1018,,MI,FG,,,,,,
202512171500 METAR VEPT 171500Z 00000KT 1000 R25/1600 R07/1500 MIFG NSC 18/15 Q1018 NOSIG=,VEPT,17-12-2025 15:00,000,00,,1000 m,,18,15,1018,,MI,FG,,,,,,
202512171530 METAR VEPT 171530Z 00000KT 1000 R25/1500 R07/1500 MIFG NSC 17/15 Q101 8 BECMG 0800 FG=,VEPT,17-12-2025 15:30,000,00,,1000 m,,17,15,,,MI,FG,,,FG,,,
202512171600 METAR VEPT 171600Z 00000KT 0700 R25/1500 R07/1400 FG VV/// 17/16 Q1018 NOSIG=,VEPT,17-12-2025 16:00,000,00,,0700 m,,17,16,1018,,,FG,,,,,,
202512171630 METAR VEPT 171630Z 00000KT 0700 R25/1000 R07/0900 FG VV/// 16/15 Q1018 NOSIG=,VEPT,17-12-2025 16:30,000,00,,0700 m,,16,15,1018,,,FG,,,,,,
202512171700 METAR VEPT 171700Z 00000KT 0500 R25/1000 R07/0600 FG VV/// 16/15 Q1018 BECMG 0300 FG=,VEPT,17-12-2025 17:00,000,00,,0500 m,,16,15,1018,,,FG,,,FG,,,
202512171730 METAR VEPT 171730Z 00000KT 0300 R25/1000 R07/0350 FG VV/// 15/15 Q1018 NOSIG=,VEPT,17-12-2025 17:30,000,00,,0300 m,,15,15,1018,,,FG,,,,,,
202512171800 METAR VEPT 171800Z 00000KT 0300 R25/0900 R07/0350 FG VV/// 15/14 Q1018 NOSIG=,VEPT,17-12-2025 18:00,000,00,,0300 m,,15,14,1018,,,FG,,,,,,
202512171830 METAR VEPT 171830Z 00000KT 0300 R25/0450 R07/0400 FG VV/// 14/14 Q1017 NOSIG=,VEPT,17-12-2025 18:30,000,00,,0300 m,,14,14,1017,,,FG,,,,,,
202512171900 METAR VEPT 171900Z 00000KT 0200 R25/0450 R07/0350 FG VV/// 14/14 Q1017 NOSIG=,VEPT,17-12-2025 19:00,000,00,,0200 m,,14,14,1017,,,FG,,,,,,
202512171930 METAR VEPT 171930Z 00000KT 0200 R25/0750 R07/0350 FG VV/// 14/14 Q1017 NOSIG=,VEPT,17-12-2025 19:30,000,00,,0200 m,,14,14,1017,,,FG,,,,,,
202512172000 METAR VEPT 172000Z 00000KT 0200 R25/0350 R07/0250 FG VV/// 13/13 Q101 7 BECMG 0150 FG=,VEPT,17-12-2025 20:00,000,00,,0200 m,,13,13,,,,FG,,,FG,,,
202512172030 METAR VEPT 172030Z 00000KT 0150 R25/0350 R07/0250 FG VV/// 14/14 Q1017 NOSIG=,VEPT,17-12-2025 20:30,000,00,,0150 m,,14,14,1017,,,FG,,,,,,
202512172100 METAR VEPT 172100Z 00000KT 0150 R25/0350 R07/0250 FG VV/// 14/14 Q1017 NOSIG=,VEPT,17-12-2025 21:00,000,00,,0150 m,,14,14,1017,,,FG,,,,,,
202512172130 METAR VEPT 172130Z 00000KT 0150 R25/0350 R07/0250 FG VV/// 14/14 Q1017 NOSIG=,VEPT,17-12-2025 21:30,000,00,,0150 m,,14,14,1017,,,FG,,,,,,
202512172200 METAR VEPT 172200Z 00000KT 0300 R25/0500 R07/0500 FG VV/// 14/14 Q1017 NOSIG=,VEPT,17-12-2025 22:00,000,00,,0300 m,,14,14,1017,,,FG,,,,,,
202512172230 METAR VEPT 172230Z 00000KT 0300 R25/0500 R07/0500 FG VV/// 14/14 Q1017 NOSIG=,VEPT,17-12-2025 22:30,000,00,,0300 m,,14,14,1017,,,FG,,,,,,
202512172300 METAR VEPT 172300Z 00000KT 0100 R25/0300 R07/0200 FG VV/// 14/14 Q1017 NOSIG=,VEPT,17-12-2025 23:00,000,00,,0100 m,,14,14,1017,,,FG,,,,,,
202512172330 METAR VEPT 172330Z 00000KT 0100 R25/0300 R07/0200 FG VV/// 14/14 Q1017 NOSIG=,VEPT,17-12-2025 23:30,000,00,,0100 m,,14,14,1017,,,FG,,,,,,
202512180000 METAR VEPT 180000Z 00000KT 0100 R25/0300 R07/0200 FG VV/// 14/14 Q1017 NOSIG=,VEPT,18-12-2025 00:00,000,00,,0100 m,,14,14,1017,,,FG,,,,,,
202512180030 METAR VEPT 180030Z 00000KT 0100 R25/0300 R07/0200 FG VV/// 14/14 Q1017 NOSIG=,VEPT,18-12-2025 00:30,000,00,,0100 m,,14,14,1017,,,FG,,,,,,
202512180100 METAR VEPT 180100Z 00000KT 0100 R25/0300 R07/0200 FG VV/// 14/14 Q1018 NOSIG=,VEPT,18-12-2025 01:00,000,00,,0100 m,,14,14,1018,,,FG,,,,,,
202512180130 METAR VEPT 180130Z 00000KT 0200 R25/0500 R07/0300 FG VV/// 14/14 Q1018 NOSIG=,VEPT,18-12-2025 01:30,000,00,,0200 m,,14,14,1018,,,FG,,,,,,
202512180200 METAR VEPT 180200Z 27003KT 0200 R25/0400 R07/0200 FG VV/// 14/14 Q1019 NOSIG=,VEPT,18-12-2025 02:00,270,03,,0200 m,,14,14,1019,,,FG,,,,,,
202512180230 METAR VEPT 180230Z 20003KT 0200 R25/0300 R07/0200 FG VV/// 14/14 Q1020 NOSIG=,VEPT,18-12-2025 02:30,200,03,,0200 m,,14,14,1020,,,FG,,,,,,
202512180300 METAR VEPT 180300Z 26003KT 0200 R25/0300 R07/0200 FG VV/// 14/14 Q1020 NOSIG=,VEPT,18-12-2025 03:00,260,03,,0200 m,,14,14,1020,,,FG,,,,,,
202512180330 METAR VEPT 180330Z 25005KT 0200 R25/0300 R07/0200 FG VV/// 14/14 Q1020 BECMG 0350 FG=,VEPT,18-12-2025 03:30,250,05,,0200 m,,14,14,1020,,,FG,,,FG,,,
202512180400 METAR VEPT 180400Z 25004KT 0200 R25/0400 R07/0200 FG VV/// 14/14 Q1021 NOSIG=,VEPT,18-12-2025 04:00,250,04,,0200 m,,14,14,1021,,,FG,,,,,,
202512180430 METAR VEPT 180430Z 24004KT 0350 R25/0600 R07/0400 FG VV/// 14/14 Q1020 BECMG 0600 FG=,VEPT,18-12-2025 04:30,240,04,,0350 m,,14,14,1020,,,FG,,,FG,,,
202512180500 METAR VEPT 180500Z 27004KT 0600 R25/0800 R07/0700 FG VV/// 14/14 Q102 0 BECMG 0800 FG=,VEPT,18-12-2025 05:00,270,04,,0600 m,,14,14,,,,FG,,,FG,,,
202512180530 METAR VEPT 180530Z 24004KT 0800 R25/1100 R07/0800 FG VV/// 15/14 Q102 0 NOSIG=,VEPT,18-12-2025 05:30,240,04,,0800 m,,15,14,,,,FG,,,,,,
202512180600 METAR VEPT 180600Z 24003KT 0800 R25/1100 R07/0900 FG VV/// 15/14 Q1019 NOSIG=,VEPT,18-12-2025 06:00,240,03,,0800 m,,15,14,1019,,,FG,,,,,,
202512180630 METAR VEPT 180630Z 26004KT 0800 R25/1100 R07/1000 FG NSC 16/15 Q1018 NOSIG=,VEPT,18-12-2025 06:30,260,04,,0800 m,,16,15,1018,,,FG,,,,,,
202512180700 METAR VEPT 180700Z 25004KT 0800 R25/1200 R07/1200 FG NSC 16/15 Q1018 NOSIG=,VEPT,18-12-2025 07:00,250,04,,0800 m,,16,15,1018,,,FG,,,,,,
202512180730 METAR VEPT 180730Z 25004KT 0800 R25/1200 R07/1200 FG FEW100 17/15 Q1017 NOSIG=,VEPT,18-12-2025 07:30,250,04,,0800 m,FEW100,17,15,1017,,,FG,,,,,,
202512180800 METAR VEPT 180800Z 29003KT 0900 R25/2000 R07/1300 FG NSC 17/15 Q1016 NOSIG=,VEPT,18-12-2025 08:00,290,03,,0900 m,,17,15,1016,,,FG,,,,,,
202512180830 METAR VEPT 180830Z 30004KT 0900 R25/1400 R07/1400 FG NSC 16/14 Q1016 BECMG 0800 FG=,VEPT,18-12-2025 08:30,300,04,,0900 m,,16,14,1016,,,FG,,,FG,,,
202512180900 METAR VEPT 180900Z 26006KT 0800 R25/1500 R07/1500 FG NSC 16/14 Q1016 NOSIG=,VEPT,18-12-2025 09:00,260,06,,0800 m,,16,14,1016,,,FG,,,,,,
202512180930 METAR VEPT 180930Z 28007KT 0800 R25/1500 R07/1500 FG VV/// 16/14 Q1016 NOSIG=,VEPT,18-12-2025 09:30,280,07,,0800 m,,16,14,1016,,,FG,,,,,,
202512181000 METAR VEPT 181000Z 25006KT 0800 R25/1500 R07/1500 FG VV/// 16/14 Q1016 NOSIG=,VEPT,18-12-2025 10:00,250,06,,0800 m,,16,14,1016,,,FG,,,,,,
202512181030 METAR VEPT 181030Z 27007KT 0700 R25/1500 R07/1500 FG VV/// 16/14 Q1015 NOSIG=,VEPT,18-12-2025 10:30,270,07,,0700 m,,16,14,1015,,,FG,,,,,,
202512181100 METAR VEPT 181100Z 23004KT 0700 R25/1500 R07/1500 FG VV/// 16/14 Q1015 NOSIG=,VEPT,18-12-2025 11:00,230,04,,0700 m,,16,14,1015,,,FG,,,,,,
202512181130 METAR VEPT 181130Z 25006KT 0700 R25/1500 R07/1500 FG VV/// 15/14 Q1016 BECMG 0800 FG=,VEPT,18-12-2025 11:30,250,06,,0700 m,,15,14,1016,,,FG,,,FG,,,
202512181200 METAR VEPT 181200Z 25006KT 1000 R25/1700 R07/1700 MIFG NSC 16/14 Q1016 NOSIG=,VEPT,18-12-2025 12:00,250,06,,1000 m,,16,14,1016,,MI,FG,,,,,,
202512181230 METAR VEPT 181230Z 28004KT 1000 R25/1500 R07/1500 MIFG NSC 16/14 Q1016 NOSIG=,VEPT,18-12-2025 12:30,280,04,,1000 m,,16,14,1016,,MI,FG,,,,,,
202512181300 METAR VEPT 181300Z 26007KT 1000 R25/1600 R07/1600 MIFG NSC 15/14 Q1016 NOSIG=,VEPT,18-12-2025 13:00,260,07,,1000 m,,15,14,1016,,MI,FG,,,,,,
202512181330 METAR VEPT 181330Z 27004KT 1000 R25/1500 R07/1500 MIFG NSC 15/14 Q1016 NOSIG=,VEPT,18-12-2025 13:30,270,04,,1000 m,,15,14,1016,,MI,FG,,,,,,
202512181400 METAR VEPT 181400Z 27004KT 0900 R25/1900 R07/1500 MIFG NSC 16/14 Q1017 BECMG 800 FG=,VEPT,18-12-2025 14:00,270,04,,0900 m,,16,14,1017,,MI,FG,,,FG,,,
202512181430 METAR VEPT 181430Z 27004KT 0900 R25/1700 R07/1400 MIFG NSC 15/14 Q1017 NOSIG=,VEPT,18-12-2025 14:30,270,04,,0900 m,,15,14,1017,,MI,FG,,,,,,
202512181500 METAR VEPT 181500Z 28004KT 0900 R25/1800 R07/1300 MIFG NSC 16/15 Q1017 NOSIG=,VEPT,18-12-2025 15:00,280,04,,0900 m,,16,15,1017,,MI,FG,,,,,,
202512181530 METAR VEPT 181530Z 27004KT 0800 R25/1600 R07/1300 FG NSC 15/14 Q1017 NOSIG=,VEPT,18-12-2025 15:30,270,04,,0800 m,,15,14,1017,,,FG,,,,,,
202512181600 METAR VEPT 181600Z 26005KT 0800 R25/1500 R07/1200 FG NSC 15/14 Q1017 NOSIG=,VEPT,18-12-2025 16:00,260,05,,0800 m,,15,14,1017,,,FG,,,,,,
202512181630 METAR VEPT 181630Z 27007KT 0800 R25/1700 R07/1400 FG VV/// 15/14 Q1017 NOSIG=,VEPT,18-12-2025 16:30,270,07,,0800 m,,15,14,1017,,,FG,,,,,,
202512181700 METAR VEPT 181700Z 31005KT 0700 R25/1700 R07/1300 FG VV/// 15/14 Q1017 NOSIG=,VEPT,18-12-2025 17:00,310,05,,0700 m,,15,14,1017,,,FG,,,,,,
202512181730 METAR VEPT 181730Z 27003KT 0700 R25/1500 R07/1300 FG VV/// 14/14 Q1017 NOSIG=,VEPT,18-12-2025 17:30,270,03,,0700 m,,14,14,1017,,,FG,,,,,,
202512181800 METAR VEPT 181800Z 30006KT 0700 R25/1500 R07/0900 FG VV/// 14/14 Q101 7 NOSIG=,VEPT,18-12-2025 18:00,300,06,,0700 m,,14,14,,,,FG,,,,,,
202512181830 METAR VEPT 181830Z 27009KT 0400 R25/0600 R07/0400 FG VV/// 14/13 Q101 6 TEMPO 0350 FG=,VEPT,18-12-2025 18:30,270,09,,0400 m,,14,13,,,,FG,,,PO,,,FG
202512181900 METAR VEPT 181900Z 27008KT 0300 R25/0750 R07/0550 FG VV/// 13/13 Q101 6 NOSIG=,VEPT,18-12-2025 19:00,270,08,,0300 m,,13,13,,,,FG,,,,,,
202512181930 METAR VEPT 181930Z 26005KT 0300 R25/0900 R07/0800 FG VV/// 13/13 Q1016 NOSIG=,VEPT,18-12-2025 19:30,260,05,,0300 m,,13,13,1016,,,FG,,,,,,
202512182000 METAR VEPT 182000Z 25005KT 0300 R25/0900 R07/0900 FG VV/// 13/13 Q101 6 NOSIG=,VEPT,18-12-2025 20:00,250,05,,0300 m,,13,13,,,,FG,,,,,,
202512182030 METAR VEPT 182030Z 26003KT 0300 R25/1500 R07/1300 FG VV/// 14/13 Q1016 NOSIG=,VEPT,18-12-2025 20:30,260,03,,0300 m,,14,13,1016,,,FG,,,,,,
202512182100 METAR VEPT 182100Z 27004KT 0300 R25/1300 R07/1300 FG VV/// 14/13 Q1016 NOSIG=,VEPT,18-12-2025 21:00,270,04,,0300 m,,14,13,1016,,,FG,,,,,,
202512182130 METAR VEPT 182130Z 26005KT 0300 R25/1700 R07/1300 FG VV/// 14/13 Q1016 NOSIG=,VEPT,18-12-2025 21:30,260,05,,0300 m,,14,13,1016,,,FG,,,,,,
202512182200 METAR VEPT 182200Z 27007KT 0300 R25/1800 R07/1500 FG VV/// 14/13 Q1016 NOSIG=,VEPT,18-12-2025 22:00,270,07,,0300 m,,14,13,1016,,,FG,,,,,,
202512182230 METAR VEPT 182230Z 26006KT 0300 R25/1900 R07/1600 FG VV/// 13/13 Q1016 NOSIG=,VEPT,18-12-2025 22:30,260,06,,0300 m,,13,13,1016,,,FG,,,,,,
202512182300 METAR VEPT 182300Z 26006KT 0300 R25/1900 R07/1600 FG VV/// 13/12 Q1016 NOSIG=,VEPT,18-12-2025 23:00,260,06,,0300 m,,13,12,1016,,,FG,,,,,,
202512182330 METAR VEPT 182330Z 25005KT 0300 R25/2000 R07/1800 FG VV/// 13/12 Q1016 NOSIG=,VEPT,18-12-2025 23:30,250,05,,0300 m,,13,12,1016,,,FG,,,,,,
202512190000 METAR VEPT 190000Z 27006KT 0300 R25/1700 R07/1700 FG VV/// 13/12 Q1016 BECMG 350 FG=,VEPT,19-12-2025 00:00,270,06,,0300 m,,13,12,1016,,,FG,,,FG,,,
202512190030 METAR VEPT 190030Z 26004KT 0400 R25/1700 R07/1800 FG VV/// 13/12 Q1016 NOSIG=,VEPT,19-12-2025 00:30,260,04,,0400 m,,13,12,1016,,,FG,,,,,,
202512190100 METAR VEPT 190100Z 23006KT 0500 R25/1700 R07/1900 FG VV/// 13/12 Q1017 BECMG 0600 FG=,VEPT,19-12-2025 01:00,230,06,,0500 m,,13,12,1017,,,FG,,,FG,,,
202512190130 METAR VEPT 190130Z 24008KT 0600 R25/1500 R07/1600 FG VV/// 13/12 Q1017 NOSIG=,VEPT,19-12-2025 01:30,240,08,,0600 m,,13,12,1017,,,FG,,,,,,
202512190200 METAR VEPT 190200Z 27006KT 0700 R25/1600 R07/1600 FG VV/// 13/12 Q1018 BECMG 0800 FG=,VEPT,19-12-2025 02:00,270,06,,0700 m,,13,12,1018,,,FG,,,FG,,,
202512190230 METAR VEPT 190230Z 28006KT 0700 R25/1500 R07/1500 FG VV/// 13/12 Q1018 NOSIG=,VEPT,19-12-2025 02:30,280,06,,0700 m,,13,12,1018,,,FG,,,,,,
202512190300 METAR VEPT 190300Z 28005KT 0800 R25/1600 R07/1600 FG VV/// 14/12 Q1019 NOSIG=,VEPT,19-12-2025 03:00,280,05,,0800 m,,14,12,1019,,,FG,,,,,,
202512190330 METAR VEPT 190330Z 28007KT 0800 R25/1500 R07/1500 FG VV/// 14/12 Q1019 NOSIG=,VEPT,19-12-2025 03:30,280,07,,0800 m,,14,12,1019,,,FG,,,,,,
202512190400 METAR VEPT 190400Z 23006KT 0800 R25/1400 R07/1400 FG VV/// 14/12 Q1019 NOSIG=,VEPT,19-12-2025 04:00,230,06,,0800 m,,14,12,1019,,,FG,,,,,,
202512190430 METAR VEPT 190430Z 26006KT 0800 R25/1400 R07/1400 FG VV/// 14/12 Q1019 NOSIG=,VEPT,19-12-2025 04:30,260,06,,0800 m,,14,12,1019,,,FG,,,,,,
202512190500 METAR VEPT 190500Z 24007KT 0800 R25/1500 R07/1500 FG VV/// 14/12 Q1018 NOSIG=,VEPT,19-12-2025 05:00,240,07,,0800 m,,14,12,1018,,,FG,,,,,,
202512190530 METAR VEPT 190530Z 28006KT 0800 R25/1600 R07/1600 FG VV/// 14/12 Q1018 NOSIG=,VEPT,19-12-2025 05:30,280,06,,0800 m,,14,12,1018,,,FG,,,,,,
202512190600 METAR VEPT 190600Z 25006KT 0900 R25/1600 R07/1600 FG VV/// 14/12 Q1018 NOSIG=,VEPT,19-12-2025 06:00,250,06,,0900 m,,14,12,1018,,,FG,,,,,,
202512190630 METAR VEPT 190630Z 26006KT 1000 R25/1600 R07/1600 MIFG VV/// 14/12 Q1017 NOSIG=,VEPT,19-12-2025 06:30,260,06,,1000 m,,14,12,1017,,MI,FG,,,,,,
202512190700 METAR VEPT 190700Z 28006KT 1000 R25/1600 R07/1600 MIFG VV/// 14/12 Q1017 NOSIG=,VEPT,19-12-2025 07:00,280,06,,1000 m,,14,12,1017,,MI,FG,,,,,,
202512190730 METAR VEPT 190730Z 23007KT 1000 R25/1600 R07/1600 MIFG VV/// 14/12 Q1016 NOSIG=,VEPT,19-12-2025 07:30,230,07,,1000 m,,14,12,1016,,MI,FG,,,,,,
202512190800 METAR VEPT 190800Z 26007KT 1000 R25/1800 R07/1800 MIFG VV/// 16/12 Q1015 NOSIG=,VEPT,19-12-2025 08:00,260,07,,1000 m,,16,12,1015,,MI,FG,,,,,,
202512190830 METAR VEPT 190830Z 28007KT 1000 R25/1700 R07/1900 MIFG VV/// 15/12 Q1015 NOSIG=,VEPT,19-12-2025 08:30,280,07,,1000 m,,15,12,1015,,MI,FG,,,,,,
202512190900 METAR VEPT 190900Z 25008KT 1000 R25/1700 R07/1900 MIFG VV/// 15/12 Q1015 NOSIG=,VEPT,19-12-2025 09:00,250,08,,1000 m,,15,12,1015,,MI,FG,,,,,,
202512190930 METAR VEPT 190930Z 27007KT 1200 R25/1800 R07/2000 MIFG VV/// 15/12 Q1015 NOSIG=,VEPT,19-12-2025 09:30,270,07,,1200 m,,15,12,1015,,MI,FG,,,,,,
202512191000 METAR VEPT 191000Z 28007KT 1200 R25/1900 R07/2000 MIFG VV/// 15/12 Q1015 NOSIG=,VEPT,19-12-2025 10:00,280,07,,1200 m,,15,12,1015,,MI,FG,,,,,,
202512191030 METAR VEPT 191030Z 28006KT 1200 R25/2000 R07/2000 MIFG VV/// 15/12 Q1015 NOSIG=,VEPT,19-12-2025 10:30,280,06,,1200 m,,15,12,1015,,MI,FG,,,,,,
202512191100 METAR VEPT 191100Z 31003KT 1200 R25/2000 R07/2000 MIFG VV/// 15/12 Q1014 NOSIG=,VEPT,19-12-2025 11:00,310,03,,1200 m,,15,12,1014,,MI,FG,,,,,,
202512191130 METAR VEPT 191130Z 31003KT 1400 R25/2000 R07/2000 BR VV/// 15/12 Q1014 NOSIG=,VEPT,19-12-2025 11:30,310,03,,1400 m,,15,12,1014,,,BR,,,,,,
202512191200 METAR VEPT 191200Z 30003KT 1400 R25/2000 R07/2000 BR VV/// 15/12 Q1015 NOSIG=,VEPT,19-12-2025 12:00,300,03,,1400 m,,15,12,1015,,,BR,,,,,,
202512191230 METAR VEPT 191230Z 31003KT 1400 R25/2000 R07/2000 BR VV/// 14/12 Q1015 NOSIG=,VEPT,19-12-2025 12:30,310,03,,1400 m,,14,12,1015,,,BR,,,,,,
202512191300 METAR VEPT 191300Z 30002KT 1400 R25/2000 R07/2000 BR NSC 14/12 Q1015 NOSIG=,VEPT,19-12-2025 13:00,300,02,,1400 m,,14,12,1015,,,BR,,,,,,
202512191330 METAR VEPT 191330Z 25002KT 1400 R25/2000 R07/2000 BR NSC 13/12 Q1015 NOSIG=,VEPT,19-12-2025 13:30,250,02,,1400 m,,13,12,1015,,,BR,,,,,,
202512191400 METAR VEPT 191400Z 26002KT 1400 R25/1900 R07/2000 BR NSC 13/12 Q1015 NOSIG=,VEPT,19-12-2025 14:00,260,02,,1400 m,,13,12,1015,,,BR,,,,,,
202512191430 METAR VEPT 191430Z 00000KT 1400 R25/2000 R07/2000 BR NSC 14/12 Q1016 NOSIG=,VEPT,19-12-2025 14:30,000,00,,1400 m,,14,12,1016,,,BR,,,,,,
202512191500 METAR VEPT 191500Z 00000KT 1400 R25/1800 R07/2000 BR NSC 14/12 Q1016 NOSIG=,VEPT,19-12-2025 15:00,000,00,,1400 m,,14,12,1016,,,BR,,,,,,
202512191530 METAR VEPT 191530Z 26003KT 1400 R25/1800 R07/2000 BR NSC 14/12 Q1016 NOSIG=,VEPT,19-12-2025 15:30,260,03,,1400 m,,14,12,1016,,,BR,,,,,,
202512191600 METAR VEPT 191600Z 25003KT 1400 R25/1900 R07/2000 BR NSC 14/12 Q1016 NOSIG=,VEPT,19-12-2025 16:00,250,03,,1400 m,,14,12,1016,,,BR,,,,,,
202512191630 METAR VEPT 191630Z 28002KT 1400 R25/2000 R07/2000 BR NSC 15/12 Q1016 NOSIG=,VEPT,19-12-2025 16:30,280,02,,1400 m,,15,12,1016,,,BR,,,,,,
202512191700 METAR VEPT 191700Z 20003KT 1400 R25/1800 R07/2000 BR NSC 15/13 Q1016 NOSIG=,VEPT,19-12-2025 17:00,200,03,,1400 m,,15,13,1016,,,BR,,,,,,
202512191730 METAR VEPT 191730Z 22003KT 1400 R25/2000 R07/2000 BR NSC 15/13 Q1016 NOSIG=,VEPT,19-12-2025 17:30,220,03,,1400 m,,15,13,1016,,,BR,,,,,,
202512191800 METAR VEPT 191800Z 18002KT 1400 R25/1900 R07/2000 BR NSC 14/13 Q1016 NOSIG=,VEPT,19-12-2025 18:00,180,02,,1400 m,,14,13,1016,,,BR,,,,,,
202512191830 METAR VEPT 191830Z 19002KT 1400 R25/2000 R07/2000 BR NSC 14/13 Q1016 NOSIG=,VEPT,19-12-2025 18:30,190,02,,1400 m,,14,13,1016,,,BR,,,,,,
202512191900 METAR VEPT 191900Z 20002KT 1400 R25/2000 R07/2000 BR NSC 14/12 Q1015 NOSIG=,VEPT,19-12-2025 19:00,200,02,,1400 m,,14,12,1015,,,BR,,,,,,
202512191930 METAR VEPT 191930Z 19002KT 1400 R25/2000 R07/2000 BR NSC 14/12 Q1015 NOSIG=,VEPT,19-12-2025 19:30,190,02,,1400 m,,14,12,1015,,,BR,,,,,,
202512192000 METAR VEPT 192000Z 22002KT 1400 R25/2000 R07/2000 BR NSC 14/13 Q1015 NOSIG=,VEPT,19-12-2025 20:00,220,02,,1400 m,,14,13,1015,,,BR,,,,,,
202512192030 METAR VEPT 192030Z 00000KT 1400 R25/2000 R07/2000 BR NSC 14/13 Q1015 NOSIG=,VEPT,19-12-2025 20:30,000,00,,1400 m,,14,13,1015,,,BR,,,,,,
202512192100 METAR VEPT 192100Z 00000KT 1400 R25/1900 R07/2000 BR NSC 14/13 Q1015 NOSIG=,VEPT,19-12-2025 21:00,000,00,,1400 m,,14,13,1015,,,BR,,,,,,
202512192130 METAR VEPT 192130Z 25003KT 1400 R25/2000 R07/2000 BR NSC 14/13 Q1015 NOSIG=,VEPT,19-12-2025 21:30,250,03,,1400 m,,14,13,1015,,,BR,,,,,,
202512192200 METAR COR VEPT 192200Z 26004KT 1400 R25/2000 R07/2000 BR NSC 14/12 Q1014 NOSIG=,VEPT,19-12-2025 22:00,260,04,,1400 m,,14,12,1014,,,BR,,,,,,
202512192230 METAR COR VEPT 192230Z 25003KT 1400 R25/2000 R07/2000 BR NSC 14/12 Q1014 NOSIG=,VEPT,19-12-2025 22:30,250,03,,1400 m,,14,12,1014,,,BR,,,,,,
202512192231 METAR VEPT 192231Z 26004KT 1400 R25/2000 R07/2000 BR NSC 14/12 Q1014 NOSIG=,VEPT,19-12-2025 22:31,260,04,,1400 m,,14,12,1014,,,BR,,,,,,
202512192300 METAR VEPT 192300Z 27004KT 1200 R25/2000 R07/1900 MIFG NSC 15/12 Q1015 NOSIG=,VEPT,19-12-2025 23:00,270,04,,1200 m,,15,12,1015,,MI,FG,,,,,,
202512192330 METAR VEPT 192330Z 28003KT 1200 R25/2000 R07/2000 MIFG NSC 15/12 Q1015 NOSIG=,VEPT,19-12-2025 23:30,280,03,,1200 m,,15,12,1015,,MI,FG,,,,,,
202512200000 METAR VEPT 200000Z 00000KT 1200 R25/2000 R07/1900 MIFG NSC 14/12 Q101 5 NOSIG=,VEPT,20-12-2025 00:00,000,00,,1200 m,,14,12,,,MI,FG,,,,,,
202512200030 METAR VEPT 200030Z 29003KT 1200 R25/2000 R07/1900 MIFG NSC 14/12 Q1015 NOSIG=,VEPT,20-12-2025 00:30,290,03,,1200 m,,14,12,1015,,MI,FG,,,,,,
202512200100 METAR VEPT 200100Z 00000KT 1200 R25/1900 R07/1800 MIFG NSC 15/12 Q1016 NOSIG=,VEPT,20-12-2025 01:00,000,00,,1200 m,,15,12,1016,,MI,FG,,,,,,
202512200130 METAR VEPT 200130Z 32003KT 1200 R25/1800 R07/1700 MIFG NSC 15/12 Q1016 NOSIG=,VEPT,20-12-2025 01:30,320,03,,1200 m,,15,12,1016,,MI,FG,,,,,,
202512200200 METAR VEPT 200200Z 04002KT 1200 R25/1900 R07/1900 MIFG NSC 15/12 Q1017 NOSIG=,VEPT,20-12-2025 02:00,040,02,,1200 m,,15,12,1017,,MI,FG,,,,,,
202512200230 METAR VEPT 200230Z 32003KT 1000 R25/1700 R07/1900 MIFG VV/// 15/12 Q1017 NOSIG=,VEPT,20-12-2025 02:30,320,03,,1000 m,,15,12,1017,,MI,FG,,,,,,
202512200300 METAR VEPT 200300Z 00000KT 1000 R25/1700 R07/1900 MIFG VV/// 15/12 Q1018 NOSIG=,VEPT,20-12-2025 03:00,000,00,,1000 m,,15,12,1018,,MI,FG,,,,,,
202512200330 METAR VEPT 200330Z 00000KT 1000 R25/1700 R07/1800 MIFG VV/// 15/12 Q1018 NOSIG=,VEPT,20-12-2025 03:30,000,00,,1000 m,,15,12,1018,,MI,FG,,,,,,
202512200400 METAR VEPT 200400Z 00000KT 1000 R25/1700 R07/1800 MIFG VV/// 15/12 Q1018 NOSIG=,VEPT,20-12-2025 04:00,000,00,,1000 m,,15,12,1018,,MI,FG,,,,,,
202512200430 METAR VEPT 200430Z 00000KT 1000 R25/1700 R07/1800 MIFG VV/// 15/12 Q1018 NOSIG=,VEPT,20-12-2025 04:30,000,00,,1000 m,,15,12,1018,,MI,FG,,,,,,
202512200500 METAR VEPT 200500Z 00000KT 1000 R25/1600 R07/1800 MIFG VV/// 15/12 Q1018 NOSIG=,VEPT,20-12-2025 05:00,000,00,,1000 m,,15,12,1018,,MI,FG,,,,,,
202512200530 METAR VEPT 200530Z 00000KT 1000 R25/1600 R07/1800 MIFG VV/// 16/12 Q1018 NOSIG=,VEPT,20-12-2025 05:30,000,00,,1000 m,,16,12,1018,,MI,FG,,,,,,
202512200600 METAR VEPT 200600Z 00000KT 1000 R25/1700 R07/1800 MIFG VV/// 16/12 Q1017 NOSIG=,VEPT,20-12-2025 06:00,000,00,,1000 m,,16,12,1017,,MI,FG,,,,,,
202512200630 METAR VEPT 200630Z 00000KT 1000 R25/1600 R07/1800 MIFG VV/// 16/12 Q1017 NOSIG=,VEPT,20-12-2025 06:30,000,00,,1000 m,,16,12,1017,,MI,FG,,,,,,
202512200700 METAR VEPT 200700Z 00000KT 1000 R25/1700 R07/1900 MIFG VV/// 16/12 Q1016 NOSIG=,VEPT,20-12-2025 07:00,000,00,,1000 m,,16,12,1016,,MI,FG,,,,,,
202512200730 METAR VEPT 200730Z 26004KT 1000 R25/1700 R07/1900 MIFG VV/// 16/11 Q1016 NOSIG=,VEPT,20-12-2025 07:30,260,04,,1000 m,,16,11,1016,,MI,FG,,,,,,
202512200800 METAR VEPT 200800Z 26006KT 1100 R25/1700 R07/1900 MIFG VV/// 16/12 Q1015 NOSIG=,VEPT,20-12-2025 08:00,260,06,,1100 m,,16,12,1015,,MI,FG,,,,,,
202512200830 METAR VEPT 200830Z 30007KT 1200 R25/1800 R07/2000 MIFG VV/// 16/12 Q1015 NOSIG=,VEPT,20-12-2025 08:30,300,07,,1200 m,,16,12,1015,,MI,FG,,,,,,
202512200900 METAR VEPT 200900Z 31004KT 1300 R25/1800 R07/2000 MIFG VV/// 16/12 Q1015 NOSIG=,VEPT,20-12-2025 09:00,310,04,,1300 m,,16,12,1015,,MI,FG,,,,,,
202512200930 METAR VEPT 200930Z 31004KT 1400 R25/1900 R07/2000 BR VV/// 16/12 Q1014 BECMG 1500 BR=,VEPT,20-12-2025 09:30,310,04,,1400 m,,16,12,1014,,,BR,,,BR,,,
202512201000 METAR VEPT 201000Z 30005KT 1500 R25/2000 R07/2000 BR VV/// 16/13 Q1015 NOSIG=,VEPT,20-12-2025 10:00,300,05,,1500 m,,16,13,1015,,,BR,,,,,,
202512201030 METAR VEPT 201030Z 28004KT 1500 R25/2000 R07/2000 BR VV/// 16/12 Q1015 NOSIG=,VEPT,20-12-2025 10:30,280,04,,1500 m,,16,12,1015,,,BR,,,,,,
202512201100 METAR VEPT 201100Z 32003KT 1700 BR VV/// 15/12 Q1015 NOSIG=,VEPT,20-12-2025 11:00,320,03,,1700 m,,15,12,1015,,,BR,,,,,,
202512201130 METAR VEPT 201130Z 29003KT 1800 BR VV/// 15/13 Q1015 NOSIG=,VEPT,20-12-2025 11:30,290,03,,1800 m,,15,13,1015,,,BR,,,,,,
202512201200 METAR VEPT 201200Z 29004KT 2000 BR VV/// 15/13 Q1015 NOSIG=,VEPT,20-12-2025 12:00,290,04,,2000 m,,15,13,1015,,,BR,,,,,,
202512201230 METAR VEPT 201230Z 31003KT 2000 BR NSC 16/12 Q1015 NOSIG=,VEPT,20-12-2025 12:30,310,03,,2000 m,,16,12,1015,,,BR,,,,,,
202512201300 METAR VEPT 201300Z 30003KT 2000 BR NSC 16/12 Q1016 NOSIG=,VEPT,20-12-2025 13:00,300,03,,2000 m,,16,12,1016,,,BR,,,,,,
202512201330 METAR VEPT 201330Z 30004KT 2000 BR NSC 16/12 Q1016 NOSIG=,VEPT,20-12-2025 13:30,300,04,,2000 m,,16,12,1016,,,BR,,,,,,
202512201400 METAR VEPT 201400Z 29004KT 2500 BR NSC 15/12 Q1016 NOSIG=,VEPT,20-12-2025 14:00,290,04,,2500 m,,15,12,1016,,,BR,,,,,,
202512201430 METAR VEPT 201430Z 27004KT 2500 BR NSC 15/12 Q1016 NOSIG=,VEPT,20-12-2025 14:30,270,04,,2500 m,,15,12,1016,,,BR,,,,,,
202512201500 METAR VEPT 201500Z 27004KT 2500 BR NSC 15/12 Q1017 NOSIG=,VEPT,20-12-2025 15:00,270,04,,2500 m,,15,12,1017,,,BR,,,,,,
202512201530 METAR VEPT 201530Z 28005KT 2500 BR NSC 15/11 Q1017 NOSIG=,VEPT,20-12-2025 15:30,280,05,,2500 m,,15,11,1017,,,BR,,,,,,
202512201600 METAR VEPT 201600Z 30003KT 2200 BR NSC 15/11 Q1017 NOSIG=,VEPT,20-12-2025 16:00,300,03,,2200 m,,15,11,1017,,,BR,,,,,,
202512201630 METAR VEPT 201630Z 33004KT 2200 BR NSC 15/11 Q1017 NOSIG=,VEPT,20-12-2025 16:30,330,04,,2200 m,,15,11,1017,,,BR,,,,,,
202512201700 METAR VEPT 201700Z 32004KT 2200 BR NSC 15/11 Q1016 NOSIG=,VEPT,20-12-2025 17:00,320,04,,2200 m,,15,11,1016,,,BR,,,,,,
202512201730 METAR VEPT 201730Z 33003KT 2000 BR NSC 14/11 Q1016 NOSIG=,VEPT,20-12-2025 17:30,330,03,,2000 m,,14,11,1016,,,BR,,,,,,
202512201800 METAR VEPT 201800Z 31003KT 2000 BR NSC 14/11 Q1016 NOSIG=,VEPT,20-12-2025 18:00,310,03,,2000 m,,14,11,1016,,,BR,,,,,,
202512201830 METAR VEPT 201830Z 31003KT 2000 BR NSC 14/11 Q1016 NOSIG=,VEPT,20-12-2025 18:30,310,03,,2000 m,,14,11,1016,,,BR,,,,,,
202512201900 METAR VEPT 201900Z 31003KT 1800 BR NSC 14/11 Q1016 NOSIG=,VEPT,20-12-2025 19:00,310,03,,1800 m,,14,11,1016,,,BR,,,,,,
202512201930 METAR VEPT 201930Z 31003KT 1800 BR NSC 14/11 Q1016 NOSIG=,VEPT,20-12-2025 19:30,310,03,,1800 m,,14,11,1016,,,BR,,,,,,
202512202000 METAR VEPT 202000Z 00000KT 1600 BR NSC 13/11 Q1016 BECMG 1500 BR=,VEPT,20-12-2025 20:00,000,00,,1600 m,,13,11,1016,,,BR,,,BR,,,
202512202030 METAR VEPT 202030Z 00000KT 1400 R25/2000 R07/2000 BR NSC 12/11 Q1016 NOSIG=,VEPT,20-12-2025 20:30,000,00,,1400 m,,12,11,1016,,,BR,,,,,,
202512202100 METAR VEPT 202100Z 00000KT 1400 R25/2000 R07/1900 BR NSC 11/11 Q1016 NOSIG=,VEPT,20-12-2025 21:00,000,00,,1400 m,,11,11,1016,,,BR,,,,,,
202512202130 METAR VEPT 202130Z 00000KT 1400 R25/2000 R07/2000 BR NSC 11/11 Q1016 NOSIG=,VEPT,20-12-2025 21:30,000,00,,1400 m,,11,11,1016,,,BR,,,,,,
202512202200 METAR VEPT 202200Z 00000KT 1400 R25/2000 R07/2000 BR NSC 12/11 Q1016 NOSIG=,VEPT,20-12-2025 22:00,000,00,,1400 m,,12,11,1016,,,BR,,,,,,
202512202230 METAR VEPT 202230Z 00000KT 1400 R25/2000 R07/2000 BR NSC 13/12 Q1016 NOSIG=,VEPT,20-12-2025 22:30,000,00,,1400 m,,13,12,1016,,,BR,,,,,,
202512202300 METAR VEPT 202300Z 00000KT 1200 R25/2000 R07/2000 BR NSC 13/12 Q1016 NOSIG=,VEPT,20-12-2025 23:00,000,00,,1200 m,,13,12,1016,,,BR,,,,,,
202512202330 METAR VEPT 202330Z 00000KT 1200 R25/2000 R07/2000 BR NSC 13/12 Q1016 NOSIG=,VEPT,20-12-2025 23:30,000,00,,1200 m,,13,12,1016,,,BR,,,,,,
202512210000 METAR VEPT 210000Z 00000KT 1200 R25/2000 R07/2000 BR NSC 14/12 Q1016 NOSIG=,VEPT,21-12-2025 00:00,000,00,,1200 m,,14,12,1016,,,BR,,,,,,
202512210030 METAR VEPT 210030Z 00000KT 1200 R25/2000 R07/2000 BR NSC 14/12 Q1017 NOSIG=,VEPT,21-12-2025 00:30,000,00,,1200 m,,14,12,1017,,,BR,,,,,,
202512210100 METAR VEPT 210100Z 00000KT 1200 R25/2000 R07/2000 BR NSC 14/12 Q1017 NOSIG=,VEPT,21-12-2025 01:00,000,00,,1200 m,,14,12,1017,,,BR,,,,,,
202512210130 METAR VEPT 210130Z 00000KT 1200 R25/2000 R07/2000 BR NSC 14/13 Q1017 NOSIG=,VEPT,21-12-2025 01:30,000,00,,1200 m,,14,13,1017,,,BR,,,,,,
202512210200 METAR VEPT 210200Z 00000KT 1300 R25/2000 R07/2000 BR NSC 14/12 Q1018 NOSIG=,VEPT,21-12-2025 02:00,000,00,,1300 m,,14,12,1018,,,BR,,,,,,
202512210230 METAR VEPT 210230Z 00000KT 1300 R25/2000 R07/2000 BR NSC 14/12 Q1018 NOSIG=,VEPT,21-12-2025 02:30,000,00,,1300 m,,14,12,1018,,,BR,,,,,,
202512210300 METAR VEPT 210300Z 00000KT 1300 R25/2000 R07/2000 BR VV/// 15/12 Q1019 NOSIG=,VEPT,21-12-2025 03:00,000,00,,1300 m,,15,12,1019,,,BR,,,,,,
202512210330 METAR VEPT 210330Z 30003KT 1400 R25/2000 R07/2000 BR VV/// 15/12 Q1019 NOSIG=,VEPT,21-12-2025 03:30,300,03,,1400 m,,15,12,1019,,,BR,,,,,,
202512210400 METAR VEPT 210400Z 27004KT 1400 R25/2000 R07/2000 BR VV/// 15/12 Q1020 BECMG 1500 BR=,VEPT,21-12-2025 04:00,270,04,,1400 m,,15,12,1020,,,BR,,,BR,,,
202512210430 METAR VEPT 210430Z 29003KT 1500 R25/2000 R07/2000 BR VV/// 15/12 Q1020 NOSIG=,VEPT,21-12-2025 04:30,290,03,,1500 m,,15,12,1020,,,BR,,,,,,
202512210500 METAR VEPT 210500Z 31003KT 1500 R25/2000 R07/2000 BR VV/// 15/11 Q1019 NOSIG=,VEPT,21-12-2025 05:00,310,03,,1500 m,,15,11,1019,,,BR,,,,,,
202512210530 METAR VEPT 210530Z 28003KT 1500 R25/2000 R07/2000 BR VV/// 15/11 Q1019 NOSIG=,VEPT,21-12-2025 05:30,280,03,,1500 m,,15,11,1019,,,BR,,,,,,
202512210600 METAR VEPT 210600Z 27004KT 1500 R25/2000 R07/2000 BR VV/// 15/12 Q1019 NOSIG=,VEPT,21-12-2025 06:00,270,04,,1500 m,,15,12,1019,,,BR,,,,,,
202512210630 METAR VEPT 210630Z 28003KT 1600 BR VV/// 16/12 Q1018 NOSIG=,VEPT,21-12-2025 06:30,280,03,,1600 m,,16,12,1018,,,BR,,,,,,
202512210700 METAR VEPT 210700Z 28003KT 1700 BR VV/// 16/12 Q1018 NOSIG=,VEPT,21-12-2025 07:00,280,03,,1700 m,,16,12,1018,,,BR,,,,,,
202512210730 METAR VEPT 210730Z 00000KT 1700 HZ VV/// 16/12 Q1017 NOSIG=,VEPT,21-12-2025 07:30,000,00,,1700 m,,16,12,1017,,,HZ,,,,,,
202512210800 METAR VEPT 210800Z 27004KT 1700 HZ VV/// 16/12 Q1017 NOSIG=,VEPT,21-12-2025 08:00,270,04,,1700 m,,16,12,1017,,,HZ,,,,,,
202512210830 METAR VEPT 210830Z 29003KT 1700 BR VV/// 16/12 Q1017 NOSIG=,VEPT,21-12-2025 08:30,290,03,,1700 m,,16,12,1017,,,BR,,,,,,
202512210900 METAR VEPT 210900Z 31004KT 1700 BR VV/// 16/12 Q1017 NOSIG=,VEPT,21-12-2025 09:00,310,04,,1700 m,,16,12,1017,,,BR,,,,,,
202512210930 METAR VEPT 210930Z 24004KT 1800 BR NSC 16/12 Q1017 NOSIG=,VEPT,21-12-2025 09:30,240,04,,1800 m,,16,12,1017,,,BR,,,,,,
202512211000 METAR VEPT 211000Z 31004KT 1800 BR NSC 16/12 Q1017 NOSIG=,VEPT,21-12-2025 10:00,310,04,,1800 m,,16,12,1017,,,BR,,,,,,
202512211030 METAR VEPT 211030Z 28004KT 2000 BR SCT020 16/12 Q1016 NOSIG=,VEPT,21-12-2025 10:30,280,04,,2000 m,SCT020,16,12,1016,,,BR,,,,,,
202512211100 METAR VEPT 211100Z 27004KT 2000 BR SCT020 SCT100 16/12 Q1017 NOSIG=,VEPT,21-12-2025 11:00,270,04,,2000 m,"SCT020, SCT100",16,12,1017,,,BR,,,,,,
202512211130 METAR VEPT 211130Z 29004KT 2000 BR SCT020 SCT100 16/12 Q1017 NOSIG=,VEPT,21-12-2025 11:30,290,04,,2000 m,"SCT020, SCT100",16,12,1017,,,BR,,,,,,
202512211200 METAR VEPT 211200Z 28004KT 2500 BR SCT020 SCT100 16/12 Q1017 NOSIG=,VEPT,21-12-2025 12:00,280,04,,2500 m,"SCT020, SCT100",16,12,1017,,,BR,,,,,,
202512211230 METAR VEPT 211230Z 29003KT 2500 BR SCT020 SCT100 16/11 Q1017 NOSIG=,VEPT,21-12-2025 12:30,290,03,,2500 m,"SCT020, SCT100",16,11,1017,,,BR,,,,,,
202512211300 METAR VEPT 211300Z 30003KT 2500 BR SCT020 SCT100 15/12 Q1017 NOSIG=,VEPT,21-12-2025 13:00,300,03,,2500 m,"SCT020, SCT100",15,12,1017,,,BR,,,,,,
202512211330 METAR VEPT 211330Z 33003KT 2500 BR SCT020 SCT100 15/12 Q1017 NOSIG=,VEPT,21-12-2025 13:30,330,03,,2500 m,"SCT020, SCT100",15,12,1017,,,BR,,,,,,
202512211400 METAR VEPT 211400Z 27004KT 2000 BR FEW020 SCT100 15/11 Q1018 NOSIG=,VEPT,21-12-2025 14:00,270,04,,2000 m,"FEW020, SCT100",15,11,1018,,,BR,,,,,,
202512211430 METAR VEPT 211430Z 28003KT 2000 BR FEW020 SCT100 15/12 Q1018 NOSIG=,VEPT,21-12-2025 14:30,280,03,,2000 m,"FEW020, SCT100",15,12,1018,,,BR,,,,,,
202512211500 METAR VEPT 211500Z 34002KT 2000 BR FEW100 15/12 Q1018 NOSIG=,VEPT,21-12-2025 15:00,340,02,,2000 m,FEW100,15,12,1018,,,BR,,,,,,
202512211530 METAR VEPT 211530Z 29002KT 2000 BR FEW100 15/11 Q1018 NOSIG=,VEPT,21-12-2025 15:30,290,02,,2000 m,FEW100,15,11,1018,,,BR,,,,,,
202512211600 METAR VEPT 211600Z 29003KT 2000 BR NSC 15/12 Q1018 NOSIG=,VEPT,21-12-2025 16:00,290,03,,2000 m,,15,12,1018,,,BR,,,,,,
202512211630 METAR VEPT 211630Z 03004KT 2000 BR NSC 15/12 Q1018 NOSIG=,VEPT,21-12-2025 16:30,030,04,,2000 m,,15,12,1018,,,BR,,,,,,
202512211700 METAR VEPT 211700Z 33003KT 2000 BR NSC 15/12 Q1018 NOSIG=,VEPT,21-12-2025 17:00,330,03,,2000 m,,15,12,1018,,,BR,,,,,,
202512211730 METAR VEPT 211730Z 32003KT 2000 BR NSC 14/12 Q1018 NOSIG=,VEPT,21-12-2025 17:30,320,03,,2000 m,,14,12,1018,,,BR,,,,,,
202512211800 METAR VEPT 211800Z 35003KT 2000 BR NSC 14/12 Q1018 NOSIG=,VEPT,21-12-2025 18:00,350,03,,2000 m,,14,12,1018,,,BR,,,,,,
202512211830 METAR VEPT 211830Z 36003KT 2000 BR NSC 14/11 Q1018 NOSIG=,VEPT,21-12-2025 18:30,360,03,,2000 m,,14,11,1018,,,BR,,,,,,
202512211900 METAR VEPT 211900Z 35003KT 2000 BR NSC 14/11 Q1018 NOSIG=,VEPT,21-12-2025 19:00,350,03,,2000 m,,14,11,1018,,,BR,,,,,,
202512211930 METAR VEPT 211930Z 33003KT 1800 BR NSC 14/11 Q1018 NOSIG=,VEPT,21-12-2025 19:30,330,03,,1800 m,,14,11,1018,,,BR,,,,,,
202512212000 METAR VEPT 212000Z 01003KT 1600 BR NSC 13/11 Q1018 NOSIG=,VEPT,21-12-2025 20:00,010,03,,1600 m,,13,11,1018,,,BR,,,,,,
202512212030 METAR VEPT 212030Z 05003KT 1600 BR NSC 13/11 Q1018 NOSIG=,VEPT,21-12-2025 20:30,050,03,,1600 m,,13,11,1018,,,BR,,,,,,
202512212100 METAR VEPT 212100Z 05003KT 1600 BR NSC 12/11 Q1017 NOSIG=,VEPT,21-12-2025 21:00,050,03,,1600 m,,12,11,1017,,,BR,,,,,,
202512212130 METAR VEPT 212130Z 05003KT 1600 BR NSC 12/11 Q1017 NOSIG=,VEPT,21-12-2025 21:30,050,03,,1600 m,,12,11,1017,,,BR,,,,,,
202512212200 METAR VEPT 212200Z 32005KT 1600 BR NSC 13/12 Q1017 NOSIG=,VEPT,21-12-2025 22:00,320,05,,1600 m,,13,12,1017,,,BR,,,,,,
202512212230 METAR VEPT 212230Z 32005KT 1600 BR NSC 13/12 Q1017 NOSIG=,VEPT,21-12-2025 22:30,320,05,,1600 m,,13,12,1017,,,BR,,,,,,
202512212300 METAR VEPT 212300Z 28004KT 1600 BR NSC 13/12 Q1017 BECMG 1500 BR=,VEPT,21-12-2025 23:00,280,04,,1600 m,,13,12,1017,,,BR,,,BR,,,
202512212330 METAR VEPT 212330Z 30005KT 1200 MIFG NSC 13/11 Q1017 NOSIG=,VEPT,21-12-2025 23:30,300,05,,1200 m,,13,11,1017,,MI,FG,,,,,,
202512220000 METAR VEPT 220000Z 31005KT 1200 MIFG NSC 13/12 Q1017 NOSIG=,VEPT,22-12-2025 00:00,310,05,,1200 m,,13,12,1017,,MI,FG,,,,,,
202512220030 METAR VEPT 220030Z 25005KT 1200 MIFG NSC 13/11 Q1017 NOSIG=,VEPT,22-12-2025 00:30,250,05,,1200 m,,13,11,1017,,MI,FG,,,,,,
202512220100 METAR VEPT 220100Z 28005KT 1200 MIFG NSC 13/11 Q1018 NOSIG=,VEPT,22-12-2025 01:00,280,05,,1200 m,,13,11,1018,,MI,FG,,,,,,
202512220130 METAR VEPT 220130Z 26006KT 1000 R25/2000 R07/2000 MIFG NSC 13/11 Q1018 BECMG 0800 FG=,VEPT,22-12-2025 01:30,260,06,,1000 m,,13,11,1018,,MI,FG,,,FG,,,
202512220200 METAR VEPT 220200Z 26005KT 0800 R25/1700 R07/2000 FG VV/// 13/11 Q1019 NOSIG=,VEPT,22-12-2025 02:00,260,05,,0800 m,,13,11,1019,,,FG,,,,,,
202512220230 METAR VEPT 220230Z 27006KT 0800 R25/1800 R07/1900 FG VV/// 13/11 Q1019 NOSIG=,VEPT,22-12-2025 02:30,270,06,,0800 m,,13,11,1019,,,FG,,,,,,
202512220300 METAR VEPT 220300Z 28004KT 0800 R25/1700 R07/1900 FG VV/// 13/11 Q1019 NOSIG=,VEPT,22-12-2025 03:00,280,04,,0800 m,,13,11,1019,,,FG,,,,,,
202512220330 METAR VEPT 220330Z 27005KT 0800 R25/1600 R07/1900 FG VV/// 13/11 Q1019 NOSIG=,VEPT,22-12-2025 03:30,270,05,,0800 m,,13,11,1019,,,FG,,,,,,
202512220400 METAR VEPT 220400Z 25005KT 0800 R25/1600 R07/1800 FG VV/// 13/11 Q101 9 NOSIG=,VEPT,22-12-2025 04:00,250,05,,0800 m,,13,11,,,,FG,,,,,,
202512220430 METAR VEPT 220430Z 27006KT 0800 R25/1500 R07/1800 FG VV/// 13/11 Q1019 NOSIG=,VEPT,22-12-2025 04:30,270,06,,0800 m,,13,11,1019,,,FG,,,,,,
202512220500 METAR VEPT 220500Z 32005KT 0800 R25/1500 R07/1700 FG VV/// 14/11 Q1019 NOSIG=,VEPT,22-12-2025 05:00,320,05,,0800 m,,14,11,1019,,,FG,,,,,,
202512220530 METAR VEPT 220530Z 27006KT 1000 R25/1500 R07/1700 MIFG FEW020 SCT100 14/11 Q1019 NOSIG=,VEPT,22-12-2025 05:30,270,06,,1000 m,"FEW020, SCT100",14,11,1019,,MI,FG,,,,,,
202512220600 METAR VEPT 220600Z 29007KT 1000 R25/1500 R07/1700 MIFG FEW020 SCT100 15/11 Q1018 NOSIG=,VEPT,22-12-2025 06:00,290,07,,1000 m,"FEW020, SCT100",15,11,1018,,MI,FG,,,,,,
202512220630 METAR VEPT 220630Z 31006KT 1000 R25/1600 R07/1800 MIFG FEW020 SCT100 16/11 Q1017 NOSIG=,VEPT,22-12-2025 06:30,310,06,,1000 m,"FEW020, SCT100",16,11,1017,,MI,FG,,,,,,
202512220700 METAR VEPT 220700Z 28006KT 1200 R25/1600 R07/1800 BR SCT020 SCT100 16/11 Q1017 NOSIG=,VEPT,22-12-2025 07:00,280,06,,1200 m,"SCT020, SCT100",16,11,1017,,,BR,,,,,,
202512220730 METAR VEPT 220730Z 29006KT 1200 R25/1600 R07/1800 BR SCT020 SCT100 16/12 Q1016 NOSIG=,VEPT,22-12-2025 07:30,290,06,,1200 m,"SCT020, SCT100",16,12,1016,,,BR,,,,,,
202512220800 METAR VEPT 220800Z 30003KT 1300 R25/1700 R07/1800 HZ FEW100 18/12 Q1016 BECMG 1500 HZ=,VEPT,22-12-2025 08:00,300,03,,1300 m,FEW100,18,12,1016,,,HZ,,,HZ,,,
202512220830 METAR VEPT 220830Z 29008KT 1400 R25/1700 R07/1800 HZ NSC 18/13 Q1015 NOSIG=,VEPT,22-12-2025 08:30,290,08,,1400 m,,18,13,1015,,,HZ,,,,,,
202512220900 METAR VEPT 220900Z 32005KT 1400 R25/1800 R07/1800 HZ NSC 18/12 Q1015 NOSIG=,VEPT,22-12-2025 09:00,320,05,,1400 m,,18,12,1015,,,HZ,,,,,,
202512220930 METAR VEPT 220930Z 27006KT 1600 HZ NSC 19/12 Q1014 NOSIG=,VEPT,22-12-2025 09:30,270,06,,1600 m,,19,12,1014,,,HZ,,,,,,
202512221000 METAR VEPT 221000Z 29005KT 1600 HZ NSC 19/12 Q1014 NOSIG=,VEPT,22-12-2025 10:00,290,05,,1600 m,,19,12,1014,,,HZ,,,,,,
202512221030 METAR VEPT 221030Z 26005KT 1800 HZ NSC 19/12 Q1014 NOSIG=,VEPT,22-12-2025 10:30,260,05,,1800 m,,19,12,1014,,,HZ,,,,,,
202512221100 METAR VEPT 221100Z 29003KT 1800 HZ NSC 18/12 Q1014 NOSIG=,VEPT,22-12-2025 11:00,290,03,,1800 m,,18,12,1014,,,HZ,,,,,,
202512221130 METAR VEPT 221130Z 27003KT 1800 HZ NSC 18/12 Q1014 NOSIG=,VEPT,22-12-2025 11:30,270,03,,1800 m,,18,12,1014,,,HZ,,,,,,
202512221200 METAR VEPT 221200Z 27003KT 2000 BR NSC 17/13 Q1014 NOSIG=,VEPT,22-12-2025 12:00,270,03,,2000 m,,17,13,1014,,,BR,,,,,,
202512221230 METAR VEPT 221230Z 00000KT 2000 BR NSC 16/13 Q1014 NOSIG=,VEPT,22-12-2025 12:30,000,00,,2000 m,,16,13,1014,,,BR,,,,,,
202512221300 METAR VEPT 221300Z 00000KT 2000 BR NSC 15/13 Q1014 NOSIG=,VEPT,22-12-2025 13:00,000,00,,2000 m,,15,13,1014,,,BR,,,,,,
202512221330 METAR VEPT 221330Z 00000KT 1800 BR NSC 15/13 Q1015 NOSIG=,VEPT,22-12-2025 13:30,000,00,,1800 m,,15,13,1015,,,BR,,,,,,
202512221400 METAR VEPT 221400Z 00000KT 1800 BR NSC 15/13 Q1015 NOSIG=,VEPT,22-12-2025 14:00,000,00,,1800 m,,15,13,1015,,,BR,,,,,,
202512221430 METAR VEPT 221430Z 00000KT 1800 BR NSC 14/13 Q1015 NOSIG=,VEPT,22-12-2025 14:30,000,00,,1800 m,,14,13,1015,,,BR,,,,,,
202512221500 METAR VEPT 221500Z 00000KT 1600 BR NSC 14/13 Q1015 BECMG 1500 BR=,VEPT,22-12-2025 15:00,000,00,,1600 m,,14,13,1015,,,BR,,,BR,,,
202512221530 METAR VEPT 221530Z 00000KT 1500 R25/1800 R07/1800 BR NSC 14/12 Q1015 NOSIG=,VEPT,22-12-2025 15:30,000,00,,1500 m,,14,12,1015,,,BR,,,,,,
202512221600 METAR VEPT 221600Z 00000KT 1300 R25/1500 R07/1300 BR NSC 14/12 Q1015 NOSIG=,VEPT,22-12-2025 16:00,000,00,,1300 m,,14,12,1015,,,BR,,,,,,
202512221630 METAR VEPT 221630Z 00000KT 1300 R25/1800 R07/1500 BR NSC 15/13 Q1016 NOSIG=,VEPT,22-12-2025 16:30,000,00,,1300 m,,15,13,1016,,,BR,,,,,,
202512221700 METAR VEPT 221700Z 00000KT 1200 R25/1300 R07/1400 BR NSC 13/12 Q1016 NOSIG=,VEPT,22-12-2025 17:00,000,00,,1200 m,,13,12,1016,,,BR,,,,,,
202512221730 METAR VEPT 221730Z 00000KT 1200 R25/1200 R07/1500 BR NSC 13/12 Q1016 NOSIG=,VEPT,22-12-2025 17:30,000,00,,1200 m,,13,12,1016,,,BR,,,,,,
202512221800 METAR VEPT 221800Z 00000KT 1000 R25/0900 R07/0900 MIFG NSC 12/12 Q101 6 NOSIG=,VEPT,22-12-2025 18:00,000,00,,1000 m,,12,12,,,MI,FG,,,,,,
202512221830 METAR VEPT 221830Z 00000KT 1000 R25/0700 R07/0800 MIFG NSC 12/12 Q1016 NOSIG=,VEPT,22-12-2025 18:30,000,00,,1000 m,,12,12,1016,,MI,FG,,,,,,
202512221900 METAR VEPT 221900Z 24003KT 0900 R25/1200 R07/0900 FG NSC 12/11 Q1016 BECMG 0800 FG=,VEPT,22-12-2025 19:00,240,03,,0900 m,,12,11,1016,,,FG,,,FG,,,
202512221930 METAR VEPT 221930Z 26003KT 0800 R25/0600 R07/1100 FG NSC 12/12 Q1016 NOSIG=,VEPT,22-12-2025 19:30,260,03,,0800 m,,12,12,1016,,,FG,,,,,,
202512222000 METAR VEPT 222000Z 25004KT 0800 R25/1000 R07/1000 FG VV/// 12/12 Q1015 NOSIG=,VEPT,22-12-2025 20:00,250,04,,0800 m,,12,12,1015,,,FG,,,,,,
202512222030 METAR VEPT 222030Z 00000KT 0700 R25/0400 R07/0400 FG VV/// 12/11 Q1015 NOSIG=,VEPT,22-12-2025 20:30,000,00,,0700 m,,12,11,1015,,,FG,,,,,,
202512222100 METAR VEPT 222100Z 00000KT 0700 R25/0600 R07/0400 FG VV/// 12/11 Q1015 NOSIG=,VEPT,22-12-2025 21:00,000,00,,0700 m,,12,11,1015,,,FG,,,,,,
202512222130 METAR VEPT 222130Z 00000KT 0700 R25/0650 R07/0750 FG VV/// 12/12 Q1015 BECMG 600 FG=,VEPT,22-12-2025 21:30,000,00,,0700 m,,12,12,1015,,,FG,,,FG,,,
202512222200 METAR VEPT 222200Z 24003KT 0600 R25/0900 R07/0800 FG VV/// 12/12 Q1015 NOSIG=,VEPT,22-12-2025 22:00,240,03,,0600 m,,12,12,1015,,,FG,,,,,,
202512222230 METAR VEPT 222230Z 24003KT 0500 R25/0600 R07/0500 FG VV/// 12/12 Q1015 NOSIG=,VEPT,22-12-2025 22:30,240,03,,0500 m,,12,12,1015,,,FG,,,,,,
202512222300 METAR VEPT 222300Z 25004KT 0400 R25/0400 R07/0400 FG VV/// 12/12 Q101 5 BECMG 350 FG=,VEPT,22-12-2025 23:00,250,04,,0400 m,,12,12,,,,FG,,,FG,,,
202512222330 METAR COR VEPT 222330Z 24003KT 0350 R25/0400 R07/0350 FG VV/// 12/12 Q1015 NOSIG=,VEPT,22-12-2025 23:30,240,03,,0350 m,,12,12,1015,,,FG,,,,,,
202512230000 METAR VEPT 230000Z 24003KT 0300 R25/0350 R07/0400 FG VV/// 12/12 Q1015 NOSIG=,VEPT,23-12-2025 00:00,240,03,,0300 m,,12,12,1015,,,FG,,,,,,
202512230030 METAR VEPT 230030Z 26005KT 0200 R25/0300 R07/0350 FG VV/// 12/12 Q1015 BECMG 0150 FG=,VEPT,23-12-2025 00:30,260,05,,0200 m,,12,12,1015,,,FG,,,FG,,,
202512230100 METAR VEPT 230100Z 24004KT 0150 R25/0150 R07/0250 FG VV/// 11/11 Q1015 NOSIG=,VEPT,23-12-2025 01:00,240,04,,0150 m,,11,11,1015,,,FG,,,,,,
202512230130 METAR VEPT 230130Z 24005KT 0100 R25/0150 R07/0150 FG VV/// 11/11 Q1016 NOSIG=,VEPT,23-12-2025 01:30,240,05,,0100 m,,11,11,1016,,,FG,,,,,,
202512230200 METAR VEPT 230200Z 26005KT 0100 R25/0150 R07/0150 FG VV/// 11/11 Q1016 NOSIG=,VEPT,23-12-2025 02:00,260,05,,0100 m,,11,11,1016,,,FG,,,,,,
202512230230 METAR VEPT 230230Z 26005KT 0100 R25/0200 R07/0150 FG VV/// 11/11 Q1017 BECMG 0150 FG=,VEPT,23-12-2025 02:30,260,05,,0100 m,,11,11,1017,,,FG,,,FG,,,
202512230300 METAR VEPT 230300Z 23006KT 0100 R25/0250 R07/0250 FG VV/// 11/11 Q1017 NOSIG=,VEPT,23-12-2025 03:00,230,06,,0100 m,,11,11,1017,,,FG,,,,,,
202512230330 METAR VEPT 230330Z 28005KT 0150 R25/0400 R07/0400 FG VV/// 11/11 Q1017 NOSIG=,VEPT,23-12-2025 03:30,280,05,,0150 m,,11,11,1017,,,FG,,,,,,
202512230400 METAR VEPT 230400Z 25005KT 0250 R25/0500 R07/0500 FG VV/// 11/11 Q1017 BECMG 0350 FG=,VEPT,23-12-2025 04:00,250,05,,0250 m,,11,11,1017,,,FG,,,FG,,,
202512230430 METAR VEPT 230430Z 24005KT 0300 R25/0600 R07/0600 FG VV/// 11/11 Q1017 NOSIG=,VEPT,23-12-2025 04:30,240,05,,0300 m,,11,11,1017,,,FG,,,,,,
202512230500 METAR VEPT 230500Z 24005KT 0350 R25/0600 R07/0600 FG VV/// 12/11 Q1017 NOSIG=,VEPT,23-12-2025 05:00,240,05,,0350 m,,12,11,1017,,,FG,,,,,,
202512230530 METAR VEPT 230530Z 29003KT 0550 R25/0800 R07/0800 FG VV/// 12/12 Q1017 BECMG 0600 FG=,VEPT,23-12-2025 05:30,290,03,,0550 m,,12,12,1017,,,FG,,,FG,,,
202512230600 METAR VEPT 230600Z 29003KT 0700 R25/1200 R07/1200 FG VV/// 12/12 Q1016 BECMG 0800 FG=,VEPT,23-12-2025 06:00,290,03,,0700 m,,12,12,1016,,,FG,,,FG,,,
202512230630 METAR VEPT 230630Z 27004KT 0700 R25/1200 R07/1200 FG VV/// 13/12 Q1016 NOSIG=,VEPT,23-12-2025 06:30,270,04,,0700 m,,13,12,1016,,,FG,,,,,,
202512230700 METAR VEPT 230700Z 23004KT 0800 R25/1300 R07/1300 FG VV/// 13/13 Q1015 NOSIG=,VEPT,23-12-2025 07:00,230,04,,0800 m,,13,13,1015,,,FG,,,,,,
202512230730 METAR VEPT 230730Z 27004KT 0800 R25/1300 R07/1300 FG VV/// 14/13 Q1015 NOSIG=,VEPT,23-12-2025 07:30,270,04,,0800 m,,14,13,1015,,,FG,,,,,,
202512230800 METAR VEPT 230800Z 28004KT 0800 R25/1400 R07/1300 FG VV/// 15/13 Q1014 NOSIG=,VEPT,23-12-2025 08:00,280,04,,0800 m,,15,13,1014,,,FG,,,,,,
202512230830 METAR VEPT 230830Z 26007KT 0800 R25/1400 R07/1300 FG VV/// 14/13 Q1014 NOSIG=,VEPT,23-12-2025 08:30,260,07,,0800 m,,14,13,1014,,,FG,,,,,,
202512230900 METAR VEPT 230900Z 28007KT 0800 R25/1500 R07/1400 FG VV/// 14/13 Q1014 NOSIG=,VEPT,23-12-2025 09:00,280,07,,0800 m,,14,13,1014,,,FG,,,,,,
202512230930 METAR VEPT 230930Z 28006KT 0800 R25/1500 R07/1300 FG VV/// 14/13 Q1014 NOSIG=,VEPT,23-12-2025 09:30,280,06,,0800 m,,14,13,1014,,,FG,,,,,,
202512231000 METAR VEPT 231000Z 27005KT 0800 R25/1600 R07/1400 FG VV/// 14/13 Q1014 NOSIG=,VEPT,23-12-2025 10:00,270,05,,0800 m,,14,13,1014,,,FG,,,,,,
202512231030 METAR VEPT 231030Z 24004KT 0800 R25/1700 R07/1500 FG VV/// 14/13 Q1014 NOSIG=,VEPT,23-12-2025 10:30,240,04,,0800 m,,14,13,1014,,,FG,,,,,,
202512231100 METAR VEPT 231100Z 28003KT 0800 R25/1800 R07/1700 FG VV/// 14/13 Q1014 NOSIG=,VEPT,23-12-2025 11:00,280,03,,0800 m,,14,13,1014,,,FG,,,,,,
202512231130 METAR VEPT 231130Z 33003KT 0800 R25/2000 R07/1800 FG VV/// 14/13 Q1014 NOSIG=,VEPT,23-12-2025 11:30,330,03,,0800 m,,14,13,1014,,,FG,,,,,,
202512231200 METAR VEPT 231200Z 28005KT 1000 R25/2000 R07/2000 MIFG VV/// 14/13 Q1014 NOSIG=,VEPT,23-12-2025 12:00,280,05,,1000 m,,14,13,1014,,MI,FG,,,,,,
202512231230 METAR VEPT 231230Z 28004KT 1200 R25/2000 R07/2000 MIFG NSC 14/13 Q1014 NOSIG=,VEPT,23-12-2025 12:30,280,04,,1200 m,,14,13,1014,,MI,FG,,,,,,
202512231300 METAR VEPT 231300Z 27003KT 1200 R25/2000 R07/2000 MIFG NSC 14/13 Q1014 NOSIG=,VEPT,23-12-2025 13:00,270,03,,1200 m,,14,13,1014,,MI,FG,,,,,,
202512231330 METAR VEPT 231330Z 31004KT 1200 R25/2000 R07/1800 MIFG NSC 14/13 Q1014 NOSIG=,VEPT,23-12-2025 13:30,310,04,,1200 m,,14,13,1014,,MI,FG,,,,,,
202512231400 METAR VEPT 231400Z 34004KT 1000 R25/2000 R07/1800 MIFG NSC 14/13 Q101 4 NOSIG=,VEPT,23-12-2025 14:00,340,04,,1000 m,,14,13,,,MI,FG,,,,,,
202512231430 METAR VEPT 231430Z 29003KT 1000 R25/2000 R07/1800 MIFG NSC 14/13 Q1014 NOSIG=,VEPT,23-12-2025 14:30,290,03,,1000 m,,14,13,1014,,MI,FG,,,,,,
202512231500 METAR VEPT 231500Z 31005KT 1000 R25/2000 R07/1900 MIFG NSC 14/13 Q1015 NOSIG=,VEPT,23-12-2025 15:00,310,05,,1000 m,,14,13,1015,,MI,FG,,,,,,
202512231530 METAR VEPT 231530Z 36003KT 1000 R25/2000 R07/1900 MIFG NSC 16/14 Q1015 NOSIG=,VEPT,23-12-2025 15:30,360,03,,1000 m,,16,14,1015,,MI,FG,,,,,,
202512231600 METAR VEPT 231600Z 00000KT 1000 R25/2000 R07/2000 MIFG NSC 14/12 Q1015 BECMG 800 FG=,VEPT,23-12-2025 16:00,000,00,,1000 m,,14,12,1015,,MI,FG,,,FG,,,
202512231630 METAR VEPT 231630Z 25003KT 1000 R25/2000 R07/2000 MIFG NSC 14/12 Q1015 NOSIG=,VEPT,23-12-2025 16:30,250,03,,1000 m,,14,12,1015,,MI,FG,,,,,,
202512231700 METAR VEPT 231700Z 00000KT 0800 R25/2000 R07/1800 FG NSC 14/13 Q1015 NOSIG=,VEPT,23-12-2025 17:00,000,00,,0800 m,,14,13,1015,,,FG,,,,,,
202512231730 METAR VEPT 231730Z 25003KT 0800 R25/2000 R07/2000 FG NSC 14/12 Q1015 NOSIG=,VEPT,23-12-2025 17:30,250,03,,0800 m,,14,12,1015,,,FG,,,,,,
202512231800 METAR VEPT 231800Z 00000KT 0800 R25/2000 R07/1900 FG NSC 14/13 Q1015 NOSIG=,VEPT,23-12-2025 18:00,000,00,,0800 m,,14,13,1015,,,FG,,,,,,
202512231830 METAR VEPT 231830Z 00000KT 0800 R25/2000 R07/1900 FG NSC 14/13 Q1015 NOSIG=,VEPT,23-12-2025 18:30,000,00,,0800 m,,14,13,1015,,,FG,,,,,,
202512231900 METAR VEPT 231900Z 00000KT 0800 R25/2000 R07/1800 FG NSC 14/13 Q1015 NOSIG=,VEPT,23-12-2025 19:00,000,00,,0800 m,,14,13,1015,,,FG,,,,,,
202512231930 METAR VEPT 231930Z 29003KT 0800 R25/2000 R07/2000 FG NSC 14/12 Q1015 NOSIG=,VEPT,23-12-2025 19:30,290,03,,0800 m,,14,12,1015,,,FG,,,,,,
202512232000 METAR VEPT 232000Z 00000KT 0800 R25/2000 R07/1700 FG NSC 14/12 Q1014 NOSIG=,VEPT,23-12-2025 20:00,000,00,,0800 m,,14,12,1014,,,FG,,,,,,
202512232030 METAR VEPT 232030Z 00000KT 0800 R25/2000 R07/1700 FG NSC 14/12 Q1014 NOSIG=,VEPT,23-12-2025 20:30,000,00,,0800 m,,14,12,1014,,,FG,,,,,,
202512232100 METAR VEPT 232100Z 02003KT 0800 R25/2000 R07/1800 FG NSC 14/12 Q1014 NOSIG=,VEPT,23-12-2025 21:00,020,03,,0800 m,,14,12,1014,,,FG,,,,,,
202512232130 METAR VEPT 232130Z 00000KT 0800 R25/2000 R07/1800 FG NSC 14/12 Q1014 NOSIG=,VEPT,23-12-2025 21:30,000,00,,0800 m,,14,12,1014,,,FG,,,,,,
202512232200 METAR VEPT 232200Z 00000KT 0800 R25/2000 R07/1800 FG NSC 14/12 Q1014 NOSIG=,VEPT,23-12-2025 22:00,000,00,,0800 m,,14,12,1014,,,FG,,,,,,
202512232230 METAR VEPT 232230Z 00000KT 0800 R25/2000 R07/1800 FG NSC 14/12 Q1014 NOSIG=,VEPT,23-12-2025 22:30,000,00,,0800 m,,14,12,1014,,,FG,,,,,,
202512232300 METAR VEPT 232300Z 00000KT 0800 R25/2000 R07/1800 FG NSC 14/12 Q1014 NOSIG=,VEPT,23-12-2025 23:00,000,00,,0800 m,,14,12,1014,,,FG,,,,,,
202512232330 METAR VEPT 232330Z 00000KT 0800 R25/2000 R07/1800 FG NSC 14/12 Q1014 NOSIG=,VEPT,23-12-2025 23:30,000,00,,0800 m,,14,12,1014,,,FG,,,,,,
